{"type": "FeatureCollection", "features": [{"type": "Feature", "properties": {"district": "North and Middle Andaman", "dt_code": "639", "st_nm": "Andaman and Nicobar Islands", "st_code": "35", "year": "2011_c"}, "geometry": {"type": "MultiPolygon", "coordinates": [[[[92.8657485654936, 12.235146126605272], [92.85504425094558, 12.159534635014973], [92.76940973456146, 12.182905459688339], [92.74035516650257, 12.24614416174568], [92.81069780496095, 12.313507126980674], [92.83210643405698, 12.301134337447715], [92.8718653166639, 12.302509091840266], [92.8657485654936, 12.235146126605272]]], [[[92.87339450445647, 12.331378934083835], [92.8305772462644, 12.302509091840266], [92.80916861716838, 12.316256635765775], [92.7785848613169, 12.313507126980674], [92.71894653740654, 12.299759583055163], [92.69906709610308, 12.328629425298733], [92.71282978623624, 12.544465864929224], [92.74494272988028, 12.72318393596084], [92.72965085195455, 12.835913796150015], [92.79387673924263, 12.862034129608482], [92.78775998807234, 13.020130884751834], [92.82140211950896, 13.112239429052746], [92.84128156081242, 13.391314570740576], [92.87033612887132, 13.472425079901079], [92.93303282836683, 13.498545413359547], [92.98808358889949, 13.574156904949847], [93.04313434943214, 13.528790009995667], [93.03090084709154, 13.344572921393848], [93.06454297852817, 13.2730856929812], [93.03090084709154, 13.178227639895187], [93.0339592226767, 13.081994832416626], [92.95902902084059, 13.016006621574181], [92.9116241992708, 13.054499744565607], [92.85810262653072, 12.901902006992458], [92.9238577016114, 12.884030199889295], [92.96820414759603, 12.739680988671452], [92.95597064525543, 12.624201619697176], [92.97432089876632, 12.543091110536674], [92.87339450445647, 12.331378934083835]]]]}}, {"type": "Feature", "properties": {"district": "South Andaman", "dt_code": "640", "st_nm": "Andaman and Nicobar Islands", "st_code": "35", "year": "2011_c"}, "geometry": {"type": "MultiPolygon", "coordinates": [[[[92.52015212437196, 10.89751010265325], [92.58590719945263, 10.787529751249178], [92.59661151400064, 10.681673663022757], [92.53085643891998, 10.520827399094303], [92.43298842019527, 10.551071995730423], [92.38405441083292, 10.67067562788235], [92.37793765966262, 10.782030733678972], [92.52015212437196, 10.89751010265325]]], [[[92.6394287721927, 11.510650561730948], [92.68989196934763, 11.37454987686841], [92.59814070179321, 11.347054789017392], [92.58590719945263, 11.400670210326878], [92.6394287721927, 11.510650561730948]]], [[[92.7556470444283, 12.177406442118134], [92.7556470444283, 12.174656933333033], [92.73423841533227, 12.083923143424673], [92.78164323690206, 12.04817952921835], [92.70671303506595, 11.973942792020601], [92.7908183636575, 11.885958510897344], [92.75411785663573, 11.701741422295523], [92.66083740128873, 11.653625018556243], [92.75105948105058, 11.609632877994613], [92.66542496466646, 11.505151544160746], [92.55073588022344, 11.719613229398686], [92.5354440022977, 11.912078844355811], [92.60119907737837, 11.84884014229847], [92.6226077064744, 12.101794950527836], [92.66083740128873, 12.214524810717009], [92.7556470444283, 12.177406442118134]]]]}}, {"type": "Feature", "properties": {"district": "Nicobars", "dt_code": "638", "st_nm": "Andaman and Nicobar Islands", "st_code": "35", "year": "2011_c"}, "geometry": {"type": "MultiPolygon", "coordinates": [[[[93.83678281377783, 7.240663418467861], [93.86889575742188, 7.204919804261538], [93.9147713911991, 6.94921548724707], [93.87807088417733, 6.793868240888819], [93.80008230675607, 6.766373153037801], [93.7175061659571, 6.991832873416148], [93.66704296880216, 7.023452224444819], [93.64563433970613, 7.126558803886136], [93.67468890776505, 7.191172260336028], [93.83678281377783, 7.240663418467861]]], [[[93.70068510023879, 7.445501822957945], [93.74350235843085, 7.3767641033304], [93.71291860257938, 7.312150646880507], [93.6364592129507, 7.244787681645513], [93.60893383268437, 7.312150646880507], [93.70068510023879, 7.445501822957945]]], [[[92.79234755145006, 9.238181550844315], [92.82598968288669, 9.140573988973202], [92.72812166416197, 9.126826445047692], [92.72047572519911, 9.218934989348602], [92.79234755145006, 9.238181550844315]]]]}}], "metadata": {"source": "udit-001/india-maps-data (Census 2011)", "url": "https://github.com/udit-001/india-maps-data", "license": "ODbL (Open Database License)", "feature_count": 4}}