{"type": "FeatureCollection", "features": [{"type": "Feature", "properties": {"district": "Srikakulam", "dt_code": "542", "st_nm": "Andhra Pradesh", "st_code": "37", "year": "2011_c"}, "geometry": {"type": "Polygon", "coordinates": [[[83.75637688513262, 18.91095345683243], [83.74720175837717, 18.993438720385484], [83.79307739215439, 19.018184299451402], [83.8909454108791, 18.81609540374642], [84.0362182511736, 18.81747015813897], [84.08973982391367, 18.75835571925928], [84.22430834966015, 18.79959835103581], [84.3191179927997, 18.7886003158954], [84.4353362650353, 18.924701000757942], [84.42310276269471, 18.949446579823856], [84.51485403024913, 19.049803650480072], [84.5913134198778, 19.023683317021607], [84.62342636352186, 19.085547264686397], [84.70141494094311, 19.118541370107618], [84.76411164043863, 19.074549229545987], [84.6035469222184, 18.890332140944167], [84.5515545372709, 18.78997507028795], [84.4934454011531, 18.740483912156122], [84.3542893120289, 18.55489206916175], [84.14784896003147, 18.37342448934503], [84.12796951872801, 18.31293529607279], [83.93529185686373, 18.208453962238924], [83.66309642978564, 18.07922704933914], [83.60345810587526, 18.15758804971454], [83.67380074433365, 18.28269069943667], [83.58510785236437, 18.354177927849317], [83.58052028898666, 18.499901893459715], [83.63251267393416, 18.5562668235543], [83.54840734534261, 18.596134700938276], [83.5377030307946, 18.71023931552], [83.68909262225938, 18.806472122998564], [83.81295683345785, 18.836716719634683], [83.75637688513262, 18.91095345683243]]]}}, {"type": "Feature", "properties": {"district": "Vizianagaram", "dt_code": "543", "st_nm": "Andhra Pradesh", "st_code": "37", "year": "2011_c"}, "geometry": {"type": "Polygon", "coordinates": [[[83.34808374451546, 19.018184299451402], [83.45971445337334, 18.956320351786612], [83.48112308246937, 19.03468135216201], [83.60804566925299, 19.0965452998268], [83.66309642978564, 19.099294808611905], [83.75637688513262, 18.91095345683243], [83.81295683345785, 18.836716719634683], [83.68909262225938, 18.806472122998564], [83.5377030307946, 18.71023931552], [83.54840734534261, 18.596134700938276], [83.63251267393416, 18.5562668235543], [83.58052028898666, 18.499901893459715], [83.58510785236437, 18.354177927849317], [83.67380074433365, 18.28269069943667], [83.60345810587526, 18.15758804971454], [83.66309642978564, 18.07922704933914], [83.51935277728371, 17.950000136439353], [83.40619288063327, 17.96374768036486], [83.40313450504811, 18.057230979058325], [83.27315354267937, 18.007739820926492], [83.20586927980612, 17.846893556998037], [83.14623095589576, 17.845518802605486], [83.11105963666657, 17.939002101298946], [83.00707486677156, 17.977495224290372], [83.00707486677156, 18.03523490877751], [83.15234770706604, 18.19058215513576], [83.26703679150907, 18.21670248859423], [83.07741750522995, 18.40366908598115], [83.01930836911214, 18.457284507290638], [83.04377537379332, 18.545268788413892], [82.99942892780868, 18.608507490471233], [83.13552664134774, 18.7858508071103], [83.20434009201355, 18.752856701689076], [83.41230963180357, 18.873835088233555], [83.317499988664, 18.97419215888977], [83.34808374451546, 19.018184299451402]]]}}, {"type": "Feature", "properties": {"district": "Visakhapatnam", "dt_code": "544", "st_nm": "Andhra Pradesh", "st_code": "37", "year": "2011_c"}, "geometry": {"type": "Polygon", "coordinates": [[[82.42751269338616, 18.486154349534203], [82.48562182950396, 18.52877173570328], [82.60642766511727, 18.366550717382275], [82.58654822381381, 18.27719168186647], [82.77310913450779, 18.34180513831636], [82.80675126594441, 18.451785489720432], [82.8939149701211, 18.381673015700336], [82.96884517195721, 18.361051699812073], [83.07741750522995, 18.40366908598115], [83.26703679150907, 18.21670248859423], [83.15234770706604, 18.19058215513576], [83.00707486677156, 18.03523490877751], [83.00707486677156, 17.977495224290372], [83.11105963666657, 17.939002101298946], [83.14623095589576, 17.845518802605486], [83.20586927980612, 17.846893556998037], [83.27315354267937, 18.007739820926492], [83.40313450504811, 18.057230979058325], [83.40619288063327, 17.96374768036486], [83.51935277728371, 17.950000136439353], [83.41995557076643, 17.856516837745893], [83.3465545567229, 17.725915170453558], [83.1615228338215, 17.559569888954897], [83.02083755690472, 17.507329222037967], [82.99178298884581, 17.472960362224192], [82.7027664960494, 17.34373344932441], [82.54220177782918, 17.248875396238397], [82.51773477314799, 17.29836655437023], [82.60336928953213, 17.45508855512103], [82.4657423882005, 17.51695250278582], [82.41069162766784, 17.46746134465399], [82.34493655258719, 17.494956432505006], [82.3036484821877, 17.58981448559102], [82.22871828035159, 17.63930564372285], [82.0023984870507, 17.63930564372285], [82.01616117718386, 17.753410258304577], [81.96111041665121, 17.818023714754467], [82.02992386731702, 17.939002101298946], [81.9794606701621, 18.013238838496697], [82.0314530551096, 18.069603768591282], [82.16755076864864, 18.053106715880674], [82.25012690944762, 17.992617522608434], [82.31894036011343, 18.044858189525364], [82.35105330375748, 18.172710348032602], [82.3143527967357, 18.185083137565556], [82.38316624740152, 18.367925471774825], [82.36175761830549, 18.421540893084313], [82.42751269338616, 18.486154349534203]]]}}, {"type": "Feature", "properties": {"district": "Krishna", "dt_code": "547", "st_nm": "Andhra Pradesh", "st_code": "37", "year": "2011_c"}, "geometry": {"type": "Polygon", "coordinates": [[[80.83104063793931, 15.70640096779629], [80.8952665252274, 15.92223740742678], [80.88150383509424, 16.067961373037175], [80.79892769429526, 16.282423058275114], [80.67353429530424, 16.424022760707857], [80.66435916854878, 16.47213916444714], [80.47168150668452, 16.588993287813963], [80.36922592458208, 16.587618533421413], [80.13984775569604, 16.653606744263858], [80.12761425335545, 16.802080218659356], [80.07256349282281, 16.817202516977414], [80.03892136138619, 16.91755958763363], [80.05574242710449, 16.971175008943113], [80.18725257726582, 17.02066616707495], [80.30652922508656, 16.973924517728214], [80.3218211030123, 16.879066464642207], [80.56954952540923, 16.76771135884558], [80.56343277423893, 16.832324815295472], [80.60166246905327, 16.918934342026184], [80.53437820618004, 16.96155172819526], [80.36310917341179, 16.97667402651332], [80.50532363812113, 17.06878257081423], [80.58025383995724, 17.152642588759832], [80.69953048777798, 17.08390486913229], [80.84480332807247, 17.03991272857066], [80.87691627171652, 17.07015732520678], [80.95796322472292, 17.050910763711066], [80.93502540783432, 16.958802219410156], [80.99619291953726, 16.82820055211782], [80.97325510264866, 16.62611165641284], [81.0176015486333, 16.561498199962948], [81.18887058140153, 16.621987393235187], [81.23780459076389, 16.591742796599068], [81.32955585831832, 16.68935035847018], [81.34331854845146, 16.529878848934278], [81.43812819159103, 16.399277181641942], [81.55281727603405, 16.347036514725005], [81.39225255781382, 16.342912251547354], [81.26532997103021, 16.278298795097463], [81.21333758608272, 16.208186321077367], [81.14758251100204, 15.974478074343715], [81.01454317304814, 15.850750179014133], [81.00842642187786, 15.75451737153557], [80.93808378341946, 15.716024248544146], [80.83104063793931, 15.70640096779629]]]}}, {"type": "Feature", "properties": {"district": "Guntur", "dt_code": "548", "st_nm": "Andhra Pradesh", "st_code": "37", "year": "2011_c"}, "geometry": {"type": "Polygon", "coordinates": [[[80.07256349282281, 16.817202516977414], [80.12761425335545, 16.802080218659356], [80.13984775569604, 16.653606744263858], [80.36922592458208, 16.587618533421413], [80.47168150668452, 16.588993287813963], [80.66435916854878, 16.47213916444714], [80.67353429530424, 16.424022760707857], [80.79892769429526, 16.282423058275114], [80.88150383509424, 16.067961373037175], [80.8952665252274, 15.92223740742678], [80.83104063793931, 15.70640096779629], [80.77446068961409, 15.867247231724743], [80.67965104647453, 15.885119038827906], [80.53590739397261, 15.852124933406683], [80.41815993394444, 15.7985095120972], [80.37840105133752, 15.896117073968313], [80.37993023913009, 15.973103319951163], [80.30194166170884, 16.055588583504218], [80.23006983545788, 16.032217758830853], [80.1367893801109, 16.04596530275636], [80.00069166657184, 16.13944860144982], [79.87835664316596, 16.154570899767883], [79.86918151641052, 16.030843004438303], [79.91199877460258, 15.967604302380959], [79.86918151641052, 15.916738389856576], [79.79119293898925, 15.940109214529942], [79.74684649300463, 15.858998705369439], [79.65509522545021, 15.920862653034229], [79.55875639451807, 15.948357740885248], [79.57251908465123, 16.004722670979834], [79.53734776542204, 16.162819426123185], [79.56640233348094, 16.275549286312362], [79.4471256856602, 16.303044374163377], [79.37066629603152, 16.232931900143285], [79.21468914118901, 16.226058128180526], [79.21010157781129, 16.356659795472865], [79.21927670456672, 16.512007041831115], [79.25750639938107, 16.5656224631406], [79.4180711176013, 16.58074476145866], [79.4471256856602, 16.619237884450087], [79.54193532879977, 16.632985428375594], [79.67956223013138, 16.693474621647834], [79.79272212678183, 16.725093972676504], [79.87682745537339, 16.69759888482549], [79.94869928162434, 16.635734937160695], [80.05574242710449, 16.744340534172217], [80.07256349282281, 16.817202516977414]]]}}, {"type": "Feature", "properties": {"district": "East Godavari", "dt_code": "545", "st_nm": "Andhra Pradesh", "st_code": "37", "year": "2011_c"}, "geometry": {"type": "Polygon", "coordinates": [[[81.39684012119154, 17.818023714754467], [81.61704316332215, 17.82352273232467], [81.71644036983943, 17.875763399241606], [81.80972082518642, 17.95687390840211], [81.9794606701621, 18.013238838496697], [82.02992386731702, 17.939002101298946], [81.96111041665121, 17.818023714754467], [82.01616117718386, 17.753410258304577], [82.0023984870507, 17.63930564372285], [82.22871828035159, 17.63930564372285], [82.3036484821877, 17.58981448559102], [82.34493655258719, 17.494956432505006], [82.41069162766784, 17.46746134465399], [82.4657423882005, 17.51695250278582], [82.60336928953213, 17.45508855512103], [82.51773477314799, 17.29836655437023], [82.54220177782918, 17.248875396238397], [82.31894036011343, 17.05778453567382], [82.24859772165505, 16.935431394736792], [82.24859772165505, 16.876316955857103], [82.36175761830549, 16.85569563996884], [82.31741117232086, 16.661855270619164], [82.3143527967357, 16.558748691177847], [82.23330584372931, 16.542251638467235], [81.95652285327348, 16.39652767285684], [81.84947970779334, 16.373156848183477], [81.71491118204686, 16.311292900518684], [81.69961930412111, 16.422648006315306], [81.75619925244635, 16.424022760707857], [81.8464213322082, 16.495509989120507], [81.85865483454877, 16.598616568561823], [81.74396575010576, 16.79383169230405], [81.7240863088023, 16.91481007884853], [81.74549493789833, 16.96430123698036], [81.63998098021075, 17.20763276446187], [81.67973986281767, 17.30249081754788], [81.61551397552957, 17.33136065979145], [81.56352159058207, 17.439966256802972], [81.50082489108655, 17.4812088885795], [81.40754443573957, 17.464711835868886], [81.31426398039257, 17.488082660542254], [81.2546256564822, 17.565068906525102], [81.13687819645403, 17.581565959235714], [81.00689723408527, 17.646179415685605], [80.91055840315315, 17.6379308893303], [80.88609139847196, 17.735538451201414], [80.97325510264866, 17.77953059176304], [81.05888961903278, 17.732788942416313], [81.08488581150652, 17.797402398866204], [81.16593276451293, 17.857891592138444], [81.26532997103021, 17.811149942791715], [81.39684012119154, 17.818023714754467]], [[82.18590102215953, 16.737466762209465], [82.19966371229269, 16.720969709498853], [82.23942259489961, 16.7168454463212], [82.26694797516593, 16.694849376040384], [82.27000635075107, 16.722344463891403], [82.18590102215953, 16.737466762209465]]]}}, {"type": "Feature", "properties": {"district": "Prakasam", "dt_code": "549", "st_nm": "Andhra Pradesh", "st_code": "37", "year": "2011_c"}, "geometry": {"type": "Polygon", "coordinates": [[[79.21468914118901, 16.226058128180526], [79.37066629603152, 16.232931900143285], [79.4471256856602, 16.303044374163377], [79.56640233348094, 16.275549286312362], [79.53734776542204, 16.162819426123185], [79.57251908465123, 16.004722670979834], [79.55875639451807, 15.948357740885248], [79.65509522545021, 15.920862653034229], [79.74684649300463, 15.858998705369439], [79.79119293898925, 15.940109214529942], [79.86918151641052, 15.916738389856576], [79.91199877460258, 15.967604302380959], [79.86918151641052, 16.030843004438303], [79.87835664316596, 16.154570899767883], [80.00069166657184, 16.13944860144982], [80.1367893801109, 16.04596530275636], [80.23006983545788, 16.032217758830853], [80.30194166170884, 16.055588583504218], [80.37993023913009, 15.973103319951163], [80.37840105133752, 15.896117073968313], [80.41815993394444, 15.7985095120972], [80.315704351842, 15.7228980205069], [80.25147846455391, 15.633538984991091], [80.20560283077671, 15.474067475455188], [80.12302668997773, 15.368211387228769], [80.04045054917876, 15.009400490772984], [79.9624619717575, 15.021773280305942], [79.77895943664868, 14.980530648529415], [79.73461299066403, 15.031396561053798], [79.5633439578958, 15.043769350586757], [79.26056477496621, 15.107008052644098], [79.1290546248049, 15.100134280681344], [79.08929574219798, 15.047893613764408], [79.08317899102768, 15.17299626348654], [78.77734143251296, 15.199116596945007], [78.75899117900207, 15.183994298626947], [78.73605336211347, 15.32559400105969], [78.77122468134266, 15.420452054145702], [78.77122468134266, 15.665158336019761], [78.809454376157, 15.867247231724743], [78.91038077046686, 15.967604302380959], [78.92261427280745, 16.12295154873921], [78.90426401929656, 16.18344074201145], [79.0296574182876, 16.241180426498588], [79.15810919286379, 16.209561075469917], [79.21468914118901, 16.226058128180526]]]}}, {"type": "Feature", "properties": {"district": "Kurnool", "dt_code": "552", "st_nm": "Andhra Pradesh", "st_code": "37", "year": "2011_c"}, "geometry": {"type": "Polygon", "coordinates": [[[77.02642141001618, 15.837002635088623], [77.07229704379338, 15.909864617893822], [77.24815363993935, 15.964854793595858], [77.51423231584715, 15.927736424996983], [77.65950515614165, 15.885119038827906], [77.80324880864357, 15.874121003687499], [77.88735413723512, 15.905740354716169], [78.08309017468454, 15.841126898266277], [78.17484144223896, 15.857623950976889], [78.24824245628248, 15.971728565558612], [78.25588839524536, 16.008846934157486], [78.4103363622953, 16.07483514499993], [78.55102163921207, 16.043215793971257], [78.60148483636699, 16.084458425747783], [78.74064092549119, 16.008846934157486], [78.92261427280745, 16.12295154873921], [78.91038077046686, 15.967604302380959], [78.809454376157, 15.867247231724743], [78.77122468134266, 15.665158336019761], [78.77122468134266, 15.420452054145702], [78.73605336211347, 15.32559400105969], [78.75899117900207, 15.183994298626947], [78.76204955458722, 15.054767385727164], [78.63053940442589, 14.925540472827379], [78.51890869556802, 14.954410315070948], [78.4852665641314, 15.036895578624002], [78.41951148905073, 15.031396561053798], [78.28953052668197, 15.071264438437774], [78.22071707601617, 14.955785069463499], [78.13355337183947, 14.961284087033702], [78.03415616532219, 14.999777210025128], [78.01427672401873, 15.112507070214301], [77.81548231098415, 15.14275166685042], [77.74819804811092, 15.130378877317463], [77.66409271951937, 15.23486021115133], [77.5815165787204, 15.1881185618046], [77.52646581818775, 15.223862176010924], [77.36284272438238, 15.222487421618373], [77.29250008592399, 15.130378877317463], [77.15640237238493, 15.14000215806532], [77.12581861653346, 15.226611684796026], [77.15181480900722, 15.29259989563847], [77.06312191703795, 15.328343509844792], [77.03253816118647, 15.435574352463762], [77.0310089733939, 15.634913739383641], [77.0830013583414, 15.659659318449558], [77.02642141001618, 15.837002635088623]]]}}, {"type": "Feature", "properties": {"district": "Anantapur", "dt_code": "553", "st_nm": "Andhra Pradesh", "st_code": "37", "year": "2011_c"}, "geometry": {"type": "Polygon", "coordinates": [[[77.15640237238493, 15.14000215806532], [77.29250008592399, 15.130378877317463], [77.36284272438238, 15.222487421618373], [77.52646581818775, 15.223862176010924], [77.5815165787204, 15.1881185618046], [77.66409271951937, 15.23486021115133], [77.74819804811092, 15.130378877317463], [77.81548231098415, 15.14275166685042], [78.01427672401873, 15.112507070214301], [78.03415616532219, 14.999777210025128], [78.13355337183947, 14.961284087033702], [78.04638966766277, 14.77431748964678], [78.13508255963204, 14.694581734878827], [78.00051403388557, 14.488368575996194], [78.10602799157314, 14.393510522910182], [78.28494296330426, 14.291778697861416], [78.4210406768433, 14.28353017150611], [78.40574879891757, 14.201044907953056], [78.46079955945022, 14.107561609259594], [78.46538712282793, 13.994831749070421], [78.38739854540668, 13.938466818975835], [78.27270946096367, 13.894474678414205], [78.23753814173448, 13.778995309439932], [78.1259074328766, 13.787243835795236], [78.11520311832858, 13.862855327385535], [78.00051403388557, 13.872478608133392], [77.9699302780341, 13.959088134864098], [77.81395312319158, 13.915095994302469], [77.78184017954754, 13.818863186823906], [77.62127546132731, 13.767997274299523], [77.45612317972936, 13.682762501961367], [77.46988586986252, 13.758373993551668], [77.43318536284076, 13.843608765889822], [77.3261422173606, 13.833985485141966], [77.18086937706612, 13.869729099348291], [77.1579315601775, 13.806490397290949], [77.06465110483052, 13.743251695233607], [76.97748740065381, 13.827111713179212], [77.04171328794192, 13.932967801405631], [76.93161176687661, 14.030575363276744], [76.94843283259492, 14.095188819726637], [76.89491125985485, 14.168050802531834], [77.00348359312757, 14.198295399167954], [77.02795059780875, 14.062194714305416], [77.17322343810325, 14.012703556173584], [77.32155465398289, 14.030575363276744], [77.39801404361157, 13.906847467947163], [77.43471455063333, 13.948090099723691], [77.3903681046487, 14.016827819351235], [77.39342648023384, 14.17492457449459], [77.50352800129914, 14.157052767391427], [77.47906099661796, 14.291778697861416], [77.40871835815958, 14.337145592815595], [77.36437191217495, 14.275281645150805], [77.13805211887404, 14.337145592815595], [77.11664348977803, 14.225790487018973], [77.00501278092014, 14.235413767766829], [76.88420694530683, 14.348143627956002], [76.90102801102515, 14.489743330388745], [76.80621836788558, 14.530985962165271], [76.76493029748609, 14.602473190577918], [76.77563461203411, 14.68083419095332], [76.83680212373704, 14.790814542357392], [76.86738587958853, 14.969532613389008], [76.76034273410838, 14.988779174884721], [76.80010161671528, 15.09601001750369], [76.9851333396167, 15.014899508343188], [77.11358511419287, 15.0341460698389], [77.15640237238493, 15.14000215806532]]]}}, {"type": "Feature", "properties": {"district": "S.P.S. Nellore", "dt_code": "550", "st_nm": "Andhra Pradesh", "st_code": "37", "year": "2011_c"}, "geometry": {"type": "Polygon", "coordinates": [[[80.26829953027223, 13.56453362420199], [80.21477795753215, 13.490296887004241], [80.07868024399309, 13.488922132611691], [80.03739217359362, 13.538413290743524], [79.95634522058721, 13.707508081027283], [79.86918151641052, 13.706133326634733], [79.85083126289963, 13.769372028692075], [79.60769040388043, 13.853232046637679], [79.59239852595469, 13.923344520657775], [79.44559649786763, 13.891725169629105], [79.43642137111217, 14.02370159131399], [79.45477162462306, 14.10068783729684], [79.4348921833196, 14.243662294122135], [79.29267771861026, 14.484244312818541], [79.24221452145534, 14.592849909830061], [79.18869294871526, 14.616220734503427], [79.18716376092269, 14.71107878758944], [79.08164980323511, 14.981905402921965], [79.08929574219798, 15.047893613764408], [79.1290546248049, 15.100134280681344], [79.26056477496621, 15.107008052644098], [79.5633439578958, 15.043769350586757], [79.73461299066403, 15.031396561053798], [79.77895943664868, 14.980530648529415], [79.9624619717575, 15.021773280305942], [80.04045054917876, 15.009400490772984], [80.10926399984457, 14.738573875440457], [80.19642770402126, 14.585976137867307], [80.16890232375493, 14.350893136741103], [80.1306726289406, 14.228539995804073], [80.14596450686633, 14.041573398417153], [80.25453684013907, 13.783119572617583], [80.23312821104304, 13.6566421685029], [80.26829953027223, 13.56453362420199]]]}}, {"type": "Feature", "properties": {"district": "West Godavari", "dt_code": "546", "st_nm": "Andhra Pradesh", "st_code": "37", "year": "2011_c"}, "geometry": {"type": "Polygon", "coordinates": [[[81.55281727603405, 16.347036514725005], [81.43812819159103, 16.399277181641942], [81.34331854845146, 16.529878848934278], [81.32955585831832, 16.68935035847018], [81.23780459076389, 16.591742796599068], [81.18887058140153, 16.621987393235187], [81.0176015486333, 16.561498199962948], [80.97325510264866, 16.62611165641284], [80.99619291953726, 16.82820055211782], [80.93502540783432, 16.958802219410156], [80.95796322472292, 17.050910763711066], [80.87691627171652, 17.07015732520678], [80.87997464730167, 17.160891115115138], [80.94114215900461, 17.218630799602277], [80.99466373174468, 17.191135711751258], [81.1735787034758, 17.231003589135234], [81.1903997691941, 17.324486887828698], [81.27450509778566, 17.31761311586594], [81.30967641701486, 17.409721660166852], [81.02065992421844, 17.51970201157092], [80.91055840315315, 17.6379308893303], [81.00689723408527, 17.646179415685605], [81.13687819645403, 17.581565959235714], [81.2546256564822, 17.565068906525102], [81.31426398039257, 17.488082660542254], [81.40754443573957, 17.464711835868886], [81.50082489108655, 17.4812088885795], [81.56352159058207, 17.439966256802972], [81.61551397552957, 17.33136065979145], [81.67973986281767, 17.30249081754788], [81.63998098021075, 17.20763276446187], [81.74549493789833, 16.96430123698036], [81.7240863088023, 16.91481007884853], [81.74396575010576, 16.79383169230405], [81.85865483454877, 16.598616568561823], [81.8464213322082, 16.495509989120507], [81.75619925244635, 16.424022760707857], [81.69961930412111, 16.422648006315306], [81.71491118204686, 16.311292900518684], [81.55281727603405, 16.347036514725005]]]}}, {"type": "Feature", "properties": {"district": "Y.S.R. Kadapa", "dt_code": "551", "st_nm": "Andhra Pradesh", "st_code": "37", "year": "2011_c"}, "geometry": {"type": "Polygon", "coordinates": [[[78.75899117900207, 15.183994298626947], [78.77734143251296, 15.199116596945007], [79.08317899102768, 15.17299626348654], [79.08929574219798, 15.047893613764408], [79.08164980323511, 14.981905402921965], [79.18716376092269, 14.71107878758944], [79.18869294871526, 14.616220734503427], [79.24221452145534, 14.592849909830061], [79.29267771861026, 14.484244312818541], [79.4348921833196, 14.243662294122135], [79.45477162462306, 14.10068783729684], [79.43642137111217, 14.02370159131399], [79.44559649786763, 13.891725169629105], [79.45630081241563, 13.800991379720745], [79.30644040874343, 13.724005133737894], [79.22539345573702, 13.758373993551668], [79.21621832898158, 13.813364169253703], [79.14893406610834, 13.865604836170636], [78.8843845779931, 13.89997369598441], [78.64277290676648, 13.868354344955739], [78.59842646078184, 13.960462889256648], [78.46538712282793, 13.994831749070421], [78.46079955945022, 14.107561609259594], [78.40574879891757, 14.201044907953056], [78.4210406768433, 14.28353017150611], [78.28494296330426, 14.291778697861416], [78.10602799157314, 14.393510522910182], [78.00051403388557, 14.488368575996194], [78.13508255963204, 14.694581734878827], [78.04638966766277, 14.77431748964678], [78.13355337183947, 14.961284087033702], [78.22071707601617, 14.955785069463499], [78.28953052668197, 15.071264438437774], [78.41951148905073, 15.031396561053798], [78.4852665641314, 15.036895578624002], [78.51890869556802, 14.954410315070948], [78.63053940442589, 14.925540472827379], [78.76204955458722, 15.054767385727164], [78.75899117900207, 15.183994298626947]]]}}, {"type": "Feature", "properties": {"district": "Chittoor", "dt_code": "554", "st_nm": "Andhra Pradesh", "st_code": "37", "year": "2011_c"}, "geometry": {"type": "Polygon", "coordinates": [[[79.28350259185483, 13.123237464193153], [79.22845183132218, 13.157606324006924], [79.23456858249247, 13.10536565708999], [79.1626967562415, 13.020130884751834], [78.9944860990584, 13.086119095594277], [78.89203051695598, 13.095742376342134], [78.7513452400392, 13.054499744565607], [78.62136427767045, 12.991261042508267], [78.60301402415956, 12.84416232250532], [78.59230970961156, 12.78229837484053], [78.41186555008787, 12.626951128482279], [78.30176402902256, 12.665444251473703], [78.23142139056418, 12.760302304559715], [78.25283001966021, 12.860659375215931], [78.31246834357059, 12.85928462082338], [78.35528560176265, 12.940395129983884], [78.46691631062052, 12.974763989797655], [78.5143211321903, 13.061373516528363], [78.58619295844126, 13.275835201766302], [78.44397849373192, 13.308829307187523], [78.36446072851808, 13.362444728497008], [78.37363585527352, 13.509543448499954], [78.40116123553985, 13.587904448875356], [78.32623103370375, 13.59477822083811], [78.19625007133499, 13.568657887379644], [78.20389601029785, 13.629147080651883], [78.12131986949888, 13.71575660738259], [78.1259074328766, 13.787243835795236], [78.23753814173448, 13.778995309439932], [78.27270946096367, 13.894474678414205], [78.38739854540668, 13.938466818975835], [78.46538712282793, 13.994831749070421], [78.59842646078184, 13.960462889256648], [78.64277290676648, 13.868354344955739], [78.8843845779931, 13.89997369598441], [79.14893406610834, 13.865604836170636], [79.21621832898158, 13.813364169253703], [79.22539345573702, 13.758373993551668], [79.30644040874343, 13.724005133737894], [79.45630081241563, 13.800991379720745], [79.44559649786763, 13.891725169629105], [79.59239852595469, 13.923344520657775], [79.60769040388043, 13.853232046637679], [79.85083126289963, 13.769372028692075], [79.86918151641052, 13.706133326634733], [79.95634522058721, 13.707508081027283], [80.03739217359362, 13.538413290743524], [79.94564090603919, 13.363819482889559], [79.80954319250014, 13.317077833542829], [79.79425131457441, 13.240091587559977], [79.70250004702, 13.222219780456816], [79.68262060571654, 13.296456517654565], [79.53428938983689, 13.275835201766302], [79.53734776542204, 13.339073903823643], [79.40583761526071, 13.334949640645991], [79.43795055890476, 13.187850920643044], [79.28350259185483, 13.123237464193153]]]}}], "metadata": {"source": "udit-001/india-maps-data (Census 2011)", "url": "https://github.com/udit-001/india-maps-data", "license": "ODbL (Open Database License)", "feature_count": 14}}