{"type": "FeatureCollection", "features": [{"type": "Feature", "properties": {"district": "Upper Subansiri", "dt_code": "249", "st_nm": "Arunachal Pradesh", "st_code": "12", "year": "2011_c"}, "geometry": {"type": "Polygon", "coordinates": [[[94.4010531092375, 28.33901908094649], [94.35670666325287, 28.198794132906297], [94.39187798248206, 28.083314763932023], [94.48515843782906, 28.02145081626723], [94.59525995889435, 27.870227833086634], [94.31847696843852, 27.77262027121552], [94.19308356944748, 27.811113394206945], [94.14873712346285, 27.86610356990898], [94.07380692162675, 27.849606517198367], [94.06769017045646, 27.938965552714176], [93.96217621276887, 27.978833430098152], [93.85513306728872, 28.08194000953947], [93.89183357431048, 28.1286816588862], [93.83984118936299, 28.237287255897723], [93.67927647114276, 28.322522028235877], [93.61199220826953, 28.271656115711494], [93.45601505342701, 28.271656115711494], [93.33673840560627, 28.352766624871997], [93.22357850895582, 28.34176858973159], [93.18229043855634, 28.43250237963995], [93.27862926948848, 28.503989608052596], [93.33979678119141, 28.640090292915136], [93.49271556044877, 28.684082433476764], [93.62269652281753, 28.656587345625745], [93.84595794053328, 28.707453258150128], [93.96217621276887, 28.712952275720333], [94.02334372447181, 28.651088328055543], [94.00193509537579, 28.578226345250346], [94.10897824085595, 28.521861415155758], [94.14873712346285, 28.439376151602705], [94.24201757880985, 28.44624992356546], [94.32918128298654, 28.358265642442202], [94.4010531092375, 28.33901908094649]]]}}, {"type": "Feature", "properties": {"district": "Anjaw", "dt_code": "260", "st_nm": "Arunachal Pradesh", "st_code": "12", "year": "2011_c"}, "geometry": {"type": "Polygon", "coordinates": [[[96.86151626748844, 27.631020568782777], [96.69942236147563, 27.659890411026346], [96.62907972301724, 27.68463599009226], [96.6321380986024, 27.811113394206945], [96.52815332870739, 27.900472429722754], [96.41652261984952, 27.923843254396118], [96.28807084527332, 28.061318693651206], [96.33547566684311, 28.17267379944783], [96.29571678423619, 28.24966004543068], [96.30489191099164, 28.36926367758261], [96.31406703774708, 28.383011221508117], [96.50827388740393, 28.413255818144236], [96.57861652586232, 28.457247958705867], [96.66272185445386, 28.459997467490968], [96.78046931448203, 28.363764660012404], [96.89668758671763, 28.380261712723016], [96.99455560544234, 28.31014923870292], [97.0893652485819, 28.362389905619853], [97.1704122015883, 28.292277431599757], [97.22087539874323, 28.292277431599757], [97.37073580241545, 28.21804069440201], [97.32791854422338, 28.15480199234467], [97.32791854422338, 28.057194430473555], [97.38755686813376, 28.00357900916407], [97.37532336579316, 27.908720956078056], [97.25298834238728, 27.900472429722754], [97.15664951145514, 27.813862902992046], [97.0312561124641, 27.749249446542155], [96.90280433788791, 27.613148761679614], [96.86151626748844, 27.631020568782777]]]}}, {"type": "Feature", "properties": {"district": "Changlang", "dt_code": "253", "st_nm": "Arunachal Pradesh", "st_code": "12", "year": "2011_c"}, "geometry": {"type": "Polygon", "coordinates": [[[96.69942236147563, 27.659890411026346], [96.86151626748844, 27.631020568782777], [96.93491728153197, 27.508667427845747], [96.90280433788791, 27.45230249775116], [96.96244266179829, 27.401436585226776], [97.09089443637447, 27.213095233447305], [97.16429545041801, 27.141608005034655], [97.06336905610814, 27.092116846902826], [96.98385129089432, 27.153980794567616], [96.85998707969586, 27.189724408773937], [96.88445408437704, 27.259836882794033], [96.79729038020034, 27.34644640952474], [96.60614190612864, 27.365692971020454], [96.50827388740393, 27.29833000578546], [96.30642109878421, 27.294205742607808], [96.08927643223876, 27.222718514195158], [96.02199216936552, 27.18010112802608], [95.94553277973685, 27.050874215126296], [95.80178912723493, 27.015130600919974], [95.7452091789097, 26.895526968768046], [95.68404166720676, 26.90377549512335], [95.6809832916216, 26.984886004283855], [95.6289909066741, 27.02750339045293], [95.66722060148845, 27.171852601670775], [95.63357847005183, 27.230967040550464], [95.74215080332455, 27.26671065475679], [95.85683988776758, 27.27083491793444], [95.95929546987, 27.310702795318416], [96.01587541819524, 27.368442479805555], [95.94094521635913, 27.4371801994331], [95.88283608024133, 27.43580544504055], [95.87366095348588, 27.54441104205207], [96.00211272806206, 27.55678383158503], [96.06175105197244, 27.60627498971686], [96.2253741457778, 27.567781866725436], [96.31100866216194, 27.570531375510537], [96.37217617386489, 27.644768112708284], [96.64131322535783, 27.628271059997676], [96.69942236147563, 27.659890411026346]]]}}, {"type": "Feature", "properties": {"district": "Tawang", "dt_code": "245", "st_nm": "Arunachal Pradesh", "st_code": "12", "year": "2011_c"}, "geometry": {"type": "Polygon", "coordinates": [[[92.0139909650301, 27.489420866350034], [91.94058995098656, 27.460551024106465], [91.6546318337753, 27.48254709438728], [91.56440975401345, 27.584278919436045], [91.55982219063574, 27.633770077567878], [91.6255772657164, 27.705257305980524], [91.63016482909413, 27.80149011345909], [91.82590086654355, 27.809738639814395], [91.8809516270762, 27.721754358691136], [91.98646558476378, 27.76987076243042], [92.05680822322216, 27.75887272729001], [92.15773461753201, 27.83723372766541], [92.25713182404931, 27.861979306731328], [92.3091242089968, 27.779494043178275], [92.46815973942446, 27.815237657384596], [92.4605138004616, 27.782243551963376], [92.39322953758835, 27.672263200559303], [92.22196050482012, 27.626896305605122], [92.11185898375481, 27.525164480556356], [92.0139909650301, 27.489420866350034]]]}}, {"type": "Feature", "properties": {"district": "Papum Pare", "dt_code": "248", "st_nm": "Arunachal Pradesh", "st_code": "12", "year": "2011_c"}, "geometry": {"type": "Polygon", "coordinates": [[[93.94229677146542, 27.511416936630848], [94.10591986527079, 27.493545129527686], [94.21907976192124, 27.504543164668092], [93.99123078082778, 27.32857460242158], [93.80619905792636, 27.14848177699741], [93.82913687481496, 27.067371267836908], [93.69762672465365, 26.99450928503171], [93.6655137810096, 26.968388951573242], [93.47130693135274, 26.936769600544572], [93.39790591730922, 26.957390916432836], [93.33979678119141, 26.99313453063916], [93.31227140092508, 27.079744057369865], [93.21440338220037, 27.137483741857004], [93.31227140092508, 27.17322735606333], [93.2251076967484, 27.251588356438727], [93.33062165443597, 27.354694935880048], [93.37038053704289, 27.415184129152287], [93.22969526012612, 27.603525480931758], [93.3290924666434, 27.669513691774203], [93.51412418954482, 27.65026713027849], [93.5431787576037, 27.62139728803492], [93.61810895943981, 27.53203825251911], [93.56764576228488, 27.471549059246872], [93.59975870592893, 27.367067725413005], [93.6655137810096, 27.336823128776885], [93.83525362598527, 27.36294346223535], [93.85207469170358, 27.464675287284116], [93.94229677146542, 27.511416936630848]]]}}, {"type": "Feature", "properties": {"district": "Tirap", "dt_code": "254", "st_nm": "Arunachal Pradesh", "st_code": "12", "year": "2011_c"}, "geometry": {"type": "Polygon", "coordinates": [[[95.48371806637961, 27.24196507569087], [95.53418126353455, 27.263961145971688], [95.63357847005183, 27.230967040550464], [95.66722060148845, 27.171852601670775], [95.6289909066741, 27.02750339045293], [95.6809832916216, 26.984886004283855], [95.68404166720676, 26.90377549512335], [95.60758227757808, 26.813041705214992], [95.4959515687202, 26.817165968392644], [95.36749979414402, 26.935394846152022], [95.37667492089946, 27.096241110080477], [95.44854674715042, 27.131984724286802], [95.48371806637961, 27.24196507569087]]]}}, {"type": "Feature", "properties": {"district": "East Siang", "dt_code": "251", "st_nm": "Arunachal Pradesh", "st_code": "12", "year": "2011_c"}, "geometry": {"type": "Polygon", "coordinates": [[[95.51888938560882, 27.883975377012142], [95.51430182223109, 27.879851113834487], [95.3797332964846, 27.83860848205796], [95.30939065802622, 27.86747832430153], [95.13659243746541, 27.815237657384596], [95.0677789867996, 28.022825570659784], [95.24057720736042, 28.047571149725698], [95.29562796789307, 28.120433132530895], [95.22834370501982, 28.15617674673722], [95.34150360167027, 28.24416102786048], [95.38279167206976, 28.31152399309547], [95.46536781286873, 28.257908571785986], [95.56323583159345, 28.255159063000885], [95.56017745600829, 28.05169541290335], [95.50053913209793, 27.949963587854583], [95.51888938560882, 27.883975377012142]]]}}, {"type": "Feature", "properties": {"district": "Lohit", "dt_code": "259", "st_nm": "Arunachal Pradesh", "st_code": "12", "year": "2011_c"}, "geometry": {"type": "Polygon", "coordinates": [[[96.30489191099164, 28.36926367758261], [96.29571678423619, 28.24966004543068], [96.33547566684311, 28.17267379944783], [96.28807084527332, 28.061318693651206], [96.41652261984952, 27.923843254396118], [96.52815332870739, 27.900472429722754], [96.6321380986024, 27.811113394206945], [96.62907972301724, 27.68463599009226], [96.69942236147563, 27.659890411026346], [96.64131322535783, 27.628271059997676], [96.37217617386489, 27.644768112708284], [96.31100866216194, 27.570531375510537], [96.260545465007, 27.719004849906035], [96.27277896734759, 27.787742569533577], [96.2085530800595, 27.877101605049386], [96.0235213571581, 27.849606517198367], [95.7742637469686, 27.732752393831543], [95.96999978441802, 27.95958686860244], [96.07092617872789, 28.120433132530895], [96.2146698312298, 28.230413483934967], [96.30489191099164, 28.36926367758261]]]}}, {"type": "Feature", "properties": {"district": "Kurung Kumey", "dt_code": "256", "st_nm": "Arunachal Pradesh", "st_code": "12", "year": "2011_c"}, "geometry": {"type": "Polygon", "coordinates": [[[93.22357850895582, 28.34176858973159], [93.33673840560627, 28.352766624871997], [93.45601505342701, 28.271656115711494], [93.46060261680474, 28.113559360568143], [93.57070413787002, 28.057194430473555], [93.61810895943981, 27.954087851032238], [93.59211276696607, 27.83310946448776], [93.50953662616709, 27.7423756745794], [93.51412418954482, 27.65026713027849], [93.3290924666434, 27.669513691774203], [93.22969526012612, 27.603525480931758], [93.1960531286895, 27.675012709344404], [93.23887038688156, 27.80149011345909], [93.17617368738604, 27.822111429347352], [92.97890846214405, 27.823486183739902], [92.93150364057426, 27.92521800878867], [92.73423841533227, 27.97608392131305], [92.6623665890813, 28.06681771122141], [92.68836278155506, 28.1259321501011], [92.80152267820552, 28.201543641691398], [92.89633232134507, 28.204293150476502], [93.02478409592126, 28.303275466740164], [93.22357850895582, 28.34176858973159]]]}}, {"type": "Feature", "properties": {"district": "Lower Subansiri", "dt_code": "255", "st_nm": "Arunachal Pradesh", "st_code": "12", "year": "2011_c"}, "geometry": {"type": "Polygon", "coordinates": [[[93.94229677146542, 27.511416936630848], [93.85207469170358, 27.464675287284116], [93.83525362598527, 27.36294346223535], [93.6655137810096, 27.336823128776885], [93.59975870592893, 27.367067725413005], [93.56764576228488, 27.471549059246872], [93.61810895943981, 27.53203825251911], [93.5431787576037, 27.62139728803492], [93.57682088904033, 27.61727302485727], [93.76796936311203, 27.730002885046442], [93.76796936311203, 27.78911732392613], [93.89030438651791, 27.8207366749548], [93.94076758367285, 27.637894340745532], [94.05239829253071, 27.607649744109413], [94.07227773383417, 27.5155411998085], [93.94229677146542, 27.511416936630848]]]}}, {"type": "Feature", "properties": {"district": "East Kameng", "dt_code": "247", "st_nm": "Arunachal Pradesh", "st_code": "12", "year": "2011_c"}, "geometry": {"type": "Polygon", "coordinates": [[[92.4605138004616, 27.782243551963376], [92.46815973942446, 27.815237657384596], [92.56144019477145, 27.8207366749548], [92.67001252804417, 27.8990976753302], [92.73423841533227, 27.97608392131305], [92.93150364057426, 27.92521800878867], [92.97890846214405, 27.823486183739902], [93.17617368738604, 27.822111429347352], [93.23887038688156, 27.80149011345909], [93.1960531286895, 27.675012709344404], [93.22969526012612, 27.603525480931758], [93.37038053704289, 27.415184129152287], [93.33062165443597, 27.354694935880048], [93.3000378985845, 27.400061830834225], [93.19452394089693, 27.37806576055341], [93.16546937283803, 27.312077549710967], [93.00184627903265, 27.250213602046177], [93.01255059358067, 27.14298275942721], [92.8948031335525, 27.134734233071903], [92.80916861716838, 27.17735161924098], [92.79999349041293, 27.259836882794033], [92.82293130730153, 27.400061830834225], [92.80305186599809, 27.448178234573508], [92.66083740128873, 27.48254709438728], [92.59508232620807, 27.631020568782777], [92.53085643891998, 27.628271059997676], [92.51556456099425, 27.734127148224093], [92.4605138004616, 27.782243551963376]]]}}, {"type": "Feature", "properties": {"district": "West Kameng", "dt_code": "246", "st_nm": "Arunachal Pradesh", "st_code": "12", "year": "2011_c"}, "geometry": {"type": "Polygon", "coordinates": [[[92.0139909650301, 27.489420866350034], [92.11185898375481, 27.525164480556356], [92.22196050482012, 27.626896305605122], [92.39322953758835, 27.672263200559303], [92.4605138004616, 27.782243551963376], [92.51556456099425, 27.734127148224093], [92.53085643891998, 27.628271059997676], [92.59508232620807, 27.631020568782777], [92.66083740128873, 27.48254709438728], [92.80305186599809, 27.448178234573508], [92.82293130730153, 27.400061830834225], [92.79999349041293, 27.259836882794033], [92.80916861716838, 27.17735161924098], [92.75258866884315, 27.193848671951592], [92.61496176751153, 27.14298275942721], [92.59814070179321, 27.0536237239114], [92.65624983791102, 27.00825682895722], [92.56296938256402, 26.957390916432836], [92.44675111032844, 26.958765670825386], [92.35958740615173, 26.925771565404165], [92.19443512455379, 26.890027951197844], [92.11338817154738, 26.892777459982945], [92.10421304479195, 27.00688207456467], [92.03387040633356, 27.064621759051807], [92.02469527957811, 27.16222932092292], [92.07057091335533, 27.276333935504645], [92.05527903542959, 27.400061830834225], [92.0139909650301, 27.489420866350034]]]}}, {"type": "Feature", "properties": {"district": "Kra Daadi", "dt_code": "763", "st_nm": "Arunachal Pradesh", "st_code": "12", "year": "2015_c"}, "geometry": {"type": "Polygon", "coordinates": [[[93.45601505342701, 28.271656115711494], [93.61199220826953, 28.271656115711494], [93.67927647114276, 28.322522028235877], [93.83984118936299, 28.237287255897723], [93.89183357431048, 28.1286816588862], [93.85513306728872, 28.08194000953947], [93.96217621276887, 27.978833430098152], [93.89030438651791, 27.8207366749548], [93.76796936311203, 27.78911732392613], [93.76796936311203, 27.730002885046442], [93.57682088904033, 27.61727302485727], [93.5431787576037, 27.62139728803492], [93.51412418954482, 27.65026713027849], [93.50953662616709, 27.7423756745794], [93.59211276696607, 27.83310946448776], [93.61810895943981, 27.954087851032238], [93.57070413787002, 28.057194430473555], [93.46060261680474, 28.113559360568143], [93.45601505342701, 28.271656115711494]]]}}, {"type": "Feature", "properties": {"district": "Namsai", "dt_code": "762", "st_nm": "Arunachal Pradesh", "st_code": "12", "year": "2014_c"}, "geometry": {"type": "Polygon", "coordinates": [[[95.87366095348588, 27.54441104205207], [95.7803804981389, 27.62139728803492], [95.7742637469686, 27.732752393831543], [96.0235213571581, 27.849606517198367], [96.2085530800595, 27.877101605049386], [96.27277896734759, 27.787742569533577], [96.260545465007, 27.719004849906035], [96.31100866216194, 27.570531375510537], [96.2253741457778, 27.567781866725436], [96.06175105197244, 27.60627498971686], [96.00211272806206, 27.55678383158503], [95.87366095348588, 27.54441104205207]]]}}, {"type": "Feature", "properties": {"district": "Longding", "dt_code": "761", "st_nm": "Arunachal Pradesh", "st_code": "12", "year": "2012_c"}, "geometry": {"type": "Polygon", "coordinates": [[[95.3690289819366, 27.109988654005985], [95.37667492089946, 27.096241110080477], [95.36749979414402, 26.935394846152022], [95.4959515687202, 26.817165968392644], [95.42713811805439, 26.69756233624072], [95.30327390685594, 26.650820686893987], [95.23446045619012, 26.682440037922657], [95.20234751254607, 26.846035810636213], [95.2298728928124, 26.923022056619065], [95.19623076137577, 27.034377162415687], [95.25892746087129, 27.030252899238032], [95.3690289819366, 27.109988654005985]]]}}, {"type": "Feature", "properties": {"district": "Upper Siang", "dt_code": "252", "st_nm": "Arunachal Pradesh", "st_code": "12", "year": "2011_c"}, "geometry": {"type": "Polygon", "coordinates": [[[95.38279167206976, 28.31152399309547], [95.34150360167027, 28.24416102786048], [95.22834370501982, 28.15617674673722], [95.10600868161393, 28.263407589356188], [95.11059624499165, 28.46274697627607], [95.0846000525179, 28.52598567833341], [94.98826122158576, 28.528735187118514], [94.82005056440266, 28.56860306450249], [94.75888305269973, 28.534234204688715], [94.74512036256657, 28.686831942261865], [94.61972696357553, 28.794062784880836], [94.52491732043596, 28.811934591984], [94.39493635806721, 28.931538224135927], [94.3429439731197, 28.98377889105286], [94.1869668182772, 29.038769066754895], [94.29095158817219, 29.147374663766417], [94.35976503883802, 29.15287368133662], [94.43316605288155, 29.22711041853437], [94.56008863966515, 29.22848517292692], [94.57996808096861, 29.280725839843853], [94.6793652874859, 29.327467489190585], [94.79252518413634, 29.22573566414182], [94.87357213714274, 29.18311827797274], [95.252810709701, 29.10888154077499], [95.26963177541931, 29.049767101895302], [95.24516477073813, 29.00165069815602], [95.3277409115371, 28.928788715350823], [95.32315334815938, 28.84355394301267], [95.39349598661778, 28.741822117963903], [95.35373710401086, 28.706078503757578], [95.39502517441035, 28.530109941511064], [95.33844522608513, 28.476494520201577], [95.33844522608513, 28.365139414404954], [95.38279167206976, 28.31152399309547]]]}}, {"type": "Feature", "properties": {"district": "Lower Siang", "dt_code": "779", "st_nm": "Arunachal Pradesh", "st_code": "12", "year": "2018"}, "geometry": {"type": "Polygon", "coordinates": [[[94.31847696843852, 27.77262027121552], [94.59525995889435, 27.870227833086634], [94.71759498230024, 27.824860938132453], [94.74664955035914, 27.77262027121552], [94.90109751740907, 27.823486183739902], [94.95614827794172, 27.980208184490703], [94.8934515784462, 28.015951798697028], [94.9286228976754, 28.05169541290335], [95.0677789867996, 28.022825570659784], [95.13659243746541, 27.815237657384596], [94.85216350804671, 27.727253376261338], [94.46222062094044, 27.555409077192476], [94.36435260221573, 27.57465563868819], [94.23743001543212, 27.632395323175327], [94.21296301075094, 27.60627498971686], [94.24507595439499, 27.64889237588594], [94.35364828766771, 27.723129113083687], [94.31847696843852, 27.77262027121552]]]}}, {"type": "Feature", "properties": {"district": "Upper Dibang Valley", "dt_code": "257", "st_nm": "Arunachal Pradesh", "st_code": "12", "year": "2011_c"}, "geometry": {"type": "Polygon", "coordinates": [[[95.39502517441035, 28.530109941511064], [95.35373710401086, 28.706078503757578], [95.39349598661778, 28.741822117963903], [95.32315334815938, 28.84355394301267], [95.3277409115371, 28.928788715350823], [95.24516477073813, 29.00165069815602], [95.26963177541931, 29.049767101895302], [95.45466349832071, 29.034644803577244], [95.53876882691226, 29.211988120216308], [95.58770283627462, 29.216112383393963], [95.70392110851022, 29.298597646947016], [95.88283608024133, 29.389331436855375], [95.95776628207743, 29.38108291050007], [96.08927643223876, 29.45944391087547], [96.17644013641547, 29.361836349004356], [96.2437243992887, 29.23260943610457], [96.3935848029609, 29.253230751992835], [96.34617998139113, 29.16799597965468], [96.21772820681494, 29.13500187423346], [96.15044394394171, 29.049767101895302], [96.24831196266642, 28.93978675049123], [96.34617998139113, 29.02914578600704], [96.43640206115298, 29.034644803577244], [96.51897820195194, 28.96728183834225], [96.53732845546283, 28.88067231161154], [96.60767109392121, 28.794062784880836], [96.58473327703261, 28.717076538897985], [96.47157338038217, 28.684082433476764], [96.4929820094782, 28.63321652095238], [96.32630054008767, 28.51086338001535], [96.25595790162929, 28.536983713473816], [96.10303912237192, 28.488867309734538], [96.01434623040265, 28.50811387123025], [95.94859115532199, 28.481993537771782], [95.94553277973685, 28.40225778300383], [95.85072313659728, 28.366514168797508], [95.83237288308639, 28.274405624496598], [95.67639572824389, 28.362389905619853], [95.57394014614145, 28.37063843197516], [95.58005689731175, 28.46274697627607], [95.39502517441035, 28.530109941511064]]]}}, {"type": "Feature", "properties": {"district": "Lower Dibang Valley", "dt_code": "258", "st_nm": "Arunachal Pradesh", "st_code": "12", "year": "2011_c"}, "geometry": {"type": "Polygon", "coordinates": [[[96.31406703774708, 28.383011221508117], [96.30489191099164, 28.36926367758261], [96.2146698312298, 28.230413483934967], [96.07092617872789, 28.120433132530895], [95.96999978441802, 27.95958686860244], [95.81861019295323, 27.9719596581354], [95.6060530897855, 27.95546260542479], [95.51888938560882, 27.883975377012142], [95.50053913209793, 27.949963587854583], [95.56017745600829, 28.05169541290335], [95.56323583159345, 28.255159063000885], [95.46536781286873, 28.257908571785986], [95.38279167206976, 28.31152399309547], [95.33844522608513, 28.365139414404954], [95.33844522608513, 28.476494520201577], [95.39502517441035, 28.530109941511064], [95.58005689731175, 28.46274697627607], [95.57394014614145, 28.37063843197516], [95.67639572824389, 28.362389905619853], [95.83237288308639, 28.274405624496598], [95.85072313659728, 28.366514168797508], [95.94553277973685, 28.40225778300383], [95.94859115532199, 28.481993537771782], [96.01434623040265, 28.50811387123025], [96.10303912237192, 28.488867309734538], [96.25595790162929, 28.536983713473816], [96.32630054008767, 28.51086338001535], [96.37217617386489, 28.481993537771782], [96.31406703774708, 28.383011221508117]]]}}, {"type": "Feature", "properties": {"district": "Siang", "dt_code": "764", "st_nm": "Arunachal Pradesh", "st_code": "12", "year": "2015_c"}, "geometry": {"type": "Polygon", "coordinates": [[[95.22834370501982, 28.15617674673722], [95.29562796789307, 28.120433132530895], [95.24057720736042, 28.047571149725698], [95.0677789867996, 28.022825570659784], [94.9286228976754, 28.05169541290335], [94.94850233897886, 28.1286816588862], [94.89498076623877, 28.22079020318711], [94.77417493062546, 28.18642134337334], [94.61361021240523, 28.257908571785986], [94.48515843782906, 28.395384011041074], [94.55855945187258, 28.49436632730474], [94.53562163498398, 28.589224380390753], [94.46833737211074, 28.626342748989625], [94.48515843782906, 28.69095620543952], [94.3781152923489, 28.89167034675195], [94.39493635806721, 28.931538224135927], [94.52491732043596, 28.811934591984], [94.61972696357553, 28.794062784880836], [94.74512036256657, 28.686831942261865], [94.75888305269973, 28.534234204688715], [94.82005056440266, 28.56860306450249], [94.98826122158576, 28.528735187118514], [95.0846000525179, 28.52598567833341], [95.11059624499165, 28.46274697627607], [95.10600868161393, 28.263407589356188], [95.22834370501982, 28.15617674673722]]]}}, {"type": "Feature", "properties": {"district": "Shi Yomi", "dt_code": "785", "st_nm": "Arunachal Pradesh", "st_code": "12", "year": "2018"}, "geometry": {"type": "Polygon", "coordinates": [[[94.4010531092375, 28.33901908094649], [94.32918128298654, 28.358265642442202], [94.24201757880985, 28.44624992356546], [94.14873712346285, 28.439376151602705], [94.10897824085595, 28.521861415155758], [94.00193509537579, 28.578226345250346], [94.02334372447181, 28.651088328055543], [93.96217621276887, 28.712952275720333], [93.99734753199806, 28.840804434227568], [94.15791225021829, 28.95490904880929], [94.1869668182772, 29.038769066754895], [94.3429439731197, 28.98377889105286], [94.39493635806721, 28.931538224135927], [94.3781152923489, 28.89167034675195], [94.48515843782906, 28.69095620543952], [94.46833737211074, 28.626342748989625], [94.53562163498398, 28.589224380390753], [94.55855945187258, 28.49436632730474], [94.48515843782906, 28.395384011041074], [94.4010531092375, 28.33901908094649]]]}}, {"type": "Feature", "properties": {"district": "Pakke Kessang", "dt_code": "783", "st_nm": "Arunachal Pradesh", "st_code": "12", "year": "2018"}, "geometry": {"type": "Polygon", "coordinates": [[[93.33062165443597, 27.354694935880048], [93.2251076967484, 27.251588356438727], [93.31227140092508, 27.17322735606333], [93.21440338220037, 27.137483741857004], [93.31227140092508, 27.079744057369865], [93.33979678119141, 26.99313453063916], [93.39790591730922, 26.957390916432836], [93.06148460294303, 26.921647302226514], [93.02172572033611, 26.913398775871208], [92.88715719458963, 27.000008302601913], [92.67307090362932, 27.031627653630586], [92.65624983791102, 27.00825682895722], [92.59814070179321, 27.0536237239114], [92.61496176751153, 27.14298275942721], [92.75258866884315, 27.193848671951592], [92.80916861716838, 27.17735161924098], [92.8948031335525, 27.134734233071903], [93.01255059358067, 27.14298275942721], [93.00184627903265, 27.250213602046177], [93.16546937283803, 27.312077549710967], [93.19452394089693, 27.37806576055341], [93.3000378985845, 27.400061830834225], [93.33062165443597, 27.354694935880048]]]}}, {"type": "Feature", "properties": {"district": "West Siang", "dt_code": "250", "st_nm": "Arunachal Pradesh", "st_code": "12", "year": "2011_c"}, "geometry": {"type": "Polygon", "coordinates": [[[94.48515843782906, 28.02145081626723], [94.39187798248206, 28.083314763932023], [94.35670666325287, 28.198794132906297], [94.4010531092375, 28.33901908094649], [94.48515843782906, 28.395384011041074], [94.61361021240523, 28.257908571785986], [94.77417493062546, 28.18642134337334], [94.89498076623877, 28.22079020318711], [94.94850233897886, 28.1286816588862], [94.9286228976754, 28.05169541290335], [94.8934515784462, 28.015951798697028], [94.82005056440266, 27.985707202060908], [94.60290589785721, 28.061318693651206], [94.48515843782906, 28.02145081626723]]]}}, {"type": "Feature", "properties": {"district": "Lepa Rada", "dt_code": "784", "st_nm": "Arunachal Pradesh", "st_code": "12", "year": "2018"}, "geometry": {"type": "Polygon", "coordinates": [[[94.59525995889435, 27.870227833086634], [94.48515843782906, 28.02145081626723], [94.60290589785721, 28.061318693651206], [94.82005056440266, 27.985707202060908], [94.8934515784462, 28.015951798697028], [94.95614827794172, 27.980208184490703], [94.90109751740907, 27.823486183739902], [94.74664955035914, 27.77262027121552], [94.71759498230024, 27.824860938132453], [94.59525995889435, 27.870227833086634]]]}}, {"type": "Feature", "properties": {"district": "Kamle", "dt_code": "778", "st_nm": "Arunachal Pradesh", "st_code": "12", "year": "2018"}, "geometry": {"type": "Polygon", "coordinates": [[[93.96217621276887, 27.978833430098152], [94.06769017045646, 27.938965552714176], [94.07380692162675, 27.849606517198367], [94.14873712346285, 27.86610356990898], [94.19308356944748, 27.811113394206945], [94.31847696843852, 27.77262027121552], [94.35364828766771, 27.723129113083687], [94.24507595439499, 27.64889237588594], [94.21296301075094, 27.60627498971686], [94.26648458349102, 27.519665462986154], [94.21907976192124, 27.504543164668092], [94.10591986527079, 27.493545129527686], [93.94229677146542, 27.511416936630848], [94.07227773383417, 27.5155411998085], [94.05239829253071, 27.607649744109413], [93.94076758367285, 27.637894340745532], [93.89030438651791, 27.8207366749548], [93.96217621276887, 27.978833430098152]]]}}], "metadata": {"source": "udit-001/india-maps-data (Census 2011)", "url": "https://github.com/udit-001/india-maps-data", "license": "ODbL (Open Database License)", "feature_count": 26}}