{"type": "FeatureCollection", "features": [{"type": "Feature", "properties": {"district": "Tinsukia", "dt_code": "309", "st_nm": "Assam", "st_code": "18", "year": "2011_c"}, "geometry": {"type": "Polygon", "coordinates": [[[95.7742637469686, 27.732752393831543], [95.7803804981389, 27.62139728803492], [95.87366095348588, 27.54441104205207], [95.88283608024133, 27.43580544504055], [95.94094521635913, 27.4371801994331], [96.01587541819524, 27.368442479805555], [95.95929546987, 27.310702795318416], [95.85683988776758, 27.27083491793444], [95.74215080332455, 27.26671065475679], [95.63357847005183, 27.230967040550464], [95.53418126353455, 27.263961145971688], [95.48371806637961, 27.24196507569087], [95.44548837156528, 27.294205742607808], [95.47454293962417, 27.367067725413005], [95.30939065802622, 27.38906379569382], [95.22069776605696, 27.444053971395853], [95.22834370501982, 27.49904414709789], [95.31856578478167, 27.58702842822115], [95.26963177541931, 27.68051172691461], [95.3919667988252, 27.727253376261338], [95.51430182223109, 27.879851113834487], [95.51888938560882, 27.883975377012142], [95.6060530897855, 27.95546260542479], [95.81861019295323, 27.9719596581354], [95.96999978441802, 27.95958686860244], [95.7742637469686, 27.732752393831543]]]}}, {"type": "Feature", "properties": {"district": "Dhemaji", "dt_code": "308", "st_nm": "Assam", "st_code": "18", "year": "2011_c"}, "geometry": {"type": "Polygon", "coordinates": [[[95.51430182223109, 27.879851113834487], [95.3919667988252, 27.727253376261338], [95.26963177541931, 27.68051172691461], [95.19623076137577, 27.703882551587974], [95.09224599148077, 27.659890411026346], [94.99590716054863, 27.658515656633796], [94.74664955035914, 27.4371801994331], [94.69312797761906, 27.42205790111504], [94.62584371474583, 27.336823128776885], [94.5922015833092, 27.37806576055341], [94.4989211279622, 27.32994935681413], [94.39034879468949, 27.350570672702393], [94.30930184168308, 27.318951321673723], [94.30777265389051, 27.43580544504055], [94.26648458349102, 27.519665462986154], [94.21296301075094, 27.60627498971686], [94.23743001543212, 27.632395323175327], [94.36435260221573, 27.57465563868819], [94.46222062094044, 27.555409077192476], [94.85216350804671, 27.727253376261338], [95.13659243746541, 27.815237657384596], [95.30939065802622, 27.86747832430153], [95.3797332964846, 27.83860848205796], [95.51430182223109, 27.879851113834487]]]}}, {"type": "Feature", "properties": {"district": "Dibrugarh", "dt_code": "310", "st_nm": "Assam", "st_code": "18", "year": "2011_c"}, "geometry": {"type": "Polygon", "coordinates": [[[95.26963177541931, 27.68051172691461], [95.31856578478167, 27.58702842822115], [95.22834370501982, 27.49904414709789], [95.22069776605696, 27.444053971395853], [95.30939065802622, 27.38906379569382], [95.47454293962417, 27.367067725413005], [95.44548837156528, 27.294205742607808], [95.48371806637961, 27.24196507569087], [95.44854674715042, 27.131984724286802], [95.37667492089946, 27.096241110080477], [95.3690289819366, 27.109988654005985], [95.35832466738859, 27.166353584100573], [95.28339446555248, 27.197972935129243], [95.15341350318371, 27.123736197931496], [94.98520284600062, 27.169103092885674], [94.9683817802823, 27.224093268587712], [94.8353424423284, 27.092116846902826], [94.7604122404923, 27.129235215501698], [94.76958736724774, 27.23784081251322], [94.64113559267156, 27.246089338868526], [94.59373077110178, 27.14573226821231], [94.56314701525031, 27.18147588241863], [94.62584371474583, 27.336823128776885], [94.69312797761906, 27.42205790111504], [94.74664955035914, 27.4371801994331], [94.99590716054863, 27.658515656633796], [95.09224599148077, 27.659890411026346], [95.19623076137577, 27.703882551587974], [95.26963177541931, 27.68051172691461]]]}}, {"type": "Feature", "properties": {"district": "Lakhimpur", "dt_code": "307", "st_nm": "Assam", "st_code": "18", "year": "2011_c"}, "geometry": {"type": "Polygon", "coordinates": [[[94.26648458349102, 27.519665462986154], [94.30777265389051, 27.43580544504055], [94.30930184168308, 27.318951321673723], [94.39034879468949, 27.350570672702393], [94.4989211279622, 27.32994935681413], [94.5922015833092, 27.37806576055341], [94.62584371474583, 27.336823128776885], [94.56314701525031, 27.18147588241863], [94.50656706692507, 27.12098668914639], [94.31236021726824, 27.071495531014563], [94.23437163984698, 27.071495531014563], [94.18849600606977, 27.004132565779567], [93.96370540056145, 26.924396811011615], [93.89183357431048, 26.865282372131926], [93.7694985509046, 26.844661056243663], [93.78020286545262, 26.88590368802019], [93.69762672465365, 26.99450928503171], [93.82913687481496, 27.067371267836908], [93.80619905792636, 27.14848177699741], [93.99123078082778, 27.32857460242158], [94.21907976192124, 27.504543164668092], [94.26648458349102, 27.519665462986154]]]}}, {"type": "Feature", "properties": {"district": "Sivasagar", "dt_code": "311", "st_nm": "Assam", "st_code": "18", "year": "2011_c"}, "geometry": {"type": "Polygon", "coordinates": [[[94.59373077110178, 27.14573226821231], [94.64113559267156, 27.246089338868526], [94.76958736724774, 27.23784081251322], [94.7604122404923, 27.129235215501698], [94.8353424423284, 27.092116846902826], [94.82922569115811, 27.016505355312525], [94.73441604801855, 26.93264533736692], [94.92403533429767, 26.94914239007753], [94.86592619817988, 26.909274512693553], [94.79099599634377, 26.79654465250438], [94.73594523581112, 26.749803003157652], [94.58608483213891, 26.725057424091734], [94.51268381809537, 26.771799073438466], [94.47445412328103, 26.935394846152022], [94.39646554585978, 26.950517144470084], [94.54479676173942, 27.076994548584764], [94.59373077110178, 27.14573226821231]]]}}, {"type": "Feature", "properties": {"district": "Jorhat", "dt_code": "312", "st_nm": "Assam", "st_code": "18", "year": "2011_c"}, "geometry": {"type": "Polygon", "coordinates": [[[94.39646554585978, 26.950517144470084], [94.47445412328103, 26.935394846152022], [94.51268381809537, 26.771799073438466], [94.58608483213891, 26.725057424091734], [94.40258229703008, 26.61095280951001], [94.4010531092375, 26.53396656352716], [94.3138894050608, 26.461104580721962], [94.28483483700191, 26.561461651378178], [94.18390844269204, 26.45560556315176], [94.1640290013886, 26.35112422931789], [94.09674473851535, 26.484475405395326], [94.09827392630793, 26.64257216053868], [93.97288052731689, 26.76767481026081], [94.00040590758321, 26.866657126524476], [94.20837544737323, 26.927146319796716], [94.30471427830537, 26.909274512693553], [94.39646554585978, 26.950517144470084]]]}}, {"type": "Feature", "properties": {"district": "Sonitpur", "dt_code": "306", "st_nm": "Assam", "st_code": "18", "year": "2011_c"}, "geometry": {"type": "Polygon", "coordinates": [[[93.06148460294303, 26.921647302226514], [93.06760135411332, 26.747053494372548], [93.14406074374199, 26.594455756799398], [93.09665592217222, 26.57658394969624], [92.95138308187772, 26.620576090257867], [92.72200491299168, 26.536716072312263], [92.57520288490461, 26.499597703713388], [92.41922573006211, 26.514720002031446], [92.34123715264084, 26.50234721249849], [92.35958740615173, 26.58345772165899], [92.3274744625077, 26.813041705214992], [92.35958740615173, 26.925771565404165], [92.44675111032844, 26.958765670825386], [92.56296938256402, 26.957390916432836], [92.65624983791102, 27.00825682895722], [92.67307090362932, 27.031627653630586], [92.88715719458963, 27.000008302601913], [93.02172572033611, 26.913398775871208], [93.06148460294303, 26.921647302226514]]]}}, {"type": "Feature", "properties": {"district": "Golaghat", "dt_code": "313", "st_nm": "Assam", "st_code": "18", "year": "2011_c"}, "geometry": {"type": "Polygon", "coordinates": [[[93.7694985509046, 26.844661056243663], [93.89183357431048, 26.865282372131926], [93.96370540056145, 26.924396811011615], [94.00040590758321, 26.866657126524476], [93.97288052731689, 26.76767481026081], [94.09827392630793, 26.64257216053868], [94.09674473851535, 26.484475405395326], [94.1640290013886, 26.35112422931789], [94.10439067747822, 26.31950487828922], [94.00040590758321, 26.172406158286275], [93.954530273806, 25.96894250818874], [93.97899727848718, 25.916701841271806], [93.88112925976247, 25.84383985846661], [93.77714448986747, 25.849338876036814], [93.7756153020749, 25.96894250818874], [93.7863196166229, 26.054177280526897], [93.89336276210307, 26.371745545206153], [93.79396555558577, 26.4404832648337], [93.70068510023879, 26.60682854633236], [93.49577393603393, 26.61095280951001], [93.45754424121958, 26.57658394969624], [93.29697952299935, 26.575209195303685], [93.3061546497548, 26.69756233624072], [93.39637672951665, 26.751177757550202], [93.50494906278936, 26.756676775120404], [93.65022190308386, 26.70581086259602], [93.64869271529129, 26.788296126149078], [93.7694985509046, 26.844661056243663]]]}}, {"type": "Feature", "properties": {"district": "Udalguri", "dt_code": "326", "st_nm": "Assam", "st_code": "18", "year": "2011_c"}, "geometry": {"type": "Polygon", "coordinates": [[[92.35958740615173, 26.925771565404165], [92.3274744625077, 26.813041705214992], [92.35958740615173, 26.58345772165899], [92.24183994612356, 26.602704283154704], [92.17761405883547, 26.650820686893987], [92.0721001011479, 26.64669642371633], [92.00328665048208, 26.543589844275015], [91.82743005433612, 26.544964598667566], [91.77849604497376, 26.513345247638895], [91.73720797457428, 26.605453791939805], [91.74485391353714, 26.687939055492862], [91.70356584313765, 26.813041705214992], [91.89318512941679, 26.91889779344141], [91.98340720917862, 26.85840860016917], [92.05680822322216, 26.846035810636213], [92.11338817154738, 26.892777459982945], [92.19443512455379, 26.890027951197844], [92.35958740615173, 26.925771565404165]]]}}, {"type": "Feature", "properties": {"district": "Chirang", "dt_code": "320", "st_nm": "Assam", "st_code": "18", "year": "2011_c"}, "geometry": {"type": "Polygon", "coordinates": [[[90.87474605956277, 26.562836405770728], [90.84722067929644, 26.528467545956957], [90.744765097194, 26.465228843899617], [90.68206839769849, 26.499597703713388], [90.51997449168569, 26.509220984461244], [90.50468261375995, 26.42673572090819], [90.39916865607236, 26.44185801922625], [90.35482221008773, 26.569710177733484], [90.37776002697635, 26.71818365212898], [90.33647195657684, 26.862532863346825], [90.41751890958325, 26.905150249515902], [90.54597068415944, 26.817165968392644], [90.71723971692768, 26.769049564653365], [90.95120544919143, 26.777298091008667], [90.89921306424394, 26.689313809885412], [90.87474605956277, 26.562836405770728]]]}}, {"type": "Feature", "properties": {"district": "Baksa", "dt_code": "324", "st_nm": "Assam", "st_code": "18", "year": "2011_c"}, "geometry": {"type": "Polygon", "coordinates": [[[91.70356584313765, 26.813041705214992], [91.74485391353714, 26.687939055492862], [91.73720797457428, 26.605453791939805], [91.77849604497376, 26.513345247638895], [91.78002523276633, 26.478976387825124], [91.72497447223368, 26.50372196689104], [91.6255772657164, 26.447357036796454], [91.57817244414662, 26.528467545956957], [91.57817244414662, 26.572459686518584], [91.31209376823881, 26.51746951081655], [91.24939706874329, 26.522968528386752], [91.23410519081756, 26.60820330072491], [91.15152905001858, 26.63844789736103], [91.11024097961909, 26.561461651378178], [90.99096433179835, 26.524343282779302], [90.98943514400578, 26.590331493621747], [90.87474605956277, 26.562836405770728], [90.89921306424394, 26.689313809885412], [90.95120544919143, 26.777298091008667], [91.05366103129387, 26.781422354186322], [91.09800747727851, 26.82266498596285], [91.2371635664027, 26.811666950822442], [91.33656077292, 26.78004759979377], [91.40843259917095, 26.84053679306601], [91.49559630334764, 26.79104563493418], [91.6255772657164, 26.8212902315703], [91.70356584313765, 26.813041705214992]]]}}, {"type": "Feature", "properties": {"district": "Nagaon", "dt_code": "305", "st_nm": "Assam", "st_code": "18", "year": "2011_c"}, "geometry": {"type": "Polygon", "coordinates": [[[92.41922573006211, 26.514720002031446], [92.57520288490461, 26.499597703713388], [92.72200491299168, 26.536716072312263], [92.95138308187772, 26.620576090257867], [93.09665592217222, 26.57658394969624], [93.14406074374199, 26.594455756799398], [93.3061546497548, 26.69756233624072], [93.29697952299935, 26.575209195303685], [93.19146556531177, 26.566960668948383], [93.01255059358067, 26.507846230068694], [92.94220795512229, 26.330502913429626], [92.8137561805461, 26.263139948194635], [92.80152267820552, 26.20127600052984], [92.7036546594808, 26.125664508939543], [92.75258866884315, 26.054177280526897], [92.65472065011843, 26.000561859217413], [92.54614831684572, 25.971692016973844], [92.59508232620807, 26.080297613985362], [92.5293272511274, 26.150410088005458], [92.39475872538092, 26.113291719406586], [92.43145923240269, 26.190277965389434], [92.41922573006211, 26.270013720157387], [92.50486024644623, 26.27276322894249], [92.56755694594175, 26.337376685392382], [92.55073588022344, 26.38274358034656], [92.44063435915814, 26.370370790813602], [92.41922573006211, 26.514720002031446]]]}}, {"type": "Feature", "properties": {"district": "Kokrajhar", "dt_code": "300", "st_nm": "Assam", "st_code": "18", "year": "2011_c"}, "geometry": {"type": "Polygon", "coordinates": [[[90.33647195657684, 26.862532863346825], [90.37776002697635, 26.71818365212898], [90.35482221008773, 26.569710177733484], [90.39916865607236, 26.44185801922625], [90.42516484854612, 26.363497018850847], [90.2875379472145, 26.252141913054224], [90.26765850591104, 26.330502913429626], [90.11626891444625, 26.338751439784932], [90.13614835574971, 26.215023544455352], [90.02451764689184, 26.127039263332094], [89.88230318218248, 26.1352877896874], [89.85936536529388, 26.220522562025554], [89.90371181127853, 26.337376685392382], [89.84254429957558, 26.38274358034656], [89.83489836061271, 26.414362931375234], [89.8700696798419, 26.61370231829511], [89.85171942633102, 26.69756233624072], [89.85936536529388, 26.73468070483959], [90.04898465157302, 26.73055644166194], [90.1942574918675, 26.773173827831016], [90.23095799888927, 26.85840860016917], [90.33647195657684, 26.862532863346825]]]}}, {"type": "Feature", "properties": {"district": "Darrang", "dt_code": "325", "st_nm": "Assam", "st_code": "18", "year": "2011_c"}, "geometry": {"type": "Polygon", "coordinates": [[[92.35958740615173, 26.58345772165899], [92.34123715264084, 26.50234721249849], [92.21890212923496, 26.415737685767784], [92.15773461753201, 26.41161342259013], [92.03998715750384, 26.27276322894249], [91.98034883359348, 26.27413798333504], [91.87942243928362, 26.216398298847903], [91.7479122891223, 26.209524526885147], [91.8228424909584, 26.370370790813602], [91.78002523276633, 26.478976387825124], [91.77849604497376, 26.513345247638895], [91.82743005433612, 26.544964598667566], [92.00328665048208, 26.543589844275015], [92.0721001011479, 26.64669642371633], [92.17761405883547, 26.650820686893987], [92.24183994612356, 26.602704283154704], [92.35958740615173, 26.58345772165899]]]}}, {"type": "Feature", "properties": {"district": "Barpeta", "dt_code": "303", "st_nm": "Assam", "st_code": "18", "year": "2011_c"}, "geometry": {"type": "Polygon", "coordinates": [[[90.84722067929644, 26.528467545956957], [90.87474605956277, 26.562836405770728], [90.98943514400578, 26.590331493621747], [90.99096433179835, 26.524343282779302], [91.11024097961909, 26.561461651378178], [91.15152905001858, 26.63844789736103], [91.23410519081756, 26.60820330072491], [91.24939706874329, 26.522968528386752], [91.23104681523242, 26.439108510441148], [91.27692244900962, 26.341500948570033], [91.21575493730668, 26.267264211372286], [91.22340087626955, 26.179279930249027], [91.0811864115602, 26.161408123145865], [90.94355951022857, 26.094045157910873], [90.71418134134254, 26.129788772117195], [90.6698348953579, 26.202650754922395], [90.65301382963959, 26.237019614736166], [90.78911154317865, 26.329128159037076], [90.8609833694296, 26.430859984085842], [90.84722067929644, 26.528467545956957]]]}}, {"type": "Feature", "properties": {"district": "Nalbari", "dt_code": "323", "st_nm": "Assam", "st_code": "18", "year": "2011_c"}, "geometry": {"type": "Polygon", "coordinates": [[[91.24939706874329, 26.522968528386752], [91.31209376823881, 26.51746951081655], [91.57817244414662, 26.572459686518584], [91.57817244414662, 26.528467545956957], [91.52465087140655, 26.33600193099983], [91.41302016254868, 26.265889456979735], [91.3533818386383, 26.16690714071607], [91.22340087626955, 26.179279930249027], [91.21575493730668, 26.267264211372286], [91.27692244900962, 26.341500948570033], [91.23104681523242, 26.439108510441148], [91.24939706874329, 26.522968528386752]]]}}, {"type": "Feature", "properties": {"district": "Morigaon", "dt_code": "304", "st_nm": "Assam", "st_code": "18", "year": "2011_c"}, "geometry": {"type": "Polygon", "coordinates": [[[92.34123715264084, 26.50234721249849], [92.41922573006211, 26.514720002031446], [92.44063435915814, 26.370370790813602], [92.55073588022344, 26.38274358034656], [92.56755694594175, 26.337376685392382], [92.50486024644623, 26.27276322894249], [92.41922573006211, 26.270013720157387], [92.43145923240269, 26.190277965389434], [92.39475872538092, 26.113291719406586], [92.27395288976761, 26.065175315667304], [92.17302649545775, 26.07617335080771], [92.16690974428747, 26.16415763193097], [92.0598665988073, 26.19577698295964], [91.98034883359348, 26.27413798333504], [92.03998715750384, 26.27276322894249], [92.15773461753201, 26.41161342259013], [92.21890212923496, 26.415737685767784], [92.34123715264084, 26.50234721249849]]]}}, {"type": "Feature", "properties": {"district": "Kamrup", "dt_code": "321", "st_nm": "Assam", "st_code": "18", "year": "2011_c"}, "geometry": {"type": "Polygon", "coordinates": [[[91.57817244414662, 26.528467545956957], [91.6255772657164, 26.447357036796454], [91.72497447223368, 26.50372196689104], [91.78002523276633, 26.478976387825124], [91.8228424909584, 26.370370790813602], [91.7479122891223, 26.209524526885147], [91.56899731739118, 26.150410088005458], [91.56440975401345, 26.10366843865873], [91.72344528444111, 26.034930719031184], [91.72191609664854, 25.96619299940364], [91.5797016319392, 26.033555964638634], [91.44513310619271, 25.839715595288958], [91.33503158512741, 25.841090349681508], [91.22187168847697, 25.72286147192213], [91.14694148664086, 25.850713630429365], [91.00778539751667, 25.824593296970896], [91.02613565102754, 25.886457244635686], [91.09953666507108, 26.01018513996527], [90.94355951022857, 26.094045157910873], [91.0811864115602, 26.161408123145865], [91.22340087626955, 26.179279930249027], [91.3533818386383, 26.16690714071607], [91.41302016254868, 26.265889456979735], [91.52465087140655, 26.33600193099983], [91.57817244414662, 26.528467545956957]]]}}, {"type": "Feature", "properties": {"district": "Bongaigaon", "dt_code": "319", "st_nm": "Assam", "st_code": "18", "year": "2011_c"}, "geometry": {"type": "Polygon", "coordinates": [[[90.39916865607236, 26.44185801922625], [90.50468261375995, 26.42673572090819], [90.51997449168569, 26.509220984461244], [90.68206839769849, 26.499597703713388], [90.744765097194, 26.465228843899617], [90.84722067929644, 26.528467545956957], [90.8609833694296, 26.430859984085842], [90.78911154317865, 26.329128159037076], [90.65301382963959, 26.237019614736166], [90.6698348953579, 26.202650754922395], [90.52150367947826, 26.19990124613729], [90.46951129453076, 26.16828189510862], [90.38999352931692, 26.204025509314945], [90.48327398466392, 26.296134053615855], [90.42516484854612, 26.363497018850847], [90.39916865607236, 26.44185801922625]]]}}, {"type": "Feature", "properties": {"district": "Dhubri", "dt_code": "301", "st_nm": "Assam", "st_code": "18", "year": "2011_c"}, "geometry": {"type": "Polygon", "coordinates": [[[89.84254429957558, 26.38274358034656], [89.90371181127853, 26.337376685392382], [89.85936536529388, 26.220522562025554], [89.88230318218248, 26.1352877896874], [90.02451764689184, 26.127039263332094], [90.13614835574971, 26.215023544455352], [90.11626891444625, 26.338751439784932], [90.26765850591104, 26.330502913429626], [90.2875379472145, 26.252141913054224], [90.42516484854612, 26.363497018850847], [90.48327398466392, 26.296134053615855], [90.38999352931692, 26.204025509314945], [90.26460013032589, 26.183404193426682], [90.17437805056406, 26.10366843865873], [90.17896561394177, 26.04867826295669], [90.08262678300963, 26.04042973660139], [89.84254429957558, 25.882332981458035], [89.88689074556021, 25.945571683515375], [89.72938440292513, 26.17103140389372], [89.70032983486624, 26.217773053240453], [89.78137678787263, 26.35249898371044], [89.84254429957558, 26.38274358034656]]]}}, {"type": "Feature", "properties": {"district": "Kamrup Metropolitan", "dt_code": "322", "st_nm": "Assam", "st_code": "18", "year": "2011_c"}, "geometry": {"type": "Polygon", "coordinates": [[[91.7479122891223, 26.209524526885147], [91.87942243928362, 26.216398298847903], [91.98034883359348, 26.27413798333504], [92.0598665988073, 26.19577698295964], [92.16690974428747, 26.16415763193097], [92.17302649545775, 26.07617335080771], [92.13326761285084, 26.04455399977904], [91.86718893694304, 26.04180449099394], [91.82590086654355, 26.118790736976788], [91.72344528444111, 26.034930719031184], [91.56440975401345, 26.10366843865873], [91.56899731739118, 26.150410088005458], [91.7479122891223, 26.209524526885147]]]}}, {"type": "Feature", "properties": {"district": "Goalpara", "dt_code": "302", "st_nm": "Assam", "st_code": "18", "year": "2011_c"}, "geometry": {"type": "Polygon", "coordinates": [[[90.6698348953579, 26.202650754922395], [90.71418134134254, 26.129788772117195], [90.94355951022857, 26.094045157910873], [91.09953666507108, 26.01018513996527], [91.02613565102754, 25.886457244635686], [90.9481470736063, 25.948321192300476], [90.71723971692768, 25.95519496426323], [90.63160520054356, 25.91945135005691], [90.43433997530157, 25.990938578469557], [90.18661155290464, 25.944196929122825], [90.12238566561655, 25.959319227440886], [90.17896561394177, 26.04867826295669], [90.17437805056406, 26.10366843865873], [90.26460013032589, 26.183404193426682], [90.38999352931692, 26.204025509314945], [90.46951129453076, 26.16828189510862], [90.52150367947826, 26.19990124613729], [90.6698348953579, 26.202650754922395]]]}}, {"type": "Feature", "properties": {"district": "Dima Hasao", "dt_code": "315", "st_nm": "Assam", "st_code": "18", "year": "2011_c"}, "geometry": {"type": "Polygon", "coordinates": [[[93.06454297852817, 25.775102138839063], [93.14253155594942, 25.71873720874448], [93.20828663103009, 25.54276864649796], [93.3290924666434, 25.54276864649796], [93.45601505342701, 25.434163049486443], [93.46977774356017, 25.30631089097921], [93.38108485159091, 25.240322680136764], [93.34438434456914, 25.12346855676994], [93.24651632584442, 24.97224557358934], [93.17923206297118, 25.00111541583291], [93.06148460294303, 25.00249017022546], [93.01407978137324, 25.06160460910515], [92.89786150913764, 25.07947641620831], [92.83516480964212, 25.051981328357293], [92.72200491299168, 25.112470521629533], [92.54003156567542, 25.09872297770402], [92.62107851868183, 25.115220030414633], [92.66389577687389, 25.177083978079423], [92.74341354208771, 25.207328574715543], [92.79234755145006, 25.282940066305844], [92.65319146232586, 25.434163049486443], [92.56908613373432, 25.465782400515113], [92.66083740128873, 25.57163848874153], [92.73423841533227, 25.593634559022345], [92.82140211950896, 25.740733279025292], [93.01866734475095, 25.801222472297532], [93.06454297852817, 25.775102138839063]]]}}, {"type": "Feature", "properties": {"district": "Cachar", "dt_code": "316", "st_nm": "Assam", "st_code": "18", "year": "2011_c"}, "geometry": {"type": "Polygon", "coordinates": [[[92.89633232134507, 24.39072446554031], [92.79999349041293, 24.41959430778388], [92.7617637955986, 24.51307760647734], [92.66848334025161, 24.59143860685274], [92.6287244576447, 24.855391450222513], [92.57979044828234, 24.871888502933125], [92.51556456099425, 24.88013702928843], [92.4253424812324, 25.02998525807648], [92.48039324176506, 25.108346258451878], [92.54003156567542, 25.09872297770402], [92.72200491299168, 25.112470521629533], [92.83516480964212, 25.051981328357293], [92.89786150913764, 25.07947641620831], [93.01407978137324, 25.06160460910515], [93.06148460294303, 25.00249017022546], [93.17923206297118, 25.00111541583291], [93.24651632584442, 24.97224557358934], [93.248045513637, 24.9145058891022], [93.17464449959347, 24.797651765735377], [93.1088894245128, 24.811399309660885], [93.0859516076242, 24.70966748461212], [93.08748079541677, 24.572192045357028], [93.04925110060243, 24.544696957506012], [93.00949221799551, 24.412720535821126], [92.89633232134507, 24.39072446554031]]]}}, {"type": "Feature", "properties": {"district": "Karimganj", "dt_code": "317", "st_nm": "Assam", "st_code": "18", "year": "2011_c"}, "geometry": {"type": "Polygon", "coordinates": [[[92.51556456099425, 24.88013702928843], [92.57979044828234, 24.871888502933125], [92.5063894342388, 24.664300589657937], [92.50944780982395, 24.455337921990203], [92.46357217604674, 24.29999067563195], [92.42228410564725, 24.250499517500117], [92.29536151886364, 24.245000499929915], [92.21890212923496, 24.286243131706442], [92.26019019963445, 24.35910511451164], [92.21431456585725, 24.508953343299687], [92.25407344846415, 24.67804813358345], [92.29536151886364, 24.737162572463138], [92.2341940071607, 24.899383590784144], [92.29841989444878, 24.915880643494752], [92.38558359862549, 24.85126718704486], [92.51556456099425, 24.88013702928843]]]}}, {"type": "Feature", "properties": {"district": "Hailakandi", "dt_code": "318", "st_nm": "Assam", "st_code": "18", "year": "2011_c"}, "geometry": {"type": "Polygon", "coordinates": [[[92.7617637955986, 24.51307760647734], [92.68989196934763, 24.353606096941437], [92.62566608205954, 24.33161002666062], [92.61190339192638, 24.255998535070322], [92.55073588022344, 24.247750008715016], [92.53238562671255, 24.17763753469492], [92.43604679578041, 24.154266710021556], [92.42228410564725, 24.250499517500117], [92.46357217604674, 24.29999067563195], [92.50944780982395, 24.455337921990203], [92.5063894342388, 24.664300589657937], [92.57979044828234, 24.871888502933125], [92.6287244576447, 24.855391450222513], [92.66848334025161, 24.59143860685274], [92.7617637955986, 24.51307760647734]]]}}, {"type": "Feature", "properties": {"district": "Charaideo", "dt_code": "755", "st_nm": "Assam", "st_code": "18", "year": "2015_c"}, "geometry": {"type": "Polygon", "coordinates": [[[94.8353424423284, 27.092116846902826], [94.9683817802823, 27.224093268587712], [94.98520284600062, 27.169103092885674], [95.15341350318371, 27.123736197931496], [95.28339446555248, 27.197972935129243], [95.35832466738859, 27.166353584100573], [95.3690289819366, 27.109988654005985], [95.25892746087129, 27.030252899238032], [95.19623076137577, 27.034377162415687], [95.1014211182362, 26.96151517961049], [94.98214447041548, 26.913398775871208], [94.92403533429767, 26.94914239007753], [94.73441604801855, 26.93264533736692], [94.82922569115811, 27.016505355312525], [94.8353424423284, 27.092116846902826]]]}}, {"type": "Feature", "properties": {"district": "Majuli", "dt_code": "760", "st_nm": "Assam", "st_code": "18", "year": "2016_c"}, "geometry": {"type": "Polygon", "coordinates": [[[94.56314701525031, 27.18147588241863], [94.59373077110178, 27.14573226821231], [94.54479676173942, 27.076994548584764], [94.39646554585978, 26.950517144470084], [94.30471427830537, 26.909274512693553], [94.20837544737323, 26.927146319796716], [94.00040590758321, 26.866657126524476], [93.96370540056145, 26.924396811011615], [94.18849600606977, 27.004132565779567], [94.23437163984698, 27.071495531014563], [94.31236021726824, 27.071495531014563], [94.50656706692507, 27.12098668914639], [94.56314701525031, 27.18147588241863]]]}}, {"type": "Feature", "properties": {"district": "Biswanath", "dt_code": "756", "st_nm": "Assam", "st_code": "18", "year": "2015_c"}, "geometry": {"type": "Polygon", "coordinates": [[[93.39790591730922, 26.957390916432836], [93.47130693135274, 26.936769600544572], [93.6655137810096, 26.968388951573242], [93.69762672465365, 26.99450928503171], [93.78020286545262, 26.88590368802019], [93.7694985509046, 26.844661056243663], [93.64869271529129, 26.788296126149078], [93.65022190308386, 26.70581086259602], [93.50494906278936, 26.756676775120404], [93.39637672951665, 26.751177757550202], [93.3061546497548, 26.69756233624072], [93.14406074374199, 26.594455756799398], [93.06760135411332, 26.747053494372548], [93.06148460294303, 26.921647302226514], [93.39790591730922, 26.957390916432836]]]}}, {"type": "Feature", "properties": {"district": "Hojai", "dt_code": "757", "st_nm": "Assam", "st_code": "18", "year": "2015_c"}, "geometry": {"type": "Polygon", "coordinates": [[[92.75258866884315, 26.054177280526897], [92.7036546594808, 26.125664508939543], [92.80152267820552, 26.20127600052984], [92.93914957953713, 26.202650754922395], [92.93150364057426, 26.151784842398012], [93.1088894245128, 26.07754810520026], [93.18229043855634, 25.902954297346298], [93.24039957467413, 25.84658936725171], [93.22663688454097, 25.726985735099785], [93.14253155594942, 25.71873720874448], [93.06454297852817, 25.775102138839063], [92.98196683772919, 25.87545920949528], [92.86880694107874, 25.868585437532527], [92.76329298339117, 25.960693981833437], [92.75258866884315, 26.054177280526897]]]}}, {"type": "Feature", "properties": {"district": "South Salmara Mankachar", "dt_code": "758", "st_nm": "Assam", "st_code": "18", "year": "2015_c"}, "geometry": {"type": "Polygon", "coordinates": [[[89.84254429957558, 25.882332981458035], [90.08262678300963, 26.04042973660139], [90.17896561394177, 26.04867826295669], [90.12238566561655, 25.959319227440886], [90.05968896612103, 25.913952332486705], [89.8991242479008, 25.726985735099785], [90.01993008351411, 25.607382102947856], [89.87771561880477, 25.549642418460717], [89.87159886763448, 25.47678043565552], [89.85171942633102, 25.465782400515113], [89.88230318218248, 25.617005383695712], [89.82725242164985, 25.732484752669986], [89.84254429957558, 25.882332981458035]]]}}, {"type": "Feature", "properties": {"district": "Karbi Anglong", "dt_code": "314", "st_nm": "Assam", "st_code": "18", "year": "2011_c"}, "geometry": {"type": "Polygon", "coordinates": [[[93.29697952299935, 26.575209195303685], [93.45754424121958, 26.57658394969624], [93.49577393603393, 26.61095280951001], [93.70068510023879, 26.60682854633236], [93.79396555558577, 26.4404832648337], [93.89336276210307, 26.371745545206153], [93.7863196166229, 26.054177280526897], [93.7756153020749, 25.96894250818874], [93.68080565893533, 25.90432905173885], [93.70221428803136, 25.852088384821915], [93.5431787576037, 25.731109998277436], [93.51259500175223, 25.674745068182848], [93.42696048536811, 25.63212768201377], [93.3290924666434, 25.54276864649796], [93.20828663103009, 25.54276864649796], [93.14253155594942, 25.71873720874448], [93.22663688454097, 25.726985735099785], [93.24039957467413, 25.84658936725171], [93.18229043855634, 25.902954297346298], [93.1088894245128, 26.07754810520026], [92.93150364057426, 26.151784842398012], [92.93914957953713, 26.202650754922395], [92.80152267820552, 26.20127600052984], [92.8137561805461, 26.263139948194635], [92.94220795512229, 26.330502913429626], [93.01255059358067, 26.507846230068694], [93.19146556531177, 26.566960668948383], [93.29697952299935, 26.575209195303685]]]}}, {"type": "Feature", "properties": {"district": "West Karbi Anglong", "dt_code": "759", "st_nm": "Assam", "st_code": "18", "year": "2016_c"}, "geometry": {"type": "Polygon", "coordinates": [[[92.39475872538092, 26.113291719406586], [92.5293272511274, 26.150410088005458], [92.59508232620807, 26.080297613985362], [92.54614831684572, 25.971692016973844], [92.65472065011843, 26.000561859217413], [92.75258866884315, 26.054177280526897], [92.76329298339117, 25.960693981833437], [92.86880694107874, 25.868585437532527], [92.98196683772919, 25.87545920949528], [93.06454297852817, 25.775102138839063], [93.01866734475095, 25.801222472297532], [92.82140211950896, 25.740733279025292], [92.73423841533227, 25.593634559022345], [92.66083740128873, 25.57163848874153], [92.58437801166005, 25.551017172853268], [92.50486024644623, 25.617005383695712], [92.44369273474328, 25.72011196313703], [92.22501888040526, 25.715987699959374], [92.15161786636173, 25.671995559397747], [92.15161786636173, 25.81634477061559], [92.20208106351666, 25.90707856052395], [92.16385136870231, 25.970317262581293], [92.27395288976761, 26.065175315667304], [92.39475872538092, 26.113291719406586]]]}}], "metadata": {"source": "udit-001/india-maps-data (Census 2011)", "url": "https://github.com/udit-001/india-maps-data", "license": "ODbL (Open Database License)", "feature_count": 34}}