{"type": "FeatureCollection", "features": [{"type": "Feature", "properties": {"district": "West Champaran", "dt_code": "203", "st_nm": "Bihar", "st_code": "10", "year": "2011_c"}, "geometry": {"type": "Polygon", "coordinates": [[[84.50262052790853, 26.602704283154704], [84.418515199317, 26.631574125398274], [84.32982230734773, 26.683814792315207], [84.25947966888934, 26.804793178859686], [84.06068525585476, 26.88727844241274], [84.04998094130676, 27.044000443163544], [83.96434642492264, 27.08386832054752], [83.99340099298153, 27.17460211045588], [83.9077664765974, 27.274959181112095], [83.8618908428202, 27.335448374384335], [83.83130708696874, 27.427556918685244], [84.01633880987013, 27.4371801994331], [84.09738576287654, 27.516915954201053], [84.25795048109677, 27.45092774335861], [84.2793591101928, 27.39456281326402], [84.6203679879367, 27.339572637561986], [84.68918143860252, 27.221343759802608], [84.64177661703275, 27.048124706341195], [84.75799488926833, 27.002757811387017], [84.67847712405451, 26.913398775871208], [84.74423219913517, 26.815791214000093], [84.72741113341687, 26.742929231194896], [84.54390859830804, 26.653570195679087], [84.50262052790853, 26.602704283154704]]]}}, {"type": "Feature", "properties": {"district": "East Champaran", "dt_code": "204", "st_nm": "Bihar", "st_code": "10", "year": "2011_c"}, "geometry": {"type": "Polygon", "coordinates": [[[84.50262052790853, 26.602704283154704], [84.54390859830804, 26.653570195679087], [84.72741113341687, 26.742929231194896], [84.74423219913517, 26.815791214000093], [84.67847712405451, 26.913398775871208], [84.75799488926833, 27.002757811387017], [84.82374996434899, 27.020629618490176], [84.96137686568062, 26.96014042521794], [85.03019031634643, 26.874905652879782], [85.19228422235923, 26.86940663530958], [85.17852153222607, 26.79791940689693], [85.25498092185475, 26.753927266335303], [85.26568523640277, 26.64669642371633], [85.26109767302505, 26.587581984836646], [85.17852153222607, 26.48722491418043], [85.29015224108394, 26.353873738102994], [85.2870938654988, 26.35249898371044], [85.28097711432851, 26.34974947492534], [85.1999301613221, 26.28513601847545], [85.04548219427217, 26.341500948570033], [84.90173854177026, 26.326378650251975], [84.8650380347485, 26.26039043940953], [84.65095174378818, 26.466603598292167], [84.5913134198778, 26.437733756048598], [84.51026646687141, 26.53259180913461], [84.50262052790853, 26.602704283154704]]]}}, {"type": "Feature", "properties": {"district": "Sitamarhi", "dt_code": "206", "st_nm": "Bihar", "st_code": "10", "year": "2011_c"}, "geometry": {"type": "Polygon", "coordinates": [[[85.26568523640277, 26.64669642371633], [85.25498092185475, 26.753927266335303], [85.33449868706859, 26.741554476802346], [85.54399741465117, 26.837787284280907], [85.64339462116845, 26.85290958259897], [85.72902913755257, 26.80891744203734], [85.72291238638228, 26.67419151156735], [85.81619284172928, 26.599954774369603], [85.82536796848471, 26.540840335489914], [85.76725883236692, 26.436359001656047], [85.70609132066397, 26.444607528011353], [85.7045621328714, 26.30300782557861], [85.50423853204425, 26.38136882595401], [85.4614212738522, 26.301633071186057], [85.37578675746806, 26.337376685392382], [85.36049487954233, 26.506471475676143], [85.40178294994182, 26.514720002031446], [85.31767762135027, 26.661818722034393], [85.26568523640277, 26.64669642371633]]]}}, {"type": "Feature", "properties": {"district": "Sheohar", "dt_code": "205", "st_nm": "Bihar", "st_code": "10", "year": "2011_c"}, "geometry": {"type": "Polygon", "coordinates": [[[85.29015224108394, 26.353873738102994], [85.17852153222607, 26.48722491418043], [85.26109767302505, 26.587581984836646], [85.26568523640277, 26.64669642371633], [85.31767762135027, 26.661818722034393], [85.40178294994182, 26.514720002031446], [85.36049487954233, 26.506471475676143], [85.37578675746806, 26.337376685392382], [85.29015224108394, 26.353873738102994]]]}}, {"type": "Feature", "properties": {"district": "Gopalganj", "dt_code": "217", "st_nm": "Bihar", "st_code": "10", "year": "2011_c"}, "geometry": {"type": "Polygon", "coordinates": [[[84.418515199317, 26.631574125398274], [84.50262052790853, 26.602704283154704], [84.51026646687141, 26.53259180913461], [84.5913134198778, 26.437733756048598], [84.65095174378818, 26.466603598292167], [84.8650380347485, 26.26039043940953], [84.89715097839253, 26.215023544455352], [84.7656408282312, 26.209524526885147], [84.65401011937332, 26.298883562400956], [84.36346443878435, 26.368996036421052], [84.26712560785221, 26.309881597541363], [84.1570240867869, 26.375869808383808], [83.9077664765974, 26.447357036796454], [83.91541241556028, 26.50234721249849], [84.05151012909933, 26.55183837063032], [84.11267764080227, 26.630199371005723], [84.28088829798537, 26.599954774369603], [84.418515199317, 26.631574125398274]]]}}, {"type": "Feature", "properties": {"district": "Samastipur", "dt_code": "221", "st_nm": "Bihar", "st_code": "10", "year": "2011_c"}, "geometry": {"type": "Polygon", "coordinates": [[[86.39116745173695, 25.71873720874448], [86.29329943301224, 25.637626699583976], [86.18166872415436, 25.66512178743499], [86.17708116077664, 25.713238191174273], [86.08380070542965, 25.744857542202944], [85.99816618904553, 25.681618840145603], [85.8437182219956, 25.644500471546728], [85.73514588872287, 25.524896839394803], [85.65104056013132, 25.46165813733746], [85.54399741465117, 25.483654207618272], [85.52717634893285, 25.53864438332031], [85.56999360712493, 25.68849261210836], [85.6112816775244, 25.710488682389173], [85.60975248973183, 25.854837893607016], [85.64492380896102, 25.916701841271806], [85.63269030662043, 25.95519496426323], [85.71220807183427, 26.088546140340668], [85.71985401079714, 26.04730350856414], [85.86818522667677, 26.02805694706843], [85.8895938557728, 25.995062841647208], [86.09297583218509, 25.897455279776093], [86.23977786027216, 25.880958227065484], [86.22448598234642, 25.776476893231614], [86.39116745173695, 25.71873720874448]]]}}, {"type": "Feature", "properties": {"district": "Katihar", "dt_code": "212", "st_nm": "Bihar", "st_code": "10", "year": "2011_c"}, "geometry": {"type": "Polygon", "coordinates": [[[88.06715727239762, 25.483654207618272], [87.96011412691746, 25.53864438332031], [87.86683367157048, 25.497401751543784], [87.7674364650532, 25.41629124238328], [87.7842575307715, 25.34067975079298], [87.84695423026702, 25.298062364623902], [87.81789966220812, 25.241697434529318], [87.76284890167547, 25.265068259202682], [87.71085651672797, 25.258194487239926], [87.69250626321708, 25.31180990854941], [87.55182098630031, 25.331056470045123], [87.36678926339891, 25.409417470420525], [87.22916236206729, 25.376423364999305], [87.21692885972669, 25.456159119767257], [87.2689212446742, 25.562015207993674], [87.24139586440788, 25.696741138463665], [87.41419408496868, 25.674745068182848], [87.64968900502502, 25.682993594538154], [87.68486032425422, 25.747607050988048], [87.83013316454871, 25.787474928372024], [87.82707478896356, 25.89058150781334], [87.89282986404423, 25.865835928747423], [87.96776006588033, 25.72561098070723], [88.0503362066793, 25.700865401641316], [88.02128163862041, 25.59638406780745], [88.06715727239762, 25.483654207618272]]]}}, {"type": "Feature", "properties": {"district": "Khagaria", "dt_code": "223", "st_nm": "Bihar", "st_code": "10", "year": "2011_c"}, "geometry": {"type": "Polygon", "coordinates": [[[86.29329943301224, 25.637626699583976], [86.39116745173695, 25.71873720874448], [86.41257608083298, 25.729735243884885], [86.49362303383938, 25.619754892480813], [86.59760780373438, 25.621129646873364], [86.724530390518, 25.66237227864989], [86.79793140456152, 25.63487719079887], [86.83921947496101, 25.617005383695712], [86.82239840924271, 25.44516108462685], [86.8575697284719, 25.364050575466347], [86.72605957831057, 25.254070224062275], [86.64654181309675, 25.273316785557988], [86.64042506192644, 25.390170908924812], [86.54102785540917, 25.49190273397358], [86.51044409955769, 25.423165014346033], [86.42480958317357, 25.500151260328884], [86.35293775692261, 25.47540568126297], [86.28259511846423, 25.54276864649796], [86.29329943301224, 25.637626699583976]]]}}, {"type": "Feature", "properties": {"district": "Bhojpur", "dt_code": "231", "st_nm": "Bihar", "st_code": "10", "year": "2011_c"}, "geometry": {"type": "Polygon", "coordinates": [[[84.3191179927997, 25.667871296220095], [84.33593905851802, 25.743482787810393], [84.55767128844118, 25.680244085753053], [84.60048854663326, 25.732484752669986], [84.6326014902773, 25.70773917360407], [84.84821696903018, 25.699490647248766], [84.81916240097128, 25.581261769489387], [84.75493651368319, 25.501526014721435], [84.77940351836436, 25.44791059341195], [84.7075316921134, 25.30906039976431], [84.62954311469215, 25.237573171351663], [84.52249996921199, 25.207328574715543], [84.46286164530163, 25.16058692536881], [84.32064718059229, 25.21282759228575], [84.32217636838486, 25.321433189297267], [84.27477154681507, 25.358551557896142], [84.36499362657692, 25.471281418085315], [84.32829311955516, 25.519397821824597], [84.34817256085861, 25.639001453976526], [84.3191179927997, 25.667871296220095]]]}}, {"type": "Feature", "properties": {"district": "Buxar", "dt_code": "232", "st_nm": "Bihar", "st_code": "10", "year": "2011_c"}, "geometry": {"type": "Polygon", "coordinates": [[[83.93070429348602, 25.557890944816023], [84.08056469715822, 25.636251945191425], [84.07444794598793, 25.69536638407111], [84.1402030210686, 25.731109998277436], [84.20595809614926, 25.669246050612646], [84.3191179927997, 25.667871296220095], [84.34817256085861, 25.639001453976526], [84.32829311955516, 25.519397821824597], [84.36499362657692, 25.471281418085315], [84.27477154681507, 25.358551557896142], [84.0469225657216, 25.375048610606754], [84.03468906338102, 25.267817767987783], [83.8970621620494, 25.289813838268596], [83.77931470202122, 25.39841943528012], [83.84659896489447, 25.434163049486443], [83.93070429348602, 25.557890944816023]]]}}, {"type": "Feature", "properties": {"district": "Darbhanga", "dt_code": "215", "st_nm": "Bihar", "st_code": "10", "year": "2011_c"}, "geometry": {"type": "Polygon", "coordinates": [[[85.7045621328714, 26.30300782557861], [85.70609132066397, 26.444607528011353], [85.76725883236692, 26.436359001656047], [85.82078040510699, 26.40886391380503], [85.81619284172928, 26.293384544830754], [85.88194791680993, 26.27413798333504], [85.97828674774208, 26.323629141466874], [86.01345806697127, 26.246642895484023], [86.10979689790341, 26.19302747417454], [86.14955578051031, 26.235644860343616], [86.329999940034, 26.155909105575663], [86.329999940034, 26.091295649125772], [86.3881090761518, 26.033555964638634], [86.39422582732209, 25.975816280151495], [86.31623724990084, 25.86033691117722], [86.41410526862555, 25.794348700334776], [86.41257608083298, 25.729735243884885], [86.39116745173695, 25.71873720874448], [86.22448598234642, 25.776476893231614], [86.23977786027216, 25.880958227065484], [86.09297583218509, 25.897455279776093], [85.8895938557728, 25.995062841647208], [85.86818522667677, 26.02805694706843], [85.71985401079714, 26.04730350856414], [85.71220807183427, 26.088546140340668], [85.72749994976, 26.125664508939543], [85.7045621328714, 26.30300782557861]]]}}, {"type": "Feature", "properties": {"district": "Saharsa", "dt_code": "214", "st_nm": "Bihar", "st_code": "10", "year": "2011_c"}, "geometry": {"type": "Polygon", "coordinates": [[[86.79793140456152, 25.63487719079887], [86.724530390518, 25.66237227864989], [86.59760780373438, 25.621129646873364], [86.49362303383938, 25.619754892480813], [86.41257608083298, 25.729735243884885], [86.41410526862555, 25.794348700334776], [86.31623724990084, 25.86033691117722], [86.39422582732209, 25.975816280151495], [86.3881090761518, 26.033555964638634], [86.43704308551415, 26.07204908763006], [86.53185272865372, 25.990938578469557], [86.64501262530416, 26.018433666320572], [86.7122968881774, 25.865835928747423], [86.84380703833874, 25.871334946317628], [86.87133241860506, 25.72286147192213], [86.79793140456152, 25.63487719079887]]]}}, {"type": "Feature", "properties": {"district": "Kaimur", "dt_code": "233", "st_nm": "Bihar", "st_code": "10", "year": "2011_c"}, "geometry": {"type": "Polygon", "coordinates": [[[83.5377030307946, 25.30906039976431], [83.64933373965246, 25.33930499640043], [83.74108500720689, 25.410792224813076], [83.77931470202122, 25.39841943528012], [83.8970621620494, 25.289813838268596], [83.83589465034645, 25.243072188921868], [83.80531089449498, 25.112470521629533], [83.83589465034645, 25.03823378443178], [83.81142764566528, 24.959872784056383], [83.71508881473314, 24.8361448887268], [83.78543145319152, 24.75915864274395], [83.73038069265887, 24.671174361620693], [83.74108500720689, 24.569442536571927], [83.69673856122225, 24.540572694328358], [83.52394034066143, 24.550195975076214], [83.53005709183172, 24.643679273769674], [83.48876902143223, 24.735787818070584], [83.39548856608525, 24.781154713024765], [83.35114212010062, 25.009363942188216], [83.34961293230805, 25.18395775004218], [83.5377030307946, 25.30906039976431]]]}}, {"type": "Feature", "properties": {"district": "Rohtas", "dt_code": "234", "st_nm": "Bihar", "st_code": "10", "year": "2011_c"}, "geometry": {"type": "Polygon", "coordinates": [[[84.27477154681507, 25.358551557896142], [84.32217636838486, 25.321433189297267], [84.32064718059229, 25.21282759228575], [84.46286164530163, 25.16058692536881], [84.4475697673759, 25.12759281994759], [84.42310276269471, 25.080851170600862], [84.30535530266656, 25.010738696580766], [84.08515226053595, 24.77015667788436], [84.00869287090727, 24.642304519377124], [83.93682104465631, 24.548821220683664], [83.87259515736821, 24.53232416797305], [83.71814719031828, 24.503454325729482], [83.50253171156541, 24.5254503960103], [83.52394034066143, 24.550195975076214], [83.69673856122225, 24.540572694328358], [83.74108500720689, 24.569442536571927], [83.73038069265887, 24.671174361620693], [83.78543145319152, 24.75915864274395], [83.71508881473314, 24.8361448887268], [83.81142764566528, 24.959872784056383], [83.83589465034645, 25.03823378443178], [83.80531089449498, 25.112470521629533], [83.83589465034645, 25.243072188921868], [83.8970621620494, 25.289813838268596], [84.03468906338102, 25.267817767987783], [84.0469225657216, 25.375048610606754], [84.27477154681507, 25.358551557896142]]]}}, {"type": "Feature", "properties": {"district": "Jamui", "dt_code": "238", "st_nm": "Bihar", "st_code": "10", "year": "2011_c"}, "geometry": {"type": "Polygon", "coordinates": [[[86.50432734838739, 24.983243608729747], [86.55784892112747, 24.701418958256813], [86.61137049386755, 24.607935659563353], [86.49973978500967, 24.510328097692238], [86.4523349634399, 24.37285265843715], [86.34987938133746, 24.447089395634897], [86.27647836729392, 24.46633595713061], [86.3009453719751, 24.56119401021662], [86.13273471479201, 24.603811396385698], [86.12814715141428, 24.698669449471712], [86.05474613737076, 24.779779958632215], [85.97369918436435, 24.867764239755473], [85.89265223135794, 24.874638011718226], [85.83454309524015, 24.9873678719074], [85.97522837215692, 24.996991152655255], [86.11897202465885, 24.97362032798189], [86.21072329221326, 25.01761246854352], [86.37128801043349, 25.144089872658203], [86.38505070056665, 25.057480345927495], [86.50432734838739, 24.983243608729747]]]}}, {"type": "Feature", "properties": {"district": "Banka", "dt_code": "225", "st_nm": "Bihar", "st_code": "10", "year": "2011_c"}, "geometry": {"type": "Polygon", "coordinates": [[[87.1756407893272, 25.057480345927495], [87.14505703347574, 25.01898722293607], [87.15729053581632, 24.88151178368098], [87.10988571424654, 24.85126718704486], [87.05177657812874, 24.627182221059066], [86.95237937161146, 24.631306484236717], [86.91262048900455, 24.547446466291113], [86.7535849585769, 24.61755894031121], [86.65265856426703, 24.570817290964477], [86.61137049386755, 24.607935659563353], [86.55784892112747, 24.701418958256813], [86.50432734838739, 24.983243608729747], [86.58384511360123, 24.947499994523422], [86.65112937647446, 24.981868854337197], [86.69241744687395, 25.115220030414633], [86.81322328248726, 25.09184920574127], [87.0135468833144, 25.109721012844428], [87.1756407893272, 25.057480345927495]]]}}, {"type": "Feature", "properties": {"district": "Nawada", "dt_code": "237", "st_nm": "Bihar", "st_code": "10", "year": "2011_c"}, "geometry": {"type": "Polygon", "coordinates": [[[85.83454309524015, 24.9873678719074], [85.89265223135794, 24.874638011718226], [85.97369918436435, 24.867764239755473], [86.05474613737076, 24.779779958632215], [85.93241111396486, 24.73853732685569], [85.9018273581134, 24.766032414706704], [85.73820426430802, 24.81964783601619], [85.66633243805705, 24.661551080872837], [85.67703675260508, 24.59143860685274], [85.5424682268586, 24.53232416797305], [85.3742575696755, 24.55432023825387], [85.30391493121711, 24.632681238629267], [85.32991112369086, 24.71241699339722], [85.27638955095078, 24.779779958632215], [85.38802025980866, 24.962622292841484], [85.54705579023631, 25.03273476686158], [85.634219494413, 25.09734822331147], [85.76572964457435, 25.078101661815758], [85.76878802015949, 25.007989187795662], [85.83454309524015, 24.9873678719074]]]}}, {"type": "Feature", "properties": {"district": "Gaya", "dt_code": "236", "st_nm": "Bihar", "st_code": "10", "year": "2011_c"}, "geometry": {"type": "Polygon", "coordinates": [[[85.38802025980866, 24.962622292841484], [85.27638955095078, 24.779779958632215], [85.32991112369086, 24.71241699339722], [85.30391493121711, 24.632681238629267], [85.3742575696755, 24.55432023825387], [85.33144031148343, 24.510328097692238], [85.28862305329137, 24.522700887225195], [85.08829945246424, 24.370103149652046], [85.02866112855386, 24.415470044606227], [84.90326772956283, 24.37285265843715], [84.8879758516371, 24.46358644834551], [84.80234133525298, 24.5309494135805], [84.58519666870751, 24.400347746288165], [84.49650377673825, 24.287617886098992], [84.45980326971647, 24.337109044230825], [84.34205580968832, 24.393473974325413], [84.32676393176257, 24.489706781803974], [84.39251900684324, 24.566693027786826], [84.48427027439766, 24.51307760647734], [84.54696697389318, 24.52682515040285], [84.60201773442583, 24.656052063302635], [84.72282357003914, 24.700044203864262], [84.73505707237973, 24.764657660314153], [84.64024742924016, 24.874638011718226], [84.71670681886884, 24.924129169850058], [84.73352788458716, 25.054730837142394], [84.85586290799304, 25.06160460910515], [84.90938448073312, 25.0657288722828], [85.08982864025681, 24.992866889477604], [85.12652914727857, 25.053356082749843], [85.20145934911469, 25.058855100320045], [85.34979056499432, 25.020361977328623], [85.38802025980866, 24.962622292841484]]]}}, {"type": "Feature", "properties": {"district": "Munger", "dt_code": "226", "st_nm": "Bihar", "st_code": "10", "year": "2011_c"}, "geometry": {"type": "Polygon", "coordinates": [[[86.51044409955769, 25.423165014346033], [86.54102785540917, 25.49190273397358], [86.64042506192644, 25.390170908924812], [86.64654181309675, 25.273316785557988], [86.72605957831057, 25.254070224062275], [86.69241744687395, 25.115220030414633], [86.65112937647446, 24.981868854337197], [86.58384511360123, 24.947499994523422], [86.50432734838739, 24.983243608729747], [86.38505070056665, 25.057480345927495], [86.37128801043349, 25.144089872658203], [86.35293775692261, 25.299437119016453], [86.26271567716077, 25.28019055752074], [86.51044409955769, 25.423165014346033]]]}}, {"type": "Feature", "properties": {"district": "Vaishali", "dt_code": "220", "st_nm": "Bihar", "st_code": "10", "year": "2011_c"}, "geometry": {"type": "Polygon", "coordinates": [[[85.64492380896102, 25.916701841271806], [85.60975248973183, 25.854837893607016], [85.6112816775244, 25.710488682389173], [85.56999360712493, 25.68849261210836], [85.52717634893285, 25.53864438332031], [85.42930833020814, 25.496026997151233], [85.31156087017999, 25.51252404986184], [85.23051391717358, 25.6005083309851], [85.19228422235923, 25.670620805005196], [85.16475884209291, 25.838340840896407], [85.11429564493798, 25.867210683139973], [85.06842001116078, 25.974441525758944], [85.17546315664093, 26.01155989435782], [85.28403548991366, 25.95519496426323], [85.4094288889047, 25.945571683515375], [85.50882609542198, 25.90432905173885], [85.64492380896102, 25.916701841271806]]]}}, {"type": "Feature", "properties": {"district": "Begusarai", "dt_code": "222", "st_nm": "Bihar", "st_code": "10", "year": "2011_c"}, "geometry": {"type": "Polygon", "coordinates": [[[85.73514588872287, 25.524896839394803], [85.8437182219956, 25.644500471546728], [85.99816618904553, 25.681618840145603], [86.08380070542965, 25.744857542202944], [86.17708116077664, 25.713238191174273], [86.18166872415436, 25.66512178743499], [86.29329943301224, 25.637626699583976], [86.28259511846423, 25.54276864649796], [86.35293775692261, 25.47540568126297], [86.42480958317357, 25.500151260328884], [86.51044409955769, 25.423165014346033], [86.26271567716077, 25.28019055752074], [86.19390222649496, 25.24994596088462], [86.06850882750392, 25.335180733222778], [85.95687811864605, 25.41354173359818], [85.87430197784707, 25.439662067056645], [85.8895938557728, 25.498776505936334], [85.78102152250008, 25.549642418460717], [85.73514588872287, 25.524896839394803]]]}}, {"type": "Feature", "properties": {"district": "Bhagalpur", "dt_code": "224", "st_nm": "Bihar", "st_code": "10", "year": "2011_c"}, "geometry": {"type": "Polygon", "coordinates": [[[87.21692885972669, 25.456159119767257], [87.22916236206729, 25.376423364999305], [87.36678926339891, 25.409417470420525], [87.55182098630031, 25.331056470045123], [87.47841997225677, 25.194955785182586], [87.327030380792, 25.223825627426155], [87.29491743714794, 25.089099696956165], [87.1756407893272, 25.057480345927495], [87.0135468833144, 25.109721012844428], [86.81322328248726, 25.09184920574127], [86.69241744687395, 25.115220030414633], [86.72605957831057, 25.254070224062275], [86.8575697284719, 25.364050575466347], [86.82239840924271, 25.44516108462685], [86.92026642796742, 25.49327748836613], [87.0196636344847, 25.46165813733746], [87.10071058749111, 25.519397821824597], [87.10376896307625, 25.43278829509389], [87.21692885972669, 25.456159119767257]]]}}, {"type": "Feature", "properties": {"district": "Lakhisarai", "dt_code": "227", "st_nm": "Bihar", "st_code": "10", "year": "2011_c"}, "geometry": {"type": "Polygon", "coordinates": [[[86.37128801043349, 25.144089872658203], [86.21072329221326, 25.01761246854352], [86.11897202465885, 24.97362032798189], [85.97522837215692, 24.996991152655255], [85.95076136747575, 25.09459871452637], [85.98134512332722, 25.179833486864524], [85.9018273581134, 25.256819732847376], [85.90641492149112, 25.288439083876046], [86.01957481814156, 25.296687610231352], [86.06850882750392, 25.335180733222778], [86.19390222649496, 25.24994596088462], [86.26271567716077, 25.28019055752074], [86.35293775692261, 25.299437119016453], [86.37128801043349, 25.144089872658203]]]}}, {"type": "Feature", "properties": {"district": "Sheikhpura", "dt_code": "228", "st_nm": "Bihar", "st_code": "10", "year": "2011_c"}, "geometry": {"type": "Polygon", "coordinates": [[[85.97522837215692, 24.996991152655255], [85.83454309524015, 24.9873678719074], [85.76878802015949, 25.007989187795662], [85.76572964457435, 25.078101661815758], [85.634219494413, 25.09734822331147], [85.68774106715308, 25.142715118265652], [85.70150375728625, 25.26369350481013], [85.83454309524015, 25.21557710107085], [85.9018273581134, 25.256819732847376], [85.98134512332722, 25.179833486864524], [85.95076136747575, 25.09459871452637], [85.97522837215692, 24.996991152655255]]]}}, {"type": "Feature", "properties": {"district": "Arwal", "dt_code": "240", "st_nm": "Bihar", "st_code": "10", "year": "2011_c"}, "geometry": {"type": "Polygon", "coordinates": [[[84.46286164530163, 25.16058692536881], [84.52249996921199, 25.207328574715543], [84.62954311469215, 25.237573171351663], [84.7075316921134, 25.30906039976431], [84.81151646200841, 25.2169518554634], [84.85739209578563, 25.226575136211256], [84.83292509110444, 25.20182955714534], [84.85586290799304, 25.06160460910515], [84.73352788458716, 25.054730837142394], [84.6845938752248, 25.100097732096575], [84.4475697673759, 25.12759281994759], [84.46286164530163, 25.16058692536881]]]}}, {"type": "Feature", "properties": {"district": "Jehanabad", "dt_code": "239", "st_nm": "Bihar", "st_code": "10", "year": "2011_c"}, "geometry": {"type": "Polygon", "coordinates": [[[85.20145934911469, 25.058855100320045], [85.12652914727857, 25.053356082749843], [85.08982864025681, 24.992866889477604], [84.90938448073312, 25.0657288722828], [84.85586290799304, 25.06160460910515], [84.83292509110444, 25.20182955714534], [84.85739209578563, 25.226575136211256], [84.94914336334003, 25.29393810144625], [85.07606595012365, 25.273316785557988], [85.1662880298855, 25.30768564537176], [85.16475884209291, 25.142715118265652], [85.20145934911469, 25.058855100320045]]]}}, {"type": "Feature", "properties": {"district": "Nalanda", "dt_code": "229", "st_nm": "Bihar", "st_code": "10", "year": "2011_c"}, "geometry": {"type": "Polygon", "coordinates": [[[85.634219494413, 25.09734822331147], [85.54705579023631, 25.03273476686158], [85.38802025980866, 24.962622292841484], [85.34979056499432, 25.020361977328623], [85.20145934911469, 25.058855100320045], [85.16475884209291, 25.142715118265652], [85.1662880298855, 25.30768564537176], [85.17852153222607, 25.40254369845777], [85.36049487954233, 25.40116894406522], [85.41401645228241, 25.46165813733746], [85.57458117050264, 25.421790259953482], [85.6464529967536, 25.335180733222778], [85.71832482300456, 25.361301066681243], [85.80854690276641, 25.288439083876046], [85.90641492149112, 25.288439083876046], [85.9018273581134, 25.256819732847376], [85.83454309524015, 25.21557710107085], [85.70150375728625, 25.26369350481013], [85.68774106715308, 25.142715118265652], [85.634219494413, 25.09734822331147]]]}}, {"type": "Feature", "properties": {"district": "Patna", "dt_code": "230", "st_nm": "Bihar", "st_code": "10", "year": "2011_c"}, "geometry": {"type": "Polygon", "coordinates": [[[85.52717634893285, 25.53864438332031], [85.54399741465117, 25.483654207618272], [85.65104056013132, 25.46165813733746], [85.73514588872287, 25.524896839394803], [85.78102152250008, 25.549642418460717], [85.8895938557728, 25.498776505936334], [85.87430197784707, 25.439662067056645], [85.95687811864605, 25.41354173359818], [86.06850882750392, 25.335180733222778], [86.01957481814156, 25.296687610231352], [85.90641492149112, 25.288439083876046], [85.80854690276641, 25.288439083876046], [85.71832482300456, 25.361301066681243], [85.6464529967536, 25.335180733222778], [85.57458117050264, 25.421790259953482], [85.41401645228241, 25.46165813733746], [85.36049487954233, 25.40116894406522], [85.17852153222607, 25.40254369845777], [85.1662880298855, 25.30768564537176], [85.07606595012365, 25.273316785557988], [84.94914336334003, 25.29393810144625], [84.85739209578563, 25.226575136211256], [84.81151646200841, 25.2169518554634], [84.7075316921134, 25.30906039976431], [84.77940351836436, 25.44791059341195], [84.75493651368319, 25.501526014721435], [84.81916240097128, 25.581261769489387], [84.84821696903018, 25.699490647248766], [84.99501899711724, 25.729735243884885], [85.06994919895335, 25.70773917360407], [85.14335021299688, 25.622504401265914], [85.23051391717358, 25.6005083309851], [85.31156087017999, 25.51252404986184], [85.42930833020814, 25.496026997151233], [85.52717634893285, 25.53864438332031]]]}}, {"type": "Feature", "properties": {"district": "Saran", "dt_code": "219", "st_nm": "Bihar", "st_code": "10", "year": "2011_c"}, "geometry": {"type": "Polygon", "coordinates": [[[84.7656408282312, 26.209524526885147], [84.89715097839253, 26.215023544455352], [84.93690986099945, 26.023932683890777], [85.06842001116078, 25.974441525758944], [85.11429564493798, 25.867210683139973], [85.16475884209291, 25.838340840896407], [85.19228422235923, 25.670620805005196], [85.23051391717358, 25.6005083309851], [85.14335021299688, 25.622504401265914], [85.06994919895335, 25.70773917360407], [84.99501899711724, 25.729735243884885], [84.84821696903018, 25.699490647248766], [84.6326014902773, 25.70773917360407], [84.60048854663326, 25.732484752669986], [84.62495555131443, 25.791599191549675], [84.47203677205707, 25.882332981458035], [84.40934007256155, 26.032181210246083], [84.56531722740405, 26.030806455853533], [84.5867258565001, 26.07479859641516], [84.70447331652827, 26.081672368377916], [84.7656408282312, 26.209524526885147]]]}}, {"type": "Feature", "properties": {"district": "Siwan", "dt_code": "218", "st_nm": "Bihar", "st_code": "10", "year": "2011_c"}, "geometry": {"type": "Polygon", "coordinates": [[[84.05609769247705, 26.099544175481075], [84.08668144832852, 26.219147807633004], [84.17690352809036, 26.264514702587185], [84.1570240867869, 26.375869808383808], [84.26712560785221, 26.309881597541363], [84.36346443878435, 26.368996036421052], [84.65401011937332, 26.298883562400956], [84.7656408282312, 26.209524526885147], [84.70447331652827, 26.081672368377916], [84.5867258565001, 26.07479859641516], [84.56531722740405, 26.030806455853533], [84.40934007256155, 26.032181210246083], [84.47203677205707, 25.882332981458035], [84.3542893120289, 25.959319227440886], [84.2961801759111, 25.945571683515375], [84.05609769247705, 26.099544175481075]]]}}, {"type": "Feature", "properties": {"district": "Muzaffarpur", "dt_code": "216", "st_nm": "Bihar", "st_code": "10", "year": "2011_c"}, "geometry": {"type": "Polygon", "coordinates": [[[85.2870938654988, 26.35249898371044], [85.29015224108394, 26.353873738102994], [85.37578675746806, 26.337376685392382], [85.4614212738522, 26.301633071186057], [85.50423853204425, 26.38136882595401], [85.7045621328714, 26.30300782557861], [85.72749994976, 26.125664508939543], [85.71220807183427, 26.088546140340668], [85.63269030662043, 25.95519496426323], [85.64492380896102, 25.916701841271806], [85.50882609542198, 25.90432905173885], [85.4094288889047, 25.945571683515375], [85.28403548991366, 25.95519496426323], [85.17546315664093, 26.01155989435782], [85.06842001116078, 25.974441525758944], [84.93690986099945, 26.023932683890777], [84.89715097839253, 26.215023544455352], [84.8650380347485, 26.26039043940953], [84.90173854177026, 26.326378650251975], [85.04548219427217, 26.341500948570033], [85.1999301613221, 26.28513601847545], [85.28097711432851, 26.34974947492534], [85.2870938654988, 26.35249898371044]]]}}, {"type": "Feature", "properties": {"district": "Madhepura", "dt_code": "213", "st_nm": "Bihar", "st_code": "10", "year": "2011_c"}, "geometry": {"type": "Polygon", "coordinates": [[[86.82239840924271, 25.44516108462685], [86.83921947496101, 25.617005383695712], [86.79793140456152, 25.63487719079887], [86.87133241860506, 25.72286147192213], [86.84380703833874, 25.871334946317628], [86.7122968881774, 25.865835928747423], [86.64501262530416, 26.018433666320572], [86.78875627780609, 26.08992089473322], [87.09306464852824, 26.0596762980971], [87.07930195839506, 25.964818245011088], [86.98907987863322, 25.945571683515375], [87.0426014513733, 25.84796412164426], [87.00743013214411, 25.744857542202944], [87.025780385655, 25.655498506687135], [87.10071058749111, 25.519397821824597], [87.0196636344847, 25.46165813733746], [86.92026642796742, 25.49327748836613], [86.82239840924271, 25.44516108462685]]]}}, {"type": "Feature", "properties": {"district": "Araria", "dt_code": "209", "st_nm": "Bihar", "st_code": "10", "year": "2011_c"}, "geometry": {"type": "Polygon", "coordinates": [[[87.07930195839506, 25.964818245011088], [87.09306464852824, 26.0596762980971], [87.11753165320941, 26.177905175856477], [87.04413063916587, 26.31675536950412], [87.08083114618765, 26.404739650627377], [87.0426014513733, 26.560086896985627], [87.09153546073566, 26.450106545581555], [87.16187809919404, 26.404739650627377], [87.36831845119148, 26.407489159412478], [87.46312809433104, 26.4404832648337], [87.58852149332208, 26.38136882595401], [87.65886413178046, 26.37999407156146], [87.62522200034385, 26.345625211747688], [87.70626895335025, 26.161408123145865], [87.68486032425422, 26.10229368426618], [87.63439712709929, 26.01705891192802], [87.51817885486369, 25.974441525758944], [87.4707740332939, 25.989563824077003], [87.27197962025934, 25.98543956089935], [87.1649364747792, 25.942822174730274], [87.07930195839506, 25.964818245011088]]]}}, {"type": "Feature", "properties": {"district": "Supaul", "dt_code": "208", "st_nm": "Bihar", "st_code": "10", "year": "2011_c"}, "geometry": {"type": "Polygon", "coordinates": [[[86.64501262530416, 26.018433666320572], [86.53185272865372, 25.990938578469557], [86.43704308551415, 26.07204908763006], [86.51503166293541, 26.217773053240453], [86.53491110423886, 26.30300782557861], [86.72300120272541, 26.42536096651564], [86.84686541392388, 26.44185801922625], [87.0426014513733, 26.560086896985627], [87.08083114618765, 26.404739650627377], [87.04413063916587, 26.31675536950412], [87.11753165320941, 26.177905175856477], [87.09306464852824, 26.0596762980971], [86.78875627780609, 26.08992089473322], [86.64501262530416, 26.018433666320572]]]}}, {"type": "Feature", "properties": {"district": "Madhubani", "dt_code": "207", "st_nm": "Bihar", "st_code": "10", "year": "2011_c"}, "geometry": {"type": "Polygon", "coordinates": [[[85.76725883236692, 26.436359001656047], [85.82536796848471, 26.540840335489914], [85.81619284172928, 26.599954774369603], [85.85901009992133, 26.568335423340933], [85.95993649423119, 26.650820686893987], [86.028749944897, 26.665942985212045], [86.1908438509098, 26.61507707268766], [86.34070425458202, 26.60682854633236], [86.54255704320173, 26.538090826704813], [86.57008242346805, 26.496848194928287], [86.72300120272541, 26.42536096651564], [86.53491110423886, 26.30300782557861], [86.51503166293541, 26.217773053240453], [86.43704308551415, 26.07204908763006], [86.3881090761518, 26.033555964638634], [86.329999940034, 26.091295649125772], [86.329999940034, 26.155909105575663], [86.14955578051031, 26.235644860343616], [86.10979689790341, 26.19302747417454], [86.01345806697127, 26.246642895484023], [85.97828674774208, 26.323629141466874], [85.88194791680993, 26.27413798333504], [85.81619284172928, 26.293384544830754], [85.82078040510699, 26.40886391380503], [85.76725883236692, 26.436359001656047]]]}}, {"type": "Feature", "properties": {"district": "Purnia", "dt_code": "211", "st_nm": "Bihar", "st_code": "10", "year": "2011_c"}, "geometry": {"type": "Polygon", "coordinates": [[[87.82707478896356, 25.89058150781334], [87.83013316454871, 25.787474928372024], [87.68486032425422, 25.747607050988048], [87.64968900502502, 25.682993594538154], [87.41419408496868, 25.674745068182848], [87.24139586440788, 25.696741138463665], [87.2689212446742, 25.562015207993674], [87.21692885972669, 25.456159119767257], [87.10376896307625, 25.43278829509389], [87.10071058749111, 25.519397821824597], [87.025780385655, 25.655498506687135], [87.00743013214411, 25.744857542202944], [87.0426014513733, 25.84796412164426], [86.98907987863322, 25.945571683515375], [87.07930195839506, 25.964818245011088], [87.1649364747792, 25.942822174730274], [87.27197962025934, 25.98543956089935], [87.4707740332939, 25.989563824077003], [87.51817885486369, 25.974441525758944], [87.63439712709929, 26.01705891192802], [87.68486032425422, 26.10229368426618], [87.86224610819275, 26.094045157910873], [87.85001260585217, 26.039054982208835], [87.85307098143731, 26.02943170146098], [87.84083747909673, 25.99643759603976], [87.84695423026702, 25.992313332862107], [87.82248722558585, 25.93594840276752], [87.82707478896356, 25.89058150781334]]]}}, {"type": "Feature", "properties": {"district": "Kishanganj", "dt_code": "210", "st_nm": "Bihar", "st_code": "10", "year": "2011_c"}, "geometry": {"type": "Polygon", "coordinates": [[[88.10997453058968, 26.54771410745267], [88.23995549295844, 26.45835507193686], [88.27971437556535, 26.330502913429626], [88.14667503761144, 26.250767158661674], [88.07327402356792, 26.175155667071376], [87.97540600484321, 26.143536316042706], [87.85001260585217, 26.039054982208835], [87.86224610819275, 26.094045157910873], [87.68486032425422, 26.10229368426618], [87.70626895335025, 26.161408123145865], [87.62522200034385, 26.345625211747688], [87.65886413178046, 26.37999407156146], [87.8484834180596, 26.436359001656047], [88.033515140961, 26.392366861094416], [88.09927021604167, 26.45560556315176], [88.10997453058968, 26.54771410745267]]]}}, {"type": "Feature", "properties": {"district": "Aurangabad", "dt_code": "235", "st_nm": "Bihar", "st_code": "10", "year": "2011_c"}, "geometry": {"type": "Polygon", "coordinates": [[[84.00869287090727, 24.642304519377124], [84.08515226053595, 24.77015667788436], [84.30535530266656, 25.010738696580766], [84.42310276269471, 25.080851170600862], [84.4475697673759, 25.12759281994759], [84.6845938752248, 25.100097732096575], [84.73352788458716, 25.054730837142394], [84.71670681886884, 24.924129169850058], [84.64024742924016, 24.874638011718226], [84.73505707237973, 24.764657660314153], [84.72282357003914, 24.700044203864262], [84.60201773442583, 24.656052063302635], [84.54696697389318, 24.52682515040285], [84.48427027439766, 24.51307760647734], [84.39251900684324, 24.566693027786826], [84.32676393176257, 24.489706781803974], [84.25642129330419, 24.52682515040285], [84.09279819949882, 24.533698922365602], [84.00869287090727, 24.642304519377124]]]}}], "metadata": {"source": "udit-001/india-maps-data (Census 2011)", "url": "https://github.com/udit-001/india-maps-data", "license": "ODbL (Open Database License)", "feature_count": 39}}