{"type": "FeatureCollection", "features": [{"type": "Feature", "properties": {"district": "Mahasamund", "dt_code": "411", "st_nm": "Chhattisgarh", "st_code": "22", "year": "2011_c"}, "geometry": {"type": "Polygon", "coordinates": [[[83.26856597930164, 21.37726283706874], [83.19210658967296, 21.139430327157434], [83.07741750522995, 21.11193523930642], [82.96578679637207, 21.17517394136376], [82.64006979655389, 21.154552625475496], [82.63854060876132, 21.088564414633055], [82.56055203134007, 20.946964712200312], [82.4886802050891, 20.908471589208887], [82.4596256370302, 20.825986325655833], [82.33881980141689, 20.874102729395112], [82.19813452450012, 20.938716185845006], [82.16143401747834, 21.015702431827854], [81.98863579691754, 21.08306539706285], [82.02839467952444, 21.232913625850898], [82.14614213955261, 21.3112746262263], [82.1935469611224, 21.378637591461292], [82.25165609724019, 21.318148398189052], [82.38928299857182, 21.261783468094468], [82.47185913937079, 21.327771678936912], [82.69664974487911, 21.330521187722013], [82.69053299370881, 21.484493679687713], [82.8770939044028, 21.55598090810036], [82.93367385272802, 21.49686646922067], [83.05906725171906, 21.43637727594843], [83.26856597930164, 21.37726283706874]]]}}, {"type": "Feature", "properties": {"district": "Uttar Bastar Kanker", "dt_code": "413", "st_nm": "Chhattisgarh", "st_code": "22", "year": "2011_c"}, "geometry": {"type": "Polygon", "coordinates": [[[80.67200510751165, 19.702811986941747], [80.56343277423893, 19.759176917036335], [80.54661170852062, 19.818291355916024], [80.46862313109936, 19.82653988227133], [80.52979064280231, 19.939269742460503], [80.54508252072804, 20.10011600638896], [80.58484140333496, 20.17710225237181], [80.65365485400078, 20.22659341050364], [80.71482236570372, 20.190849796297318], [80.74999368493292, 20.291206866953534], [80.82951145014674, 20.309078674056693], [80.8600952059982, 20.387439674432095], [80.99160535615954, 20.458926902844745], [81.14911169879463, 20.37644163929169], [81.22251271283815, 20.41905902546077], [81.32496829494059, 20.56340823667861], [81.41060281132471, 20.553784955930755], [81.45647844510192, 20.51391707854678], [81.59716372201869, 20.519416096116984], [81.69197336515825, 20.48092297312556], [81.79442894726068, 20.326950481159855], [81.77454950595722, 20.232092428073845], [81.81430838856414, 20.16747897162395], [81.67973986281767, 20.13036060302508], [81.5849302196781, 20.194974059474973], [81.45036169393163, 20.146857655735687], [81.38766499443611, 20.047875339472025], [81.29132616350397, 20.021755006013557], [81.32649748273316, 19.939269742460503], [81.40601524794698, 19.880155303580814], [81.37390230430294, 19.7797982329246], [81.15828682555006, 19.755052653858684], [81.08488581150652, 19.7069362501194], [81.00842642187786, 19.812792338345822], [80.94878809796748, 19.830664145448985], [80.88762058626453, 19.937894988067953], [80.8432741402799, 19.94751826881581], [80.74846449714033, 19.8526602157298], [80.67200510751165, 19.702811986941747]]]}}, {"type": "Feature", "properties": {"district": "Narayanpur", "dt_code": "415", "st_nm": "Chhattisgarh", "st_code": "22", "year": "2011_c"}, "geometry": {"type": "Polygon", "coordinates": [[[80.85244926703534, 19.364622406374227], [80.8952665252274, 19.519969652732478], [80.71482236570372, 19.616202460211042], [80.67200510751165, 19.702811986941747], [80.74846449714033, 19.8526602157298], [80.8432741402799, 19.94751826881581], [80.88762058626453, 19.937894988067953], [80.94878809796748, 19.830664145448985], [81.00842642187786, 19.812792338345822], [81.08488581150652, 19.7069362501194], [81.15828682555006, 19.755052653858684], [81.37390230430294, 19.7797982329246], [81.37390230430294, 19.73030707479277], [81.48553301316082, 19.68768968862369], [81.42742387704303, 19.4801017753485], [81.47635788640537, 19.4718532489932], [81.47024113523509, 19.376995195907185], [81.34331854845146, 19.319255511420046], [81.29744291467426, 19.335752564130658], [81.12923225749117, 19.256016809362706], [80.95490484913778, 19.236770247866993], [80.95184647355262, 19.311006985064743], [80.85244926703534, 19.364622406374227]]]}}, {"type": "Feature", "properties": {"district": "Dakshin Bastar Dantewada", "dt_code": "416", "st_nm": "Chhattisgarh", "st_code": "22", "year": "2011_c"}, "geometry": {"type": "Polygon", "coordinates": [[[81.12923225749117, 19.256016809362706], [81.29744291467426, 19.335752564130658], [81.34331854845146, 19.319255511420046], [81.37543149209552, 19.305507967494542], [81.34331854845146, 19.23127123029679], [81.40142768456927, 19.191403352912815], [81.50235407887912, 19.203776142445776], [81.49012057653854, 19.085547264686397], [81.52987945914545, 19.037430860947115], [81.46565357185736, 18.946697071038756], [81.5558756516192, 18.91232821122498], [81.62774747787016, 18.813345894961316], [81.7118528064617, 18.838091474027234], [81.77760788154238, 18.77347801757734], [81.67362311164737, 18.65249963103286], [81.62774747787016, 18.734984894585917], [81.56963834175237, 18.740483912156122], [81.54364214927861, 18.607132736078682], [81.48859138874596, 18.623629788789295], [81.36931474092522, 18.43253892822472], [81.25921321985992, 18.47928057757145], [81.18275383023123, 18.54114452523624], [81.15981601334263, 18.690992754024286], [81.19804570815698, 18.748732438511425], [81.23627540297132, 18.96731838692702], [81.21027921049756, 19.18315482655751], [81.1445241354169, 19.18178007216496], [81.12923225749117, 19.256016809362706]]]}}, {"type": "Feature", "properties": {"district": "Bastar", "dt_code": "414", "st_nm": "Chhattisgarh", "st_code": "22", "year": "2011_c"}, "geometry": {"type": "Polygon", "coordinates": [[[82.02839467952444, 19.507596863199524], [82.10026650577541, 19.517220143947377], [82.12626269824915, 19.42923586282412], [82.18895939774467, 19.42786110843157], [82.16143401747834, 19.20240138805322], [82.20578046346299, 19.12129087889272], [82.2455393460699, 18.919201983187737], [82.17672589540409, 18.902704930477128], [82.1583756418932, 18.7886003158954], [82.09109137901996, 18.737734403371018], [81.89994290494826, 18.66074815738817], [81.76690356699436, 18.593385192153175], [81.67362311164737, 18.65249963103286], [81.77760788154238, 18.77347801757734], [81.7118528064617, 18.838091474027234], [81.62774747787016, 18.813345894961316], [81.5558756516192, 18.91232821122498], [81.46565357185736, 18.946697071038756], [81.52987945914545, 19.037430860947115], [81.49012057653854, 19.085547264686397], [81.50235407887912, 19.203776142445776], [81.40142768456927, 19.191403352912815], [81.34331854845146, 19.23127123029679], [81.37543149209552, 19.305507967494542], [81.53599621031574, 19.223022703941485], [81.6078680365667, 19.272513862073318], [81.6659771726845, 19.36599716076678], [81.79442894726068, 19.35224961684127], [81.79137057167554, 19.453981441890036], [81.8632423979265, 19.55158900376115], [82.02839467952444, 19.507596863199524]]]}}, {"type": "Feature", "properties": {"district": "Kondagaon", "dt_code": "722", "st_nm": "Chhattisgarh", "st_code": "22", "year": "update2014"}, "geometry": {"type": "Polygon", "coordinates": [[[81.37390230430294, 19.7797982329246], [81.40601524794698, 19.880155303580814], [81.32649748273316, 19.939269742460503], [81.29132616350397, 20.021755006013557], [81.38766499443611, 20.047875339472025], [81.45036169393163, 20.146857655735687], [81.5849302196781, 20.194974059474973], [81.67973986281767, 20.13036060302508], [81.81430838856414, 20.16747897162395], [81.87547590026709, 20.051999602649676], [81.87547590026709, 20.050624848257126], [81.84489214441561, 19.95164253199346], [81.8693591490968, 19.902151373861628], [81.96875635561408, 19.85953398769255], [81.98557742133238, 19.801794303205412], [82.06509518654622, 19.79079626806501], [82.05897843537592, 19.628575249744003], [82.02839467952444, 19.507596863199524], [81.8632423979265, 19.55158900376115], [81.79137057167554, 19.453981441890036], [81.79442894726068, 19.35224961684127], [81.6659771726845, 19.36599716076678], [81.6078680365667, 19.272513862073318], [81.53599621031574, 19.223022703941485], [81.37543149209552, 19.305507967494542], [81.34331854845146, 19.319255511420046], [81.47024113523509, 19.376995195907185], [81.47635788640537, 19.4718532489932], [81.42742387704303, 19.4801017753485], [81.48553301316082, 19.68768968862369], [81.37390230430294, 19.73030707479277], [81.37390230430294, 19.7797982329246]]]}}, {"type": "Feature", "properties": {"district": "Gariaband", "dt_code": "720", "st_nm": "Chhattisgarh", "st_code": "22", "year": "update2014"}, "geometry": {"type": "Polygon", "coordinates": [[[81.98863579691754, 21.08306539706285], [82.16143401747834, 21.015702431827854], [82.19813452450012, 20.938716185845006], [82.33881980141689, 20.874102729395112], [82.35258249155005, 20.700883675933703], [82.37704949623122, 20.632145956306154], [82.3327030502466, 20.56203348228606], [82.43821700793417, 20.434181323778827], [82.39998731311984, 20.340698025085366], [82.42139594221587, 20.204597340222826], [82.38622462298667, 20.145482901343136], [82.39845812532727, 20.05612386582733], [82.71805837397514, 19.988760900592336], [82.69664974487911, 19.830664145448985], [82.59419416277669, 19.775673969746947], [82.53149746328117, 19.878780549188264], [82.44586294689704, 19.910399900216934], [82.34493655258719, 19.836163163019187], [82.2684771629585, 19.975013356666828], [82.18437183436696, 19.98463663741468], [82.06968274992393, 20.05749862021988], [82.01769036497643, 20.049250093864575], [82.10026650577541, 20.10561502395916], [82.17978427098923, 20.256838007139763], [82.10791244473828, 20.291206866953534], [82.08497462784968, 20.41081049910546], [82.02074874056157, 20.527664622472287], [81.98098985795467, 20.724254500607067], [81.92288072183686, 20.751749588458082], [81.86630077351164, 20.96208701051837], [81.98863579691754, 21.08306539706285]]]}}, {"type": "Feature", "properties": {"district": "Raipur", "dt_code": "410", "st_nm": "Chhattisgarh", "st_code": "22", "year": "2011_c"}, "geometry": {"type": "Polygon", "coordinates": [[[82.1935469611224, 21.378637591461292], [82.14614213955261, 21.3112746262263], [82.02839467952444, 21.232913625850898], [81.98863579691754, 21.08306539706285], [81.86630077351164, 20.96208701051837], [81.81430838856414, 20.945589957807762], [81.74855331348347, 21.011578168650203], [81.61245559994443, 21.02257620379061], [81.58034265630037, 21.121558520054275], [81.62621829007759, 21.16142639743825], [81.54211296148604, 21.24666116977641], [81.55434646382663, 21.331895942114564], [81.63845179241818, 21.40338317052721], [81.64303935579589, 21.546357627352503], [81.6950317407434, 21.601347803054537], [81.75161168906862, 21.583475995951375], [81.90147209274083, 21.599973048661987], [81.93052666079973, 21.49274220604302], [82.1935469611224, 21.378637591461292]]]}}, {"type": "Feature", "properties": {"district": "Durg", "dt_code": "409", "st_nm": "Chhattisgarh", "st_code": "22", "year": "2011_c"}, "geometry": {"type": "Polygon", "coordinates": [[[81.55434646382663, 21.331895942114564], [81.54211296148604, 21.24666116977641], [81.62621829007759, 21.16142639743825], [81.58034265630037, 21.121558520054275], [81.61245559994443, 21.02257620379061], [81.58951778305583, 20.940090940237557], [81.47177032302766, 20.86997846621746], [81.416719562495, 20.849357150329197], [81.41977793808014, 21.00607915108], [81.15522844996491, 21.076191625100094], [81.20722083491242, 21.103686712951113], [81.19804570815698, 21.22191559071049], [81.14911169879463, 21.212292309962635], [81.19192895698669, 21.388260872209152], [81.20416245932728, 21.517487785108933], [81.35555205079206, 21.5436081185674], [81.44118656717617, 21.487243188472814], [81.49623732770883, 21.353892012395377], [81.55434646382663, 21.331895942114564]]]}}, {"type": "Feature", "properties": {"district": "Dhamtari", "dt_code": "412", "st_nm": "Chhattisgarh", "st_code": "22", "year": "2011_c"}, "geometry": {"type": "Polygon", "coordinates": [[[81.81430838856414, 20.16747897162395], [81.77454950595722, 20.232092428073845], [81.79442894726068, 20.326950481159855], [81.69197336515825, 20.48092297312556], [81.59716372201869, 20.519416096116984], [81.45647844510192, 20.51391707854678], [81.41060281132471, 20.553784955930755], [81.49776651550141, 20.61014988602534], [81.51611676901229, 20.713256465466657], [81.47788707419795, 20.776495167524], [81.47177032302766, 20.86997846621746], [81.58951778305583, 20.940090940237557], [81.61245559994443, 21.02257620379061], [81.74855331348347, 21.011578168650203], [81.81430838856414, 20.945589957807762], [81.86630077351164, 20.96208701051837], [81.92288072183686, 20.751749588458082], [81.98098985795467, 20.724254500607067], [82.02074874056157, 20.527664622472287], [82.08497462784968, 20.41081049910546], [82.10791244473828, 20.291206866953534], [82.17978427098923, 20.256838007139763], [82.10026650577541, 20.10561502395916], [82.01769036497643, 20.049250093864575], [81.94581853872548, 20.10561502395916], [81.87547590026709, 20.051999602649676], [81.81430838856414, 20.16747897162395]]]}}, {"type": "Feature", "properties": {"district": "Balod", "dt_code": "719", "st_nm": "Chhattisgarh", "st_code": "22", "year": "update2014"}, "geometry": {"type": "Polygon", "coordinates": [[[81.41060281132471, 20.553784955930755], [81.32496829494059, 20.56340823667861], [81.22251271283815, 20.41905902546077], [81.14911169879463, 20.37644163929169], [80.99160535615954, 20.458926902844745], [80.9533756613452, 20.541412166397798], [80.95796322472292, 20.630771201913603], [80.81727794780615, 20.688510886400742], [80.81880713559872, 20.75999811481339], [80.92126271770115, 20.781994185094206], [80.96560916368578, 20.908471589208887], [80.9533756613452, 21.0033296422949], [81.12005713073572, 21.00470439668745], [81.15522844996491, 21.076191625100094], [81.41977793808014, 21.00607915108], [81.416719562495, 20.849357150329197], [81.47177032302766, 20.86997846621746], [81.47788707419795, 20.776495167524], [81.51611676901229, 20.713256465466657], [81.49776651550141, 20.61014988602534], [81.41060281132471, 20.553784955930755]]]}}, {"type": "Feature", "properties": {"district": "Kabeerdham", "dt_code": "407", "st_nm": "Chhattisgarh", "st_code": "22", "year": "2011_c"}, "geometry": {"type": "Polygon", "coordinates": [[[81.4748286986128, 22.489439140642418], [81.51152920563456, 22.3808335436309], [81.5558756516192, 22.343715175032024], [81.51611676901229, 22.15399906886], [81.50082489108655, 22.00415084007195], [81.45494925730934, 21.913417050163595], [81.32038073156286, 21.830931786610538], [81.29438453908911, 21.769067838945748], [81.17204951568323, 21.704454382495854], [81.10170687722484, 21.734698979131977], [80.9992512951224, 21.72782520716922], [80.93043784445659, 21.824058014647782], [80.84633251586504, 21.835056049788193], [80.83256982573188, 21.896919997452983], [80.90750002756799, 22.110006928298368], [81.00383885850013, 22.05914101577399], [81.04512692889962, 22.240608595590707], [81.11852794294315, 22.291474508115087], [81.11088200398028, 22.435823719332934], [81.19345814477926, 22.490813895034968], [81.24850890531191, 22.4591945440063], [81.32802667052573, 22.525182754848743], [81.4748286986128, 22.489439140642418]]]}}, {"type": "Feature", "properties": {"district": "Janjgir Champa", "dt_code": "405", "st_nm": "Chhattisgarh", "st_code": "22", "year": "2011_c"}, "geometry": {"type": "Polygon", "coordinates": [[[82.93673222831316, 22.12237971783133], [83.01472080573443, 22.0756380684846], [83.0040164911864, 21.965657717080525], [83.09118019536311, 21.975280997828385], [83.18751902629523, 21.9271645940891], [83.1783438995398, 21.85017834810625], [83.26397841592392, 21.715452417636264], [82.94896573065375, 21.723700943991567], [82.8709771532325, 21.69345634735545], [82.78993020022611, 21.723700943991567], [82.66147842564992, 21.70995340006606], [82.44586294689704, 21.74432225987983], [82.38316624740152, 21.760819312590442], [82.30517766998027, 21.90791803259339], [82.33423223803916, 22.105882665120717], [82.42139594221587, 22.13750201614939], [82.45809644923763, 22.21448826213224], [82.59419416277669, 22.26260466587152], [82.66453680123507, 22.18836792867377], [82.66912436461278, 22.081137086054802], [82.86180202647706, 22.17187087596316], [82.93673222831316, 22.12237971783133]]]}}, {"type": "Feature", "properties": {"district": "Bametara", "dt_code": "718", "st_nm": "Chhattisgarh", "st_code": "22", "year": "update2014"}, "geometry": {"type": "Polygon", "coordinates": [[[81.6950317407434, 21.601347803054537], [81.64303935579589, 21.546357627352503], [81.63845179241818, 21.40338317052721], [81.55434646382663, 21.331895942114564], [81.49623732770883, 21.353892012395377], [81.44118656717617, 21.487243188472814], [81.35555205079206, 21.5436081185674], [81.20416245932728, 21.517487785108933], [81.17204951568323, 21.704454382495854], [81.29438453908911, 21.769067838945748], [81.32038073156286, 21.830931786610538], [81.45494925730934, 21.913417050163595], [81.50082489108655, 22.00415084007195], [81.7531408768612, 21.960158699510323], [81.93664341197002, 21.81443473389993], [81.84795052000077, 21.75944455819789], [81.69809011632854, 21.748446523057485], [81.72255712100973, 21.686582575392695], [81.6950317407434, 21.601347803054537]]]}}, {"type": "Feature", "properties": {"district": "Rajnandgaon", "dt_code": "408", "st_nm": "Chhattisgarh", "st_code": "22", "year": "2011_c"}, "geometry": {"type": "Polygon", "coordinates": [[[80.56190358644636, 20.823236816870732], [80.54661170852062, 20.93459192266735], [80.46403556772165, 20.92909290509715], [80.43956856304047, 21.096812940988357], [80.46403556772165, 21.17517394136376], [80.61389597139386, 21.226039853888146], [80.66130079296364, 21.333270696507114], [80.73776018259233, 21.473495644547306], [80.71482236570372, 21.661836996326777], [80.7561104361032, 21.762194066982993], [80.81727794780615, 21.762194066982993], [80.84633251586504, 21.835056049788193], [80.93043784445659, 21.824058014647782], [80.9992512951224, 21.72782520716922], [81.10170687722484, 21.734698979131977], [81.17204951568323, 21.704454382495854], [81.20416245932728, 21.517487785108933], [81.19192895698669, 21.388260872209152], [81.14911169879463, 21.212292309962635], [81.19804570815698, 21.22191559071049], [81.20722083491242, 21.103686712951113], [81.15522844996491, 21.076191625100094], [81.12005713073572, 21.00470439668745], [80.9533756613452, 21.0033296422949], [80.96560916368578, 20.908471589208887], [80.92126271770115, 20.781994185094206], [80.81880713559872, 20.75999811481339], [80.81727794780615, 20.688510886400742], [80.95796322472292, 20.630771201913603], [80.9533756613452, 20.541412166397798], [80.99160535615954, 20.458926902844745], [80.8600952059982, 20.387439674432095], [80.82951145014674, 20.309078674056693], [80.74999368493292, 20.291206866953534], [80.71482236570372, 20.190849796297318], [80.65365485400078, 20.22659341050364], [80.58484140333496, 20.17710225237181], [80.54508252072804, 20.10011600638896], [80.50532363812113, 20.144108146950586], [80.4319226240776, 20.135859620595284], [80.39522211705584, 20.244465217606802], [80.62612947373445, 20.33244949873006], [80.59095815450526, 20.3929386920023], [80.61695434697901, 20.585404306959425], [80.52061551604687, 20.579905289389224], [80.58025383995724, 20.67338858808268], [80.56190358644636, 20.823236816870732]]]}}, {"type": "Feature", "properties": {"district": "Baloda Bazar", "dt_code": "721", "st_nm": "Chhattisgarh", "st_code": "22", "year": "update2014"}, "geometry": {"type": "Polygon", "coordinates": [[[82.93367385272802, 21.49686646922067], [82.8770939044028, 21.55598090810036], [82.69053299370881, 21.484493679687713], [82.69664974487911, 21.330521187722013], [82.47185913937079, 21.327771678936912], [82.38928299857182, 21.261783468094468], [82.25165609724019, 21.318148398189052], [82.1935469611224, 21.378637591461292], [81.93052666079973, 21.49274220604302], [81.90147209274083, 21.599973048661987], [81.75161168906862, 21.583475995951375], [81.6950317407434, 21.601347803054537], [81.72255712100973, 21.686582575392695], [81.69809011632854, 21.748446523057485], [81.84795052000077, 21.75944455819789], [81.93664341197002, 21.81443473389993], [82.03756980627989, 21.88317245352747], [82.20119290008526, 21.760819312590442], [82.39234137415697, 21.712702908851163], [82.44586294689704, 21.74432225987983], [82.66147842564992, 21.70995340006606], [82.78993020022611, 21.723700943991567], [82.8709771532325, 21.69345634735545], [82.94896573065375, 21.723700943991567], [82.98566623767553, 21.64808945240127], [82.92296953818001, 21.547732381745053], [82.93367385272802, 21.49686646922067]]]}}, {"type": "Feature", "properties": {"district": "Mungeli", "dt_code": "717", "st_nm": "Chhattisgarh", "st_code": "22", "year": "update2014"}, "geometry": {"type": "Polygon", "coordinates": [[[81.50082489108655, 22.00415084007195], [81.51611676901229, 22.15399906886], [81.5558756516192, 22.343715175032024], [81.51152920563456, 22.3808335436309], [81.4748286986128, 22.489439140642418], [81.62163072669986, 22.5375555443817], [81.64915610696619, 22.614541790364548], [81.72867387218002, 22.669531966066586], [81.7470241256909, 22.591170965691184], [81.97640229457694, 22.360212227742636], [81.89688452936312, 22.305222052040598], [81.76384519140922, 22.290099753722536], [81.76537437920179, 22.241983349983258], [81.98863579691754, 21.994527559324098], [82.03756980627989, 21.88317245352747], [81.93664341197002, 21.81443473389993], [81.7531408768612, 21.960158699510323], [81.50082489108655, 22.00415084007195]]]}}, {"type": "Feature", "properties": {"district": "Bijapur", "dt_code": "417", "st_nm": "Chhattisgarh", "st_code": "22", "year": "2011_c"}, "geometry": {"type": "Polygon", "coordinates": [[[80.2759454692351, 18.71986259626786], [80.27441628144251, 18.765229491222037], [80.34934648327862, 18.84771475477509], [80.27135790585737, 18.942572807861104], [80.32946704197516, 19.070424966368336], [80.33252541756032, 19.144661703566086], [80.39369292926327, 19.187279089735163], [80.48238582123253, 19.33712731852321], [80.5771954643721, 19.397616511795448], [80.61236678360129, 19.309632230672193], [80.75152287272549, 19.28763616039138], [80.85244926703534, 19.364622406374227], [80.95184647355262, 19.311006985064743], [80.95490484913778, 19.236770247866993], [81.12923225749117, 19.256016809362706], [81.1445241354169, 19.18178007216496], [81.21027921049756, 19.18315482655751], [81.23627540297132, 18.96731838692702], [81.19804570815698, 18.748732438511425], [81.15981601334263, 18.690992754024286], [81.18275383023123, 18.54114452523624], [81.0344226143516, 18.534270753273486], [81.022189112011, 18.46553303364594], [80.91514596653086, 18.381673015700336], [81.0405393655219, 18.34180513831636], [81.07571068475109, 18.19195690952831], [80.97937185381895, 18.165836576069843], [80.8662119571685, 18.139716242611378], [80.85244926703534, 18.20570445345382], [80.7561104361032, 18.169960839247498], [80.74846449714033, 18.308811032895136], [80.70564723894827, 18.439412700187475], [80.63683378828246, 18.52327271813308], [80.4548604409662, 18.630503560752047], [80.37228430016722, 18.611256999256334], [80.2759454692351, 18.71986259626786]]]}}, {"type": "Feature", "properties": {"district": "Raigarh", "dt_code": "403", "st_nm": "Chhattisgarh", "st_code": "22", "year": "2011_c"}, "geometry": {"type": "Polygon", "coordinates": [[[83.26856597930164, 21.37726283706874], [83.05906725171906, 21.43637727594843], [82.93367385272802, 21.49686646922067], [82.92296953818001, 21.547732381745053], [82.98566623767553, 21.64808945240127], [82.94896573065375, 21.723700943991567], [83.26397841592392, 21.715452417636264], [83.1783438995398, 21.85017834810625], [83.18751902629523, 21.9271645940891], [83.09118019536311, 21.975280997828385], [83.0040164911864, 21.965657717080525], [83.01472080573443, 22.0756380684846], [82.93673222831316, 22.12237971783133], [83.03001268366016, 22.169121367178057], [83.03001268366016, 22.239233841198157], [83.08047588081509, 22.3107210696108], [83.11411801225171, 22.422076175407426], [83.08659263198538, 22.470192579146705], [83.11105963666657, 22.670906720459136], [83.15846445823634, 22.774013299900453], [83.21810278214672, 22.787760843825964], [83.35114212010062, 22.730021159338825], [83.40925125621841, 22.640662123823017], [83.40007612946297, 22.55405259709231], [83.57593272560894, 22.4591945440063], [83.64933373965246, 22.391831578771303], [83.73802663162174, 22.3780840348458], [83.80225251890982, 22.29422401690019], [83.62792511055643, 22.203490226991832], [83.5377030307946, 22.045393471848477], [83.53923221858717, 21.965657717080525], [83.59122460353467, 21.825432769040333], [83.46124364116592, 21.6975806105331], [83.48723983363966, 21.643965189223614], [83.38325506374466, 21.62059436455025], [83.33737942996746, 21.50099073239832], [83.3985469416704, 21.40475792491976], [83.39243019050011, 21.34289397725497], [83.27468273047194, 21.37726283706874], [83.27162435488678, 21.37726283706874], [83.26856597930164, 21.37726283706874]]]}}, {"type": "Feature", "properties": {"district": "Bilaspur", "dt_code": "406", "st_nm": "Chhattisgarh", "st_code": "22", "year": "2011_c"}, "geometry": {"type": "Polygon", "coordinates": [[[82.45809644923763, 22.21448826213224], [82.42139594221587, 22.13750201614939], [82.33423223803916, 22.105882665120717], [82.30517766998027, 21.90791803259339], [82.38316624740152, 21.760819312590442], [82.44586294689704, 21.74432225987983], [82.39234137415697, 21.712702908851163], [82.20119290008526, 21.760819312590442], [82.03756980627989, 21.88317245352747], [81.98863579691754, 21.994527559324098], [81.76537437920179, 22.241983349983258], [81.76384519140922, 22.290099753722536], [81.89688452936312, 22.305222052040598], [81.97640229457694, 22.360212227742636], [81.7470241256909, 22.591170965691184], [81.72867387218002, 22.669531966066586], [81.73173224776517, 22.67640573802934], [81.79442894726068, 22.76576477354515], [81.7760786937498, 22.87437037055667], [81.86171321013393, 22.88949266887473], [81.95040610210319, 22.98297596756819], [81.94276016314032, 23.079208775046755], [82.12320432266401, 23.10395435411267], [82.216484778011, 22.944482844576765], [82.13390863721203, 22.853749054668405], [82.17366751981893, 22.670906720459136], [82.23942259489961, 22.653034913355974], [82.15684645410063, 22.544429316344456], [82.13849620058974, 22.455070280828647], [82.18284264657439, 22.409703385874465], [82.20425127567042, 22.31209582400335], [82.35105330375748, 22.327218122321412], [82.45809644923763, 22.21448826213224]]]}}, {"type": "Feature", "properties": {"district": "Sukma", "dt_code": "723", "st_nm": "Chhattisgarh", "st_code": "22", "year": "update2014"}, "geometry": {"type": "Polygon", "coordinates": [[[81.89994290494826, 18.66074815738817], [81.91064721949628, 18.570014367479807], [81.7699619425795, 18.41879138429921], [81.75008250127605, 18.354177927849317], [81.65833123372164, 18.34730415588656], [81.52987945914545, 18.240073313267594], [81.52529189576774, 18.15346378653689], [81.48094544978309, 18.051731961488123], [81.48247463757566, 17.977495224290372], [81.3998984967767, 17.89363520634477], [81.39684012119154, 17.818023714754467], [81.26532997103021, 17.811149942791715], [81.16593276451293, 17.857891592138444], [81.08488581150652, 17.797402398866204], [81.01607236084072, 17.794652890081103], [80.97019672706351, 18.04760769831047], [80.97937185381895, 18.165836576069843], [81.07571068475109, 18.19195690952831], [81.0405393655219, 18.34180513831636], [80.91514596653086, 18.381673015700336], [81.022189112011, 18.46553303364594], [81.0344226143516, 18.534270753273486], [81.18275383023123, 18.54114452523624], [81.25921321985992, 18.47928057757145], [81.36931474092522, 18.43253892822472], [81.48859138874596, 18.623629788789295], [81.54364214927861, 18.607132736078682], [81.56963834175237, 18.740483912156122], [81.62774747787016, 18.734984894585917], [81.67362311164737, 18.65249963103286], [81.76690356699436, 18.593385192153175], [81.89994290494826, 18.66074815738817]]]}}, {"type": "Feature", "properties": {"district": "Koriya", "dt_code": "400", "st_nm": "Chhattisgarh", "st_code": "22", "year": "2011_c"}, "geometry": {"type": "Polygon", "coordinates": [[[82.216484778011, 22.944482844576765], [82.12320432266401, 23.10395435411267], [82.19966371229269, 23.314291776172958], [82.10332488136055, 23.39815179411856], [81.98557742133238, 23.414648846829174], [81.91676397066658, 23.534252478981102], [81.82042513973444, 23.51500591748539], [81.75772844023892, 23.54937477729916], [81.61092641215185, 23.512256408700285], [81.613984787737, 23.663479391880884], [81.69656092853597, 23.721219076368023], [81.61092641215185, 23.8366984453423], [81.60328047318899, 23.88481484908158], [81.66750636047708, 23.924682726465555], [81.72561549659487, 23.8394479541274], [81.80972082518642, 23.80782860309873], [81.92135153404429, 23.87106730515607], [82.00698605042841, 23.861444024408215], [82.08191625226452, 23.816077129454037], [82.20883883904813, 23.85319549805291], [82.26083122399564, 23.82157614702424], [82.49785533184455, 23.784457778425363], [82.60184010173955, 23.675852181413845], [82.5819606604361, 23.54525051412151], [82.64159898434646, 23.501258373559878], [82.65077411110191, 23.384404250193054], [82.74864212982662, 23.354159653556934], [82.7440545664489, 23.268924881218776], [82.57737309705837, 23.127325178786034], [82.60642766511727, 23.024218599344717], [82.57278553368064, 22.960979897287377], [82.45503807365247, 22.96647891485758], [82.38469543519409, 22.999473020278803], [82.25930203620305, 22.937609072614013], [82.216484778011, 22.944482844576765]]]}}, {"type": "Feature", "properties": {"district": "Jashpur", "dt_code": "402", "st_nm": "Chhattisgarh", "st_code": "22", "year": "2011_c"}, "geometry": {"type": "Polygon", "coordinates": [[[84.01175124649241, 22.527932263633843], [84.0469225657216, 22.468817824754154], [84.01022205869984, 22.37121026288304], [83.86342003061277, 22.343715175032024], [83.80225251890982, 22.29422401690019], [83.73802663162174, 22.3780840348458], [83.64933373965246, 22.391831578771303], [83.57593272560894, 22.4591945440063], [83.40007612946297, 22.55405259709231], [83.40925125621841, 22.640662123823017], [83.62945429834902, 22.712149352235663], [83.64627536406732, 22.82625396681739], [83.5958121669124, 22.849624791490754], [83.50406089935798, 22.95135661653952], [83.54840734534261, 23.031092371307473], [83.49947333598026, 23.065461231121244], [83.5545240965129, 23.169942564955115], [83.62486673497129, 23.219433723086944], [83.79154820436182, 23.251053074115617], [83.92611673010829, 23.16856781056256], [84.03774743896616, 23.171317319347665], [84.06374363143992, 23.113577634860526], [84.17843271588293, 22.98022645878309], [84.37416875333236, 22.97885170439054], [84.39710657022096, 22.927985791866156], [84.32370555617743, 22.850999545883305], [84.29312180032596, 22.772638545507903], [84.23807103979331, 22.6915280363474], [84.1524365234092, 22.636537860645365], [84.08362307274338, 22.637912615037916], [84.01022205869984, 22.57329915858802], [84.01175124649241, 22.527932263633843]]]}}, {"type": "Feature", "properties": {"district": "Korba", "dt_code": "404", "st_nm": "Chhattisgarh", "st_code": "22", "year": "2011_c"}, "geometry": {"type": "Polygon", "coordinates": [[[82.93673222831316, 22.12237971783133], [82.86180202647706, 22.17187087596316], [82.66912436461278, 22.081137086054802], [82.66453680123507, 22.18836792867377], [82.59419416277669, 22.26260466587152], [82.45809644923763, 22.21448826213224], [82.35105330375748, 22.327218122321412], [82.20425127567042, 22.31209582400335], [82.18284264657439, 22.409703385874465], [82.13849620058974, 22.455070280828647], [82.15684645410063, 22.544429316344456], [82.23942259489961, 22.653034913355974], [82.17366751981893, 22.670906720459136], [82.13390863721203, 22.853749054668405], [82.216484778011, 22.944482844576765], [82.25930203620305, 22.937609072614013], [82.38469543519409, 22.999473020278803], [82.45503807365247, 22.96647891485758], [82.57278553368064, 22.960979897287377], [82.55902284354748, 22.85649856345351], [82.65077411110191, 22.809756914106778], [82.75781725658206, 22.79738412457382], [82.87403552881764, 22.746518212049438], [83.01319161794186, 22.639287369430466], [83.11105963666657, 22.670906720459136], [83.08659263198538, 22.470192579146705], [83.11411801225171, 22.422076175407426], [83.08047588081509, 22.3107210696108], [83.03001268366016, 22.239233841198157], [83.03001268366016, 22.169121367178057], [82.93673222831316, 22.12237971783133]]]}}, {"type": "Feature", "properties": {"district": "Surajpur", "dt_code": "715", "st_nm": "Chhattisgarh", "st_code": "22", "year": "update2014"}, "geometry": {"type": "Polygon", "coordinates": [[[82.49785533184455, 23.784457778425363], [82.63548223317616, 23.83807319973485], [82.69359136929397, 23.919183708895353], [82.77157994671522, 23.876566322726273], [82.78228426126323, 23.817451883846587], [82.90920684804684, 23.773459743284956], [83.06518400288935, 23.769335480107305], [83.19822334084326, 23.6854754621617], [83.19975252863583, 23.594741672253342], [83.27927029384966, 23.57686986515018], [83.34808374451546, 23.469639022531208], [83.2073984675987, 23.377530478230298], [83.20892765539128, 23.245554056545412], [83.24562816241304, 23.231806512619904], [83.10035532211855, 23.128699933178588], [82.83121827062558, 23.01597007298941], [82.85262689972163, 22.987100230745845], [82.75628806878949, 22.84412577392055], [82.75781725658206, 22.79738412457382], [82.65077411110191, 22.809756914106778], [82.55902284354748, 22.85649856345351], [82.57278553368064, 22.960979897287377], [82.60642766511727, 23.024218599344717], [82.57737309705837, 23.127325178786034], [82.7440545664489, 23.268924881218776], [82.74864212982662, 23.354159653556934], [82.65077411110191, 23.384404250193054], [82.64159898434646, 23.501258373559878], [82.5819606604361, 23.54525051412151], [82.60184010173955, 23.675852181413845], [82.49785533184455, 23.784457778425363]]]}}, {"type": "Feature", "properties": {"district": "Surguja", "dt_code": "401", "st_nm": "Chhattisgarh", "st_code": "22", "year": "2011_c"}, "geometry": {"type": "Polygon", "coordinates": [[[83.40925125621841, 22.640662123823017], [83.35114212010062, 22.730021159338825], [83.21810278214672, 22.787760843825964], [83.15846445823634, 22.774013299900453], [83.11105963666657, 22.670906720459136], [83.01319161794186, 22.639287369430466], [82.87403552881764, 22.746518212049438], [82.75781725658206, 22.79738412457382], [82.75628806878949, 22.84412577392055], [82.85262689972163, 22.987100230745845], [82.83121827062558, 23.01597007298941], [83.10035532211855, 23.128699933178588], [83.24562816241304, 23.231806512619904], [83.35420049568576, 23.172692073740215], [83.39243019050011, 23.27029963561133], [83.47653551909166, 23.25792684607837], [83.5545240965129, 23.169942564955115], [83.49947333598026, 23.065461231121244], [83.54840734534261, 23.031092371307473], [83.50406089935798, 22.95135661653952], [83.5958121669124, 22.849624791490754], [83.64627536406732, 22.82625396681739], [83.62945429834902, 22.712149352235663], [83.40925125621841, 22.640662123823017]]]}}, {"type": "Feature", "properties": {"district": "Balrampur", "dt_code": "716", "st_nm": "Chhattisgarh", "st_code": "22", "year": "2011_c"}, "geometry": {"type": "Polygon", "coordinates": [[[82.81286801711471, 23.96180109506443], [82.94743654286118, 23.87106730515607], [83.09118019536311, 23.87106730515607], [83.2073984675987, 23.921933217680454], [83.32973349100459, 24.102026043104622], [83.43218907310701, 24.08552899039401], [83.51476521390599, 23.981047656560143], [83.57134516223121, 23.862818778800765], [83.7059136879777, 23.820201392631688], [83.7747271386435, 23.6098639705714], [83.93835023244888, 23.568621338794873], [84.01633880987013, 23.634609549637318], [84.01480962207756, 23.504007882344983], [83.96281723713005, 23.385779004585604], [84.07444794598793, 23.33353833766867], [84.03774743896616, 23.171317319347665], [83.92611673010829, 23.16856781056256], [83.79154820436182, 23.251053074115617], [83.62486673497129, 23.219433723086944], [83.5545240965129, 23.169942564955115], [83.47653551909166, 23.25792684607837], [83.39243019050011, 23.27029963561133], [83.35420049568576, 23.172692073740215], [83.24562816241304, 23.231806512619904], [83.20892765539128, 23.245554056545412], [83.2073984675987, 23.377530478230298], [83.34808374451546, 23.469639022531208], [83.27927029384966, 23.57686986515018], [83.19975252863583, 23.594741672253342], [83.19822334084326, 23.6854754621617], [83.06518400288935, 23.769335480107305], [82.90920684804684, 23.773459743284956], [82.78228426126323, 23.817451883846587], [82.77157994671522, 23.876566322726273], [82.69359136929397, 23.919183708895353], [82.81286801711471, 23.96180109506443]]]}}], "metadata": {"source": "udit-001/india-maps-data (Census 2011)", "url": "https://github.com/udit-001/india-maps-data", "license": "ODbL (Open Database License)", "feature_count": 28}}