{"type": "FeatureCollection", "features": [{"type": "Feature", "properties": {"district": "Chandigarh", "dt_code": "055", "st_nm": "Chandigarh", "st_code": "04", "year": "2011_c"}, "geometry": {"type": "Polygon", "coordinates": [[[76.8276269969816, 30.68160056585322], [76.73893410501233, 30.692598600993627], [76.70987953695344, 30.761336320621172], [76.83833131152963, 30.754462548658417], [76.8276269969816, 30.68160056585322]]]}}, {"type": "Feature", "id": "Chandigarh", "properties": {"district": "Chandigarh", "dt_code": "055", "st_nm": "Chandigarh", "st_code": "04", "year": "2011_c"}, "geometry": {"type": "Polygon", "coordinates": [[[76.8276269969816, 30.68160056585322], [76.73893410501233, 30.692598600993627], [76.70987953695344, 30.761336320621172], [76.83833131152963, 30.754462548658417], [76.8276269969816, 30.68160056585322]]]}}], "metadata": {"source": "udit-001/india-maps-data (Census 2011)", "url": "https://github.com/udit-001/india-maps-data", "license": "ODbL (Open Database License)", "feature_count": 2}}