{"type": "FeatureCollection", "features": [{"type": "Feature", "properties": {"district": "Central Delhi", "centroid_lat": 28.6328, "centroid_lon": 77.2197}, "geometry": {"type": "Polygon", "coordinates": [[[77.2197, 28.6745], [77.2598, 28.6588], [77.2765, 28.6328], [77.2698, 28.6036], [77.2197, 28.5881], [77.1756, 28.602], [77.164, 28.6328], [77.1767, 28.67], [77.2197, 28.6745]]]}}, {"type": "Feature", "properties": {"district": "East Delhi", "centroid_lat": 28.6289, "centroid_lon": 77.2859}, "geometry": {"type": "Polygon", "coordinates": [[[77.2859, 28.6767], [77.3431, 28.6585], [77.3548, 28.6289], [77.3396, 28.5851], [77.2859, 28.5714], [77.239, 28.5949], [77.2221, 28.6289], [77.232, 28.6734], [77.2859, 28.6767]]]}}, {"type": "Feature", "properties": {"district": "New Delhi", "centroid_lat": 28.6142, "centroid_lon": 77.2291}, "geometry": {"type": "Polygon", "coordinates": [[[77.2291, 28.6697], [77.3025, 28.6563], [77.301, 28.6142], [77.2783, 28.5658], [77.2291, 28.5494], [77.1567, 28.5645], [77.1647, 28.6142], [77.1706, 28.6447], [77.2291, 28.6697]]]}}, {"type": "Feature", "properties": {"district": "North Delhi", "centroid_lat": 28.6967, "centroid_lon": 77.2029}, "geometry": {"type": "Polygon", "coordinates": [[[77.2029, 28.7554], [77.2449, 28.7311], [77.2594, 28.6967], [77.2565, 28.664], [77.2029, 28.6537], [77.1575, 28.6689], [77.1315, 28.6967], [77.1538, 28.7372], [77.2029, 28.7554]]]}}, {"type": "Feature", "properties": {"district": "North East Delhi", "centroid_lat": 28.6135, "centroid_lon": 77.2436}, "geometry": {"type": "Polygon", "coordinates": [[[77.2436, 28.669], [77.3062, 28.6427], [77.3278, 28.6135], [77.2942, 28.5758], [77.2436, 28.5731], [77.1992, 28.5836], [77.1796, 28.6135], [77.1835, 28.6504], [77.2436, 28.669]]]}}, {"type": "Feature", "properties": {"district": "North West Delhi", "centroid_lat": 28.7293, "centroid_lon": 77.0724}, "geometry": {"type": "Polygon", "coordinates": [[[77.0724, 28.8005], [77.1478, 28.7647], [77.1446, 28.7293], [77.1401, 28.6901], [77.0724, 28.6813], [76.997, 28.6877], [76.9845, 28.7293], [77.0207, 28.7703], [77.0724, 28.8005]]]}}, {"type": "Feature", "properties": {"district": "Shahdara", "centroid_lat": 28.6739, "centroid_lon": 77.2871}, "geometry": {"type": "Polygon", "coordinates": [[[77.2871, 28.726], [77.3307, 28.7083], [77.3459, 28.6739], [77.3365, 28.6405], [77.2871, 28.6342], [77.2477, 28.6395], [77.2165, 28.6739], [77.2459, 28.701], [77.2871, 28.726]]]}}, {"type": "Feature", "properties": {"district": "South Delhi", "centroid_lat": 28.5449, "centroid_lon": 77.2226}, "geometry": {"type": "Polygon", "coordinates": [[[77.2226, 28.6147], [77.3025, 28.5874], [77.3144, 28.5449], [77.2996, 28.4922], [77.2226, 28.474], [77.1656, 28.4917], [77.1351, 28.5449], [77.1542, 28.5922], [77.2226, 28.6147]]]}}, {"type": "Feature", "properties": {"district": "South East Delhi", "centroid_lat": 28.5826, "centroid_lon": 77.2513}, "geometry": {"type": "Polygon", "coordinates": [[[77.2513, 28.6216], [77.3083, 28.6152], [77.3142, 28.5826], [77.3061, 28.5535], [77.2513, 28.5422], [77.1948, 28.5486], [77.1811, 28.5826], [77.2022, 28.6085], [77.2513, 28.6216]]]}}, {"type": "Feature", "properties": {"district": "South West Delhi", "centroid_lat": 28.5664, "centroid_lon": 77.0686}, "geometry": {"type": "Polygon", "coordinates": [[[77.0686, 28.6274], [77.1199, 28.6137], [77.1459, 28.5664], [77.1163, 28.5284], [77.0686, 28.5089], [77.0043, 28.5302], [76.9988, 28.5664], [77.011, 28.6121], [77.0686, 28.6274]]]}}, {"type": "Feature", "properties": {"district": "West Delhi", "centroid_lat": 28.6475, "centroid_lon": 77.0821}, "geometry": {"type": "Polygon", "coordinates": [[[77.0821, 28.6957], [77.1404, 28.6923], [77.1709, 28.6475], [77.1492, 28.6049], [77.0821, 28.5833], [77.0345, 28.6171], [76.9949, 28.6475], [77.0253, 28.6967], [77.0821, 28.6957]]]}}]}