{"type": "FeatureCollection", "features": [{"type": "Feature", "properties": {"district": "Dadra and Nagar Haveli", "dt_code": "496", "st_nm": "Dadra and Nagar Haveli and Daman and Diu", "st_code": "26", "year": "2011_c"}, "geometry": {"type": "Polygon", "coordinates": [[[72.96184025735553, 20.208721603400477], [72.93278568929664, 20.295331130131185], [73.04288721036193, 20.325575726767305], [73.16675142156039, 20.28845735816843], [73.13463847791635, 20.199098322652624], [73.21109786754502, 20.120737322277222], [73.1376968535015, 20.086368462463447], [72.96489863294067, 20.127611094239974], [72.96184025735553, 20.208721603400477]]]}}, {"type": "Feature", "properties": {"district": "Daman", "dt_code": "495", "st_nm": "Dadra and Nagar Haveli and Daman and Diu", "st_code": "26", "year": "2011_c"}, "geometry": {"type": "Polygon", "coordinates": [[[72.88691005551942, 20.461676411629846], [72.82880091940163, 20.368193112936382], [72.8364468583645, 20.45342788527454], [72.88691005551942, 20.461676411629846]]]}}, {"type": "Feature", "properties": {"district": "Diu", "dt_code": "494", "st_nm": "Dadra and Nagar Haveli and Daman and Diu", "st_code": "26", "year": "2011_c"}, "geometry": {"type": "Polygon", "coordinates": [[[70.92037455426977, 20.74212630771023], [70.99989231948359, 20.74212630771023], [70.97695450259499, 20.702258430326253], [70.92037455426977, 20.74212630771023]]]}}], "metadata": {"source": "udit-001/india-maps-data (Census 2011)", "url": "https://github.com/udit-001/india-maps-data", "license": "ODbL (Open Database License)", "feature_count": 4}}