{"type": "FeatureCollection", "features": [{"type": "Feature", "properties": {"district": "North Goa", "dt_code": "585", "st_nm": "Goa", "st_code": "30", "year": "2011_c"}, "geometry": {"type": "Polygon", "coordinates": [[[74.11790622854117, 15.651410792094254], [74.23718287636191, 15.667907844804864], [74.2784709467614, 15.522183879194468], [74.25094556649508, 15.491939282558349], [74.17907374024412, 15.436949106856312], [74.05520952904565, 15.408079264612745], [74.03074252436448, 15.47819173863284], [73.96192907369867, 15.540055686297631], [73.93440369343234, 15.432824843678661], [73.76619303624925, 15.494688791343451], [73.68514608324284, 15.728397038077103], [73.87476536952197, 15.750393108357917], [73.93899125681007, 15.742144582002613], [73.99098364175757, 15.611542914710277], [74.11790622854117, 15.651410792094254]]]}}, {"type": "Feature", "properties": {"district": "South Goa", "dt_code": "586", "st_nm": "Goa", "st_code": "30", "year": "2011_c"}, "geometry": {"type": "Polygon", "coordinates": [[[73.93440369343234, 15.432824843678661], [73.96192907369867, 15.540055686297631], [74.03074252436448, 15.47819173863284], [74.05520952904565, 15.408079264612745], [74.17907374024412, 15.436949106856312], [74.25094556649508, 15.491939282558349], [74.27541257117626, 15.391582211902133], [74.32281739274605, 15.368211387228769], [74.32587576833119, 15.282976614890613], [74.26012069325053, 15.241733983114086], [74.31670064157575, 15.18674380741205], [74.2723541955911, 15.097384771896241], [74.29682120027229, 15.041019841801655], [74.20201155713272, 14.925540472827379], [74.08579328489714, 14.900794893761462], [73.98180851500213, 15.054767385727164], [73.88394049627742, 15.35446384330326], [73.93440369343234, 15.432824843678661]]]}}], "metadata": {"source": "udit-001/india-maps-data (Census 2011)", "url": "https://github.com/udit-001/india-maps-data", "license": "ODbL (Open Database License)", "feature_count": 3}}