{"type": "FeatureCollection", "features": [{"type": "Feature", "properties": {"district": "Lahaul and Spiti", "dt_code": "025", "st_nm": "Himachal Pradesh", "st_code": "02", "year": "2011_c"}, "geometry": {"type": "Polygon", "coordinates": [[[77.2741498324131, 32.8743338219719], [77.33837571970119, 32.81659413748476], [77.40565998257443, 32.882582348327205], [77.46835668206995, 32.85783676926129], [77.60292520781643, 32.943071541599444], [77.74055210914806, 32.969191875057916], [77.81089474760644, 32.907327927393126], [77.9347589588049, 32.7258603475764], [77.91793789308659, 32.690116733370076], [78.0158059118113, 32.62000425934998], [78.09838205261028, 32.631002294490386], [78.1427284985949, 32.68186820701477], [78.21918788822359, 32.66399639991161], [78.38739854540668, 32.757479698605074], [78.40574879891757, 32.62000425934998], [78.31246834357059, 32.573262610003255], [78.3981028599547, 32.52514620626397], [78.45468280827993, 32.452284223458776], [78.53420057349375, 32.41379110046735], [78.48067900075368, 32.3478028896249], [78.48220818854625, 32.27906516999737], [78.60913077532986, 32.21445171354747], [78.59078052181897, 32.15396252027523], [78.67335666261795, 32.078351028684935], [78.50820438102001, 32.04810643204881], [78.44856605710963, 32.06047922158177], [78.41951148905073, 31.93537657185964], [78.20083763471271, 31.932627063074534], [78.02803941415189, 31.75940800961312], [77.86288713255394, 31.781404079893935], [77.76654830162181, 31.94362509821494], [77.79866124526585, 31.987617238776572], [77.7436104847332, 32.09072381821789], [77.46835668206995, 32.22407499429532], [77.42095186050017, 32.189706134481554], [77.34449247087149, 32.24744581896869], [77.31849627839773, 32.323057310558994], [77.15181480900722, 32.4151658548599], [77.07382623158595, 32.39866880214929], [76.98054577623897, 32.40416781971949], [76.86585669179595, 32.46328225859918], [76.86738587958853, 32.53339473261928], [76.71446710033116, 32.53889375018948], [76.59519045251042, 32.636501312060595], [76.46673867793425, 32.65162361037865], [76.40251279064614, 32.7286098563615], [76.37957497375754, 32.819343646269864], [76.49120568261542, 32.8014718391667], [76.61048233043616, 32.85233775169108], [76.67929578110197, 32.84683873412088], [76.71599628812373, 32.91832596253353], [76.78633892658212, 32.9526948223473], [76.74046329280492, 33.1039178055279], [76.74810923176778, 33.1795292971182], [76.77257623644896, 33.251016525530844], [76.8169226824336, 33.16028273562249], [76.8857361330994, 33.12178961263106], [76.93314095466918, 33.028306313937605], [77.00960034429787, 32.98843843655362], [77.15028562121464, 32.97744040141322], [77.2741498324131, 32.8743338219719]]]}}, {"type": "Feature", "properties": {"district": "Chamba", "dt_code": "023", "st_nm": "Himachal Pradesh", "st_code": "02", "year": "2011_c"}, "geometry": {"type": "Polygon", "coordinates": [[[76.22206863112245, 33.021432541974846], [76.29241126958084, 33.1039178055279], [76.41015872960901, 33.18640306908095], [76.56919426003667, 33.20977389375432], [76.64565364966535, 33.16165749001504], [76.74810923176778, 33.1795292971182], [76.74046329280492, 33.1039178055279], [76.78633892658212, 32.9526948223473], [76.71599628812373, 32.91832596253353], [76.67929578110197, 32.84683873412088], [76.61048233043616, 32.85233775169108], [76.49120568261542, 32.8014718391667], [76.37957497375754, 32.819343646269864], [76.40251279064614, 32.7286098563615], [76.46673867793425, 32.65162361037865], [76.59519045251042, 32.636501312060595], [76.71446710033116, 32.53889375018948], [76.86738587958853, 32.53339473261928], [76.86585669179595, 32.46328225859918], [76.75116760735293, 32.35742617037276], [76.76340110969352, 32.20895269597727], [76.66553309096881, 32.17595859055604], [76.58601532575497, 32.22270023990278], [76.4285089831199, 32.261193362894204], [76.35510796907636, 32.325806819344095], [76.22206863112245, 32.39454453897164], [76.16243030721209, 32.29968648588563], [76.03092015705076, 32.26944188924951], [76.02327421808789, 32.3340553456994], [75.93152295053348, 32.39454453897164], [75.83671330739391, 32.511398662338465], [75.91776026040031, 32.633751803275494], [75.92387701157061, 32.74785641785722], [75.80154198816471, 32.885331857112305], [75.85047599752707, 32.92932399767393], [75.95446076742208, 32.872959067579345], [76.08750010537598, 32.956819085524955], [76.11196711005717, 33.006310243656785], [76.22206863112245, 33.021432541974846]]]}}, {"type": "Feature", "properties": {"district": "Kangra", "dt_code": "024", "st_nm": "Himachal Pradesh", "st_code": "02", "year": "2011_c"}, "geometry": {"type": "Polygon", "coordinates": [[[76.86585669179595, 32.46328225859918], [76.98054577623897, 32.40416781971949], [77.07382623158595, 32.39866880214929], [77.06923866820824, 32.3340553456994], [76.93619933025434, 32.061853975974316], [76.77104704865638, 32.06322873036687], [76.66247471538367, 32.01373757223504], [76.69611684682027, 31.934001817467088], [76.63953689849505, 31.872137869802295], [76.55696075769607, 31.885885413727806], [76.4346257342902, 31.793776869426896], [76.30005720854372, 31.780029325501385], [76.3122907108843, 31.72228964101425], [76.1104379222646, 31.795151623819446], [76.04315365939135, 31.861139834661888], [75.96057751859237, 31.857015571484236], [75.91011432143745, 31.950498870177697], [75.65473996007765, 32.07697627429238], [75.59816001175243, 32.08247529186258], [75.60121838733758, 32.09347332700299], [75.66085671124794, 32.137465467564624], [75.63791889435934, 32.251570082146344], [75.77095823231325, 32.28868845074522], [75.87341381441567, 32.39591929336419], [75.93152295053348, 32.39454453897164], [76.02327421808789, 32.3340553456994], [76.03092015705076, 32.26944188924951], [76.16243030721209, 32.29968648588563], [76.22206863112245, 32.39454453897164], [76.35510796907636, 32.325806819344095], [76.4285089831199, 32.261193362894204], [76.58601532575497, 32.22270023990278], [76.66553309096881, 32.17595859055604], [76.76340110969352, 32.20895269597727], [76.75116760735293, 32.35742617037276], [76.86585669179595, 32.46328225859918]]]}}, {"type": "Feature", "properties": {"district": "Kullu", "dt_code": "026", "st_nm": "Himachal Pradesh", "st_code": "02", "year": "2011_c"}, "geometry": {"type": "Polygon", "coordinates": [[[77.07382623158595, 32.39866880214929], [77.15181480900722, 32.4151658548599], [77.31849627839773, 32.323057310558994], [77.34449247087149, 32.24744581896869], [77.42095186050017, 32.189706134481554], [77.46835668206995, 32.22407499429532], [77.7436104847332, 32.09072381821789], [77.79866124526585, 31.987617238776572], [77.76654830162181, 31.94362509821494], [77.86288713255394, 31.781404079893935], [77.74819804811092, 31.714041114658944], [77.64574246600849, 31.66317520213456], [77.64880084159364, 31.583439447366608], [77.70690997771143, 31.502328938206105], [77.62739221249761, 31.451463025681722], [77.62892140029018, 31.389599078016932], [77.51729069143231, 31.348356446240405], [77.38272216568583, 31.360729235773363], [77.29861683709427, 31.551820096337938], [77.303204400472, 31.668674219704762], [77.21298232071015, 31.72503914979935], [77.17781100148096, 31.841893273166175], [77.05853435366022, 31.859765080269337], [76.93619933025434, 32.061853975974316], [77.06923866820824, 32.3340553456994], [77.07382623158595, 32.39866880214929]]]}}, {"type": "Feature", "properties": {"district": "Mandi", "dt_code": "027", "st_nm": "Himachal Pradesh", "st_code": "02", "year": "2011_c"}, "geometry": {"type": "Polygon", "coordinates": [[[76.63953689849505, 31.872137869802295], [76.69611684682027, 31.934001817467088], [76.66247471538367, 32.01373757223504], [76.77104704865638, 32.06322873036687], [76.93619933025434, 32.061853975974316], [77.05853435366022, 31.859765080269337], [77.17781100148096, 31.841893273166175], [77.21298232071015, 31.72503914979935], [77.303204400472, 31.668674219704762], [77.29861683709427, 31.551820096337938], [77.38272216568583, 31.360729235773363], [77.30473358826457, 31.268620691472453], [77.15487318459236, 31.230127568481027], [77.0310089733939, 31.272744954650104], [76.87656100634396, 31.351105955025506], [76.80163080450785, 31.421218429045602], [76.73128816604947, 31.582064692974058], [76.7236422270866, 31.66454995652711], [76.63800771070248, 31.747035220080164], [76.63953689849505, 31.872137869802295]]]}}, {"type": "Feature", "properties": {"district": "Kinnaur", "dt_code": "034", "st_nm": "Himachal Pradesh", "st_code": "02", "year": "2011_c"}, "geometry": {"type": "Polygon", "coordinates": [[[77.86288713255394, 31.781404079893935], [78.02803941415189, 31.75940800961312], [78.20083763471271, 31.932627063074534], [78.41951148905073, 31.93537657185964], [78.44856605710963, 32.06047922158177], [78.50820438102001, 32.04810643204881], [78.67335666261795, 32.078351028684935], [78.78192899589068, 31.993116256346774], [78.705469606262, 31.774530307931183], [78.76357874237979, 31.674173237274967], [78.84615488317877, 31.608185026432523], [78.7345241743209, 31.536697798019876], [78.79722087381641, 31.443214499326416], [78.74981605224663, 31.366228253343564], [78.79110412264612, 31.304364305678774], [78.88132620240796, 31.28374298979051], [78.98531097230297, 31.17376263838644], [79.00824878919157, 31.1105239363291], [78.88591376578569, 31.09815114679614], [78.809454376157, 31.198508217452357], [78.67182747482538, 31.197133463059807], [78.60913077532986, 31.228752814088477], [78.48373737633882, 31.198508217452357], [78.37057747968838, 31.286492498575612], [78.310939155778, 31.28374298979051], [78.29105971447456, 31.326360375959588], [78.16260793989836, 31.34423218306275], [78.10144042819542, 31.419843674653052], [77.96534271465637, 31.40197186754989], [77.83994931566534, 31.506453201383756], [77.81242393539901, 31.66317520213456], [77.74819804811092, 31.714041114658944], [77.86288713255394, 31.781404079893935]]]}}, {"type": "Feature", "properties": {"district": "Una", "dt_code": "029", "st_nm": "Himachal Pradesh", "st_code": "02", "year": "2011_c"}, "geometry": {"type": "Polygon", "coordinates": [[[75.96057751859237, 31.857015571484236], [76.04315365939135, 31.861139834661888], [76.1104379222646, 31.795151623819446], [76.3122907108843, 31.72228964101425], [76.40098360285357, 31.608185026432523], [76.46215111455652, 31.487206639888043], [76.39180847609813, 31.412969902690296], [76.2893528939957, 31.307113814463875], [76.20066000202642, 31.302989551286224], [76.1211422368126, 31.49820467502845], [76.0171574669176, 31.63155585110589], [75.96057751859237, 31.781404079893935], [75.96057751859237, 31.857015571484236]]]}}, {"type": "Feature", "properties": {"district": "Shimla", "dt_code": "033", "st_nm": "Himachal Pradesh", "st_code": "02", "year": "2011_c"}, "geometry": {"type": "Polygon", "coordinates": [[[77.38272216568583, 31.360729235773363], [77.51729069143231, 31.348356446240405], [77.62892140029018, 31.389599078016932], [77.62739221249761, 31.451463025681722], [77.70690997771143, 31.502328938206105], [77.64880084159364, 31.583439447366608], [77.64574246600849, 31.66317520213456], [77.74819804811092, 31.714041114658944], [77.81242393539901, 31.66317520213456], [77.83994931566534, 31.506453201383756], [77.96534271465637, 31.40197186754989], [78.10144042819542, 31.419843674653052], [78.16260793989836, 31.34423218306275], [78.29105971447456, 31.326360375959588], [78.310939155778, 31.28374298979051], [78.24671326848991, 31.230127568481027], [78.102969615988, 31.1861354279194], [77.96687190244894, 31.17376263838644], [77.86441632034652, 31.109149181936548], [77.82924500111733, 31.029413427168596], [77.80630718422871, 30.853444864922082], [77.70385160212629, 30.764085829406273], [77.65950515614165, 30.80670321557535], [77.5463452594912, 30.77370911015413], [77.49282368675112, 30.795705180434943], [77.37966379010068, 31.02116490081329], [77.24662445214678, 30.919433075764523], [77.04783003911221, 31.11464819950675], [77.0310089733939, 31.272744954650104], [77.15487318459236, 31.230127568481027], [77.30473358826457, 31.268620691472453], [77.38272216568583, 31.360729235773363]]]}}, {"type": "Feature", "properties": {"district": "Solan", "dt_code": "031", "st_nm": "Himachal Pradesh", "st_code": "02", "year": "2011_c"}, "geometry": {"type": "Polygon", "coordinates": [[[76.87656100634396, 31.351105955025506], [77.0310089733939, 31.272744954650104], [77.04783003911221, 31.11464819950675], [77.24662445214678, 30.919433075764523], [77.11511430198544, 30.850695356136978], [77.0248922222236, 30.74896353108821], [76.91631988895088, 30.90018651426881], [76.8689150673811, 30.872691426417795], [76.77716379982668, 30.904310777446465], [76.73281735384205, 30.937304882867686], [76.62424502056932, 30.999168830532476], [76.64565364966535, 31.209506252592764], [76.73281735384205, 31.241125603621434], [76.8398604993222, 31.231502322873578], [76.92702420349889, 31.304364305678774], [76.87656100634396, 31.351105955025506]]]}}, {"type": "Feature", "properties": {"district": "Sirmaur", "dt_code": "032", "st_nm": "Himachal Pradesh", "st_code": "02", "year": "2011_c"}, "geometry": {"type": "Polygon", "coordinates": [[[77.24662445214678, 30.919433075764523], [77.37966379010068, 31.02116490081329], [77.49282368675112, 30.795705180434943], [77.5463452594912, 30.77370911015413], [77.65950515614165, 30.80670321557535], [77.70385160212629, 30.764085829406273], [77.8185406865693, 30.56062217930874], [77.81548231098415, 30.505632003606703], [77.5753998275501, 30.401150669772836], [77.57998739092783, 30.379154599492022], [77.5234074426026, 30.443768055941913], [77.407189170367, 30.4272710032313], [77.20839475733244, 30.48776019650354], [77.12276024094831, 30.56337168809384], [77.17169425031067, 30.601864811085267], [77.16710668693295, 30.68435007463832], [77.0248922222236, 30.74896353108821], [77.11511430198544, 30.850695356136978], [77.24662445214678, 30.919433075764523]]]}}, {"type": "Feature", "properties": {"district": "Hamirpur", "dt_code": "028", "st_nm": "Himachal Pradesh", "st_code": "02", "year": "2011_c"}, "geometry": {"type": "Polygon", "coordinates": [[[76.3122907108843, 31.72228964101425], [76.30005720854372, 31.780029325501385], [76.4346257342902, 31.793776869426896], [76.55696075769607, 31.885885413727806], [76.63953689849505, 31.872137869802295], [76.63800771070248, 31.747035220080164], [76.7236422270866, 31.66454995652711], [76.73128816604947, 31.582064692974058], [76.6196574571916, 31.575190921011302], [76.61048233043616, 31.417094165867947], [76.46215111455652, 31.487206639888043], [76.40098360285357, 31.608185026432523], [76.3122907108843, 31.72228964101425]]]}}, {"type": "Feature", "properties": {"district": "Bilaspur", "dt_code": "030", "st_nm": "Himachal Pradesh", "st_code": "02", "year": "2011_c"}, "geometry": {"type": "Polygon", "coordinates": [[[76.73128816604947, 31.582064692974058], [76.80163080450785, 31.421218429045602], [76.87656100634396, 31.351105955025506], [76.92702420349889, 31.304364305678774], [76.8398604993222, 31.231502322873578], [76.73281735384205, 31.241125603621434], [76.64565364966535, 31.209506252592764], [76.58754451354756, 31.274119709042655], [76.49732243378571, 31.269995445865003], [76.43156735870504, 31.326360375959588], [76.39180847609813, 31.412969902690296], [76.46215111455652, 31.487206639888043], [76.61048233043616, 31.417094165867947], [76.6196574571916, 31.575190921011302], [76.73128816604947, 31.582064692974058]]]}}], "metadata": {"source": "udit-001/india-maps-data (Census 2011)", "url": "https://github.com/udit-001/india-maps-data", "license": "ODbL (Open Database License)", "feature_count": 13}}