{"type": "FeatureCollection", "features": [{"type": "Feature", "properties": {"district": "Jhajjar", "dt_code": "083", "st_nm": "Haryana", "st_code": "06", "year": "2011_c"}, "geometry": {"type": "Polygon", "coordinates": [[[76.88420694530683, 28.809185083198894], [76.94231608142462, 28.798187048058487], [76.97137064948353, 28.69782997740227], [76.95302039597264, 28.667585380766152], [76.88879450868455, 28.63184176655983], [76.8459772504925, 28.550731257399327], [76.88420694530683, 28.502614853660045], [76.7175254759163, 28.436626642817604], [76.66859146655395, 28.378886958330465], [76.62730339615446, 28.424253853284643], [76.29241126958084, 28.468245993846274], [76.37345822258725, 28.60022241553116], [76.46520949014166, 28.613969959456668], [76.4223922319496, 28.701954240579926], [76.47132624131196, 28.741822117963903], [76.5783693867921, 28.734948346001147], [76.60436557926586, 28.792688030488286], [76.75728435852322, 28.769317205814918], [76.88420694530683, 28.809185083198894]]]}}, {"type": "Feature", "properties": {"district": "Gurugram", "dt_code": "086", "st_nm": "Haryana", "st_code": "06", "year": "2011_c"}, "geometry": {"type": "Polygon", "coordinates": [[[76.66859146655395, 28.378886958330465], [76.7175254759163, 28.436626642817604], [76.88420694530683, 28.502614853660045], [77.00654196871272, 28.54110797665147], [77.09676404847457, 28.5094886256228], [77.11970186536317, 28.488867309734538], [77.17475262589582, 28.40500729178893], [77.15640237238493, 28.317023010665675], [77.22368663525818, 28.266157098141292], [77.19157369161412, 28.208417413654153], [77.02183384663846, 28.24828529103813], [76.9790165884464, 28.334894817768834], [76.85821075283309, 28.229038729542417], [76.6777665933094, 28.263407589356188], [76.66859146655395, 28.378886958330465]]]}}, {"type": "Feature", "properties": {"district": "Faridabad", "dt_code": "088", "st_nm": "Haryana", "st_code": "06", "year": "2011_c"}, "geometry": {"type": "Polygon", "coordinates": [[[77.34755084645664, 28.520486660763208], [77.50505718909172, 28.37063843197516], [77.50046962571399, 28.205667904869053], [77.22368663525818, 28.266157098141292], [77.15640237238493, 28.317023010665675], [77.17475262589582, 28.40500729178893], [77.25427039110964, 28.483368292164332], [77.34755084645664, 28.520486660763208]]]}}, {"type": "Feature", "properties": {"district": "Mahendragarh", "dt_code": "084", "st_nm": "Haryana", "st_code": "06", "year": "2011_c"}, "geometry": {"type": "Polygon", "coordinates": [[[75.93305213832605, 27.92796751757377], [75.97281102093297, 27.932091780751424], [76.00798234016216, 28.058569184866105], [75.9988072134067, 28.123182641316], [76.05538716173194, 28.22079020318711], [75.89329325571913, 28.389884993470872], [75.90552675805972, 28.43250237963995], [75.98351533548097, 28.444875169172906], [76.0171574669176, 28.38576073029322], [76.1104379222646, 28.45037418674311], [76.28476533061797, 28.42975287085485], [76.36734147141695, 28.322522028235877], [76.3122907108843, 28.178172817018034], [76.35969553245408, 28.12455739570855], [76.3184074620546, 28.015951798697028], [76.2602983259368, 28.06681771122141], [76.15937193162694, 27.998079991593865], [76.16854705838239, 27.903221938507855], [76.22512700670761, 27.83310946448776], [76.17619299734525, 27.798740604673984], [76.07679579082797, 27.841357990843065], [75.9712818331404, 27.85235602598347], [75.93305213832605, 27.92796751757377]]]}}, {"type": "Feature", "properties": {"district": "Rewari", "dt_code": "085", "st_nm": "Haryana", "st_code": "06", "year": "2011_c"}, "geometry": {"type": "Polygon", "coordinates": [[[76.29241126958084, 28.468245993846274], [76.62730339615446, 28.424253853284643], [76.66859146655395, 28.378886958330465], [76.6777665933094, 28.263407589356188], [76.85821075283309, 28.229038729542417], [76.85362318945536, 28.22079020318711], [76.79551405333757, 28.147928220381914], [76.68694172006484, 28.087439027109674], [76.66859146655395, 28.013202289911927], [76.5386105041852, 27.9747091669205], [76.54319806756291, 28.03382360580019], [76.3122907108843, 28.178172817018034], [76.36734147141695, 28.322522028235877], [76.28476533061797, 28.42975287085485], [76.29241126958084, 28.468245993846274]]]}}, {"type": "Feature", "properties": {"district": "Nuh", "dt_code": "087", "st_nm": "Haryana", "st_code": "06", "year": "2011_c"}, "geometry": {"type": "Polygon", "coordinates": [[[76.85821075283309, 28.229038729542417], [76.9790165884464, 28.334894817768834], [77.02183384663846, 28.24828529103813], [77.19157369161412, 28.208417413654153], [77.12123105315574, 28.116308869353244], [77.1579315601775, 27.948588833462033], [77.34449247087149, 27.849606517198367], [77.28332495916854, 27.798740604673984], [77.04477166352706, 27.8207366749548], [76.97748740065381, 27.65439139345614], [76.8918528842697, 27.732752393831543], [76.94231608142462, 27.842732745235615], [76.93008257908404, 27.993955728416214], [76.96984146169095, 28.138304939634057], [76.85362318945536, 28.22079020318711], [76.85821075283309, 28.229038729542417]]]}}, {"type": "Feature", "properties": {"district": "Palwal", "dt_code": "089", "st_nm": "Haryana", "st_code": "06", "year": "2011_c"}, "geometry": {"type": "Polygon", "coordinates": [[[77.50046962571399, 28.205667904869053], [77.47600262103282, 28.084689518324573], [77.54175769611348, 27.98983146523856], [77.5295241937729, 27.92659276318122], [77.42095186050017, 27.855105534768573], [77.34449247087149, 27.849606517198367], [77.1579315601775, 27.948588833462033], [77.12123105315574, 28.116308869353244], [77.19157369161412, 28.208417413654153], [77.22368663525818, 28.266157098141292], [77.50046962571399, 28.205667904869053]]]}}, {"type": "Feature", "properties": {"district": "Charkhi Dadri", "dt_code": "765", "st_nm": "Haryana", "st_code": "06", "year": "2016_c"}, "geometry": {"type": "Polygon", "coordinates": [[[76.4223922319496, 28.701954240579926], [76.46520949014166, 28.613969959456668], [76.37345822258725, 28.60022241553116], [76.29241126958084, 28.468245993846274], [76.28476533061797, 28.42975287085485], [76.1104379222646, 28.45037418674311], [76.0171574669176, 28.38576073029322], [75.98351533548097, 28.444875169172906], [75.90552675805972, 28.43250237963995], [75.81683386609045, 28.51086338001535], [75.84741762194193, 28.58647487160565], [75.95598995521465, 28.60434667870881], [76.1333757391532, 28.686831942261865], [76.23277294567048, 28.67720866151401], [76.29241126958084, 28.807810328806344], [76.32605340101746, 28.811934591984], [76.38569172492784, 28.78306474974043], [76.4223922319496, 28.701954240579926]]]}}, {"type": "Feature", "properties": {"district": "Yamunanagar", "dt_code": "071", "st_nm": "Haryana", "st_code": "06", "year": "2011_c"}, "geometry": {"type": "Polygon", "coordinates": [[[77.20839475733244, 30.48776019650354], [77.407189170367, 30.4272710032313], [77.5234074426026, 30.443768055941913], [77.57998739092783, 30.379154599492022], [77.58304576651297, 30.307667371079376], [77.45612317972936, 30.16331815986153], [77.22674501084332, 29.939233193875733], [77.11970186536317, 29.991473860792667], [77.06465110483052, 30.126199791262657], [77.09217648509684, 30.22518210752632], [77.17781100148096, 30.324164423789984], [77.16710668693295, 30.43826903837171], [77.20839475733244, 30.48776019650354]]]}}, {"type": "Feature", "properties": {"district": "Kurukshetra", "dt_code": "072", "st_nm": "Haryana", "st_code": "06", "year": "2011_c"}, "geometry": {"type": "Polygon", "coordinates": [[[76.63800771070248, 30.14682110715092], [76.64259527408021, 30.14957061593602], [76.68388334447968, 30.186688984534896], [76.8169226824336, 30.218308335563567], [76.96066633493551, 30.19356275649765], [77.06465110483052, 30.126199791262657], [77.11970186536317, 29.991473860792667], [77.09676404847457, 29.95023122901614], [76.98360415182411, 29.958479755371446], [76.88114856972169, 29.880118754996044], [76.8337437481519, 29.90211482527686], [76.7297589782569, 29.870495474248187], [76.66094552759108, 29.911738106024714], [76.46520949014166, 29.913112860417268], [76.4223922319496, 30.031341738176643], [76.46673867793425, 30.098704703411638], [76.57684019899953, 30.10145421219674], [76.63800771070248, 30.14682110715092]]]}}, {"type": "Feature", "properties": {"district": "Kaithal", "dt_code": "073", "st_nm": "Haryana", "st_code": "06", "year": "2011_c"}, "geometry": {"type": "Polygon", "coordinates": [[[76.21442269215959, 29.840250877612068], [76.17160543396753, 29.926860404342776], [76.2541815747665, 30.08908142266378], [76.41015872960901, 30.14544635275837], [76.46673867793425, 30.098704703411638], [76.4223922319496, 30.031341738176643], [76.46520949014166, 29.913112860417268], [76.66094552759108, 29.911738106024714], [76.7297589782569, 29.870495474248187], [76.68388334447968, 29.678029859291062], [76.54013969197777, 29.61341640284117], [76.50343918495601, 29.515808840970056], [76.37345822258725, 29.528181630503017], [76.35052040569865, 29.58042229741995], [76.23888969684077, 29.592795086952908], [76.16854705838239, 29.68902789443147], [76.21442269215959, 29.840250877612068]]]}}, {"type": "Feature", "properties": {"district": "Sirsa", "dt_code": "079", "st_nm": "Haryana", "st_code": "06", "year": "2011_c"}, "geometry": {"type": "Polygon", "coordinates": [[[74.52619936915833, 29.940607948268283], [74.64700520477165, 29.911738106024714], [74.70511434088944, 29.974976808082058], [74.8121574863696, 29.992848615185217], [74.92684657081261, 29.95023122901614], [74.997189209271, 29.867745965463087], [75.11799504488431, 29.832002351256765], [75.19139605892785, 29.844375140789722], [75.24185925608278, 29.750891842096262], [75.16845824203925, 29.667031824150655], [75.30302676778572, 29.559800981531687], [75.30149757999315, 29.438822594987208], [75.22045062698675, 29.39757996321068], [75.2403300682902, 29.26010452395559], [75.08129453786255, 29.22848517292692], [75.05071078201108, 29.28622485741406], [74.96048870224924, 29.280725839843853], [74.93755088536064, 29.361836349004356], [74.85038718118393, 29.403078980780883], [74.78769048168841, 29.361836349004356], [74.60265875878702, 29.364585857789457], [74.58430850527613, 29.45806915648292], [74.62253820009047, 29.530931139288118], [74.57513337852069, 29.56392524470934], [74.61642144892018, 29.752266596488813], [74.48032373538112, 29.745392824526057], [74.48491129875885, 29.814130544153603], [74.56137068838753, 29.869120719855637], [74.52619936915833, 29.940607948268283]]]}}, {"type": "Feature", "properties": {"district": "Karnal", "dt_code": "074", "st_nm": "Haryana", "st_code": "06", "year": "2011_c"}, "geometry": {"type": "Polygon", "coordinates": [[[77.11970186536317, 29.991473860792667], [77.22674501084332, 29.939233193875733], [77.17322343810325, 29.804507263405746], [77.11970186536317, 29.755016105273913], [77.15181480900722, 29.68765314003892], [77.10593917523, 29.632662964336884], [77.13193536770376, 29.484189489941386], [77.0080711565053, 29.44569636694996], [76.81845187022617, 29.514434086577506], [76.76034273410838, 29.462193419660572], [76.70529197357573, 29.48831375311904], [76.53096456522233, 29.463568174053123], [76.50343918495601, 29.515808840970056], [76.54013969197777, 29.61341640284117], [76.68388334447968, 29.678029859291062], [76.7297589782569, 29.870495474248187], [76.8337437481519, 29.90211482527686], [76.88114856972169, 29.880118754996044], [76.98360415182411, 29.958479755371446], [77.09676404847457, 29.95023122901614], [77.11970186536317, 29.991473860792667]]]}}, {"type": "Feature", "properties": {"district": "Jind", "dt_code": "077", "st_nm": "Haryana", "st_code": "06", "year": "2011_c"}, "geometry": {"type": "Polygon", "coordinates": [[[75.94681482845921, 29.728895771815445], [76.04927041056165, 29.746767578918607], [76.098204419924, 29.810006280975948], [76.21442269215959, 29.840250877612068], [76.16854705838239, 29.68902789443147], [76.23888969684077, 29.592795086952908], [76.35052040569865, 29.58042229741995], [76.37345822258725, 29.528181630503017], [76.50343918495601, 29.515808840970056], [76.53096456522233, 29.463568174053123], [76.70529197357573, 29.48831375311904], [76.76034273410838, 29.462193419660572], [76.73434654163462, 29.387956682462825], [76.65024121304307, 29.36733536657456], [76.67623740551682, 29.280725839843853], [76.5615483210738, 29.280725839843853], [76.5676650722441, 29.22573566414182], [76.49579324599314, 29.177619260402537], [76.47744299248225, 29.09238448806438], [76.30158639633629, 29.086885470494177], [76.30005720854372, 29.188617295542944], [76.22512700670761, 29.218861892179063], [76.19148487527099, 29.40995275274364], [76.13184655136061, 29.390706191247926], [76.01409909133245, 29.481439981156285], [75.96363589417751, 29.562550490316788], [75.94681482845921, 29.728895771815445]]]}}, {"type": "Feature", "properties": {"district": "Fatehabad", "dt_code": "078", "st_nm": "Haryana", "st_code": "06", "year": "2011_c"}, "geometry": {"type": "Polygon", "coordinates": [[[75.72049503515832, 29.814130544153603], [75.77860417127611, 29.82237907050891], [75.94681482845921, 29.728895771815445], [75.96363589417751, 29.562550490316788], [75.85812193648994, 29.55017770078383], [75.63027295539648, 29.416826524706394], [75.61498107747074, 29.371459629752213], [75.42842016677676, 29.368710120967112], [75.34584402597778, 29.283475348628954], [75.2403300682902, 29.26010452395559], [75.22045062698675, 29.39757996321068], [75.30149757999315, 29.438822594987208], [75.30302676778572, 29.559800981531687], [75.34584402597778, 29.695901666394224], [75.4605331104208, 29.807256772190847], [75.57980975824154, 29.739893806955852], [75.72049503515832, 29.814130544153603]]]}}, {"type": "Feature", "properties": {"district": "Hisar", "dt_code": "080", "st_nm": "Haryana", "st_code": "06", "year": "2011_c"}, "geometry": {"type": "Polygon", "coordinates": [[[75.52781737329404, 28.9714061015199], [75.44218285690992, 29.058015628250608], [75.391719659755, 29.06213989142826], [75.40548234988816, 29.26010452395559], [75.34584402597778, 29.283475348628954], [75.42842016677676, 29.368710120967112], [75.61498107747074, 29.371459629752213], [75.63027295539648, 29.416826524706394], [75.85812193648994, 29.55017770078383], [75.96363589417751, 29.562550490316788], [76.01409909133245, 29.481439981156285], [76.13184655136061, 29.390706191247926], [76.19148487527099, 29.40995275274364], [76.22512700670761, 29.218861892179063], [76.30005720854372, 29.188617295542944], [76.30158639633629, 29.086885470494177], [76.22818538229275, 28.990652663015613], [76.18995568747842, 29.051141856287853], [75.96822345755524, 29.063514645820813], [75.8321257440162, 28.91091690824766], [75.68226534034397, 28.91091690824766], [75.63027295539648, 28.978279873482656], [75.52781737329404, 28.9714061015199]]]}}, {"type": "Feature", "properties": {"district": "Panipat", "dt_code": "075", "st_nm": "Haryana", "st_code": "06", "year": "2011_c"}, "geometry": {"type": "Polygon", "coordinates": [[[76.76034273410838, 29.462193419660572], [76.81845187022617, 29.514434086577506], [77.0080711565053, 29.44569636694996], [77.13193536770376, 29.484189489941386], [77.12734780432604, 29.3494635594714], [77.15487318459236, 29.297222892554466], [77.14263968225177, 29.16662122526213], [76.98207496403154, 29.188617295542944], [76.91784907674345, 29.218861892179063], [76.8108059312633, 29.217487137786513], [76.77869298761925, 29.282100594236404], [76.67623740551682, 29.280725839843853], [76.65024121304307, 29.36733536657456], [76.73434654163462, 29.387956682462825], [76.76034273410838, 29.462193419660572]]]}}, {"type": "Feature", "properties": {"district": "Sonipat", "dt_code": "076", "st_nm": "Haryana", "st_code": "06", "year": "2011_c"}, "geometry": {"type": "Polygon", "coordinates": [[[77.21604069629531, 28.853177223760525], [77.12123105315574, 28.858676241330727], [76.96831227389838, 28.811934591984], [76.94231608142462, 28.798187048058487], [76.88420694530683, 28.809185083198894], [76.73587572942719, 29.007149715726225], [76.65329958862822, 29.055266119465507], [76.47744299248225, 29.09238448806438], [76.49579324599314, 29.177619260402537], [76.5676650722441, 29.22573566414182], [76.5615483210738, 29.280725839843853], [76.67623740551682, 29.280725839843853], [76.77869298761925, 29.282100594236404], [76.8108059312633, 29.217487137786513], [76.91784907674345, 29.218861892179063], [76.98207496403154, 29.188617295542944], [77.14263968225177, 29.16662122526213], [77.16710668693295, 29.033270049184694], [77.23286176201361, 28.919165434602967], [77.21604069629531, 28.853177223760525]]]}}, {"type": "Feature", "properties": {"district": "Bhiwani", "dt_code": "081", "st_nm": "Haryana", "st_code": "06", "year": "2011_c"}, "geometry": {"type": "Polygon", "coordinates": [[[75.67003183800338, 28.519111906370657], [75.62262701643361, 28.60159716992371], [75.56145950473066, 28.612595205064117], [75.52017143433117, 28.833930662264812], [75.47429580055396, 28.926039206565722], [75.52781737329404, 28.9714061015199], [75.63027295539648, 28.978279873482656], [75.68226534034397, 28.91091690824766], [75.8321257440162, 28.91091690824766], [75.96822345755524, 29.063514645820813], [76.18995568747842, 29.051141856287853], [76.22818538229275, 28.990652663015613], [76.23583132125562, 28.91091690824766], [76.35204959349122, 28.895794609929602], [76.32605340101746, 28.811934591984], [76.29241126958084, 28.807810328806344], [76.23277294567048, 28.67720866151401], [76.1333757391532, 28.686831942261865], [75.95598995521465, 28.60434667870881], [75.84741762194193, 28.58647487160565], [75.81683386609045, 28.51086338001535], [75.90552675805972, 28.43250237963995], [75.89329325571913, 28.389884993470872], [75.67003183800338, 28.519111906370657]]]}}, {"type": "Feature", "properties": {"district": "Rohtak", "dt_code": "082", "st_nm": "Haryana", "st_code": "06", "year": "2011_c"}, "geometry": {"type": "Polygon", "coordinates": [[[76.88420694530683, 28.809185083198894], [76.75728435852322, 28.769317205814918], [76.60436557926586, 28.792688030488286], [76.5783693867921, 28.734948346001147], [76.47132624131196, 28.741822117963903], [76.4223922319496, 28.701954240579926], [76.38569172492784, 28.78306474974043], [76.32605340101746, 28.811934591984], [76.35204959349122, 28.895794609929602], [76.23583132125562, 28.91091690824766], [76.22818538229275, 28.990652663015613], [76.30158639633629, 29.086885470494177], [76.47744299248225, 29.09238448806438], [76.65329958862822, 29.055266119465507], [76.73587572942719, 29.007149715726225], [76.88420694530683, 28.809185083198894]]]}}, {"type": "Feature", "properties": {"district": "Panchkula", "dt_code": "069", "st_nm": "Haryana", "st_code": "06", "year": "2011_c"}, "geometry": {"type": "Polygon", "coordinates": [[[76.77716379982668, 30.904310777446465], [76.8689150673811, 30.872691426417795], [76.91631988895088, 30.90018651426881], [77.0248922222236, 30.74896353108821], [77.16710668693295, 30.68435007463832], [77.17169425031067, 30.601864811085267], [77.12276024094831, 30.56337168809384], [76.90714476219543, 30.458890354259974], [76.92549501570632, 30.610113337440573], [76.8276269969816, 30.68160056585322], [76.83833131152963, 30.754462548658417], [76.8459772504925, 30.83419830342637], [76.77716379982668, 30.904310777446465]]]}}, {"type": "Feature", "properties": {"district": "Ambala", "dt_code": "070", "st_nm": "Haryana", "st_code": "06", "year": "2011_c"}, "geometry": {"type": "Polygon", "coordinates": [[[77.12276024094831, 30.56337168809384], [77.20839475733244, 30.48776019650354], [77.16710668693295, 30.43826903837171], [77.17781100148096, 30.324164423789984], [77.09217648509684, 30.22518210752632], [77.06465110483052, 30.126199791262657], [76.96066633493551, 30.19356275649765], [76.8169226824336, 30.218308335563567], [76.68388334447968, 30.186688984534896], [76.64259527408021, 30.14957061593602], [76.5615483210738, 30.24167916023693], [76.71140872474601, 30.325539178182535], [76.74810923176778, 30.428645757623855], [76.91173232557315, 30.42589624883875], [76.89796963543999, 30.445142810334463], [76.90714476219543, 30.458890354259974], [77.12276024094831, 30.56337168809384]]]}}], "metadata": {"source": "udit-001/india-maps-data (Census 2011)", "url": "https://github.com/udit-001/india-maps-data", "license": "ODbL (Open Database License)", "feature_count": 23}}