{"type": "FeatureCollection", "features": [{"type": "Feature", "properties": {"district": "Sahibganj", "dt_code": "352", "st_nm": "Jharkhand", "st_code": "20", "year": "2011_c"}, "geometry": {"type": "Polygon", "coordinates": [[[87.55182098630031, 25.331056470045123], [87.69250626321708, 25.31180990854941], [87.71085651672797, 25.258194487239926], [87.77814077960122, 25.24994596088462], [87.77966996739379, 25.144089872658203], [87.79496184531952, 25.087724942563614], [87.95399737574718, 24.97362032798189], [87.96011412691746, 24.921379661064957], [87.89130067625166, 24.855391450222513], [87.83930829130415, 24.74541109881844], [87.71238570452054, 24.74128683564079], [87.50900372810825, 24.799026520127928], [87.4539529675756, 24.93925146816812], [87.52123723044885, 25.0602298547126], [87.47230322108649, 25.105596749666777], [87.47841997225677, 25.194955785182586], [87.55182098630031, 25.331056470045123]]]}}, {"type": "Feature", "properties": {"district": "Godda", "dt_code": "351", "st_nm": "Jharkhand", "st_code": "20", "year": "2011_c"}, "geometry": {"type": "Polygon", "coordinates": [[[87.47841997225677, 25.194955785182586], [87.47230322108649, 25.105596749666777], [87.52123723044885, 25.0602298547126], [87.4539529675756, 24.93925146816812], [87.50900372810825, 24.799026520127928], [87.4600697187459, 24.792152748165172], [87.47383240887906, 24.64780353694733], [87.42031083613898, 24.514452360869893], [87.37749357794692, 24.504829080122036], [87.30715093948854, 24.598312378815496], [87.24445423999302, 24.58593958928254], [87.12211921658712, 24.634055993021818], [87.05177657812874, 24.627182221059066], [87.10988571424654, 24.85126718704486], [87.15729053581632, 24.88151178368098], [87.14505703347574, 25.01898722293607], [87.1756407893272, 25.057480345927495], [87.29491743714794, 25.089099696956165], [87.327030380792, 25.223825627426155], [87.47841997225677, 25.194955785182586]]]}}, {"type": "Feature", "properties": {"district": "Pakur", "dt_code": "353", "st_nm": "Jharkhand", "st_code": "20", "year": "2011_c"}, "geometry": {"type": "Polygon", "coordinates": [[[87.50900372810825, 24.799026520127928], [87.71238570452054, 24.74128683564079], [87.83930829130415, 24.74541109881844], [87.90812174196996, 24.722040274145076], [87.88977148845908, 24.565318273394276], [87.79343265752695, 24.583190080497435], [87.80107859648982, 24.382475939185007], [87.70626895335025, 24.260122798247973], [87.638984690477, 24.254623780677772], [87.5824047421518, 24.257373289462873], [87.5640544886409, 24.52407564161775], [87.42031083613898, 24.514452360869893], [87.47383240887906, 24.64780353694733], [87.4600697187459, 24.792152748165172], [87.50900372810825, 24.799026520127928]]]}}, {"type": "Feature", "properties": {"district": "Giridih", "dt_code": "349", "st_nm": "Jharkhand", "st_code": "20", "year": "2011_c"}, "geometry": {"type": "Polygon", "coordinates": [[[86.05474613737076, 24.779779958632215], [86.12814715141428, 24.698669449471712], [86.13273471479201, 24.603811396385698], [86.3009453719751, 24.56119401021662], [86.27647836729392, 24.46633595713061], [86.34987938133746, 24.447089395634897], [86.4523349634399, 24.37285265843715], [86.51503166293541, 24.2230044296491], [86.48444790708393, 24.152891955629006], [86.57008242346805, 24.1418939204886], [86.48138953149879, 24.02229028833667], [86.37893394939636, 24.059408656935545], [86.29329943301224, 23.91643420011025], [86.22295679455385, 23.941179779176167], [86.10979689790341, 23.887564357866683], [86.07156720308906, 23.921933217680454], [85.96758243319405, 23.894438129829435], [85.91406086045399, 23.949428305531473], [85.83607228303273, 24.071781446468503], [85.7106788840417, 24.102026043104622], [85.68162431598279, 24.17626278030237], [85.84677659758074, 24.218880166471447], [85.84983497316588, 24.273870342173485], [85.86818522667677, 24.52682515040285], [85.77337558353722, 24.610685168348454], [85.81772202952185, 24.723415028537627], [85.9018273581134, 24.766032414706704], [85.93241111396486, 24.73853732685569], [86.05474613737076, 24.779779958632215]]]}}, {"type": "Feature", "properties": {"district": "Dumka", "dt_code": "362", "st_nm": "Jharkhand", "st_code": "20", "year": "2011_c"}, "geometry": {"type": "Polygon", "coordinates": [[[87.05177657812874, 24.627182221059066], [87.12211921658712, 24.634055993021818], [87.24445423999302, 24.58593958928254], [87.30715093948854, 24.598312378815496], [87.37749357794692, 24.504829080122036], [87.42031083613898, 24.514452360869893], [87.5640544886409, 24.52407564161775], [87.5824047421518, 24.257373289462873], [87.638984690477, 24.254623780677772], [87.63133875151414, 24.163889990769412], [87.44019027744244, 23.982422410952694], [87.33620550754743, 24.034663077869627], [87.23374992544501, 24.02503979712177], [87.1358819067203, 24.037412586654728], [87.09612302411338, 24.107525060674824], [87.01048850772926, 24.14601818366625], [86.97378800070749, 24.108899815067375], [86.93402911810058, 24.136394902918394], [87.04565982695846, 24.2230044296491], [87.02119282227727, 24.306864447594705], [86.9615544983669, 24.31373821955746], [86.88815348432337, 24.447089395634897], [86.91262048900455, 24.547446466291113], [86.95237937161146, 24.631306484236717], [87.05177657812874, 24.627182221059066]]]}}, {"type": "Feature", "properties": {"district": "Deoghar", "dt_code": "350", "st_nm": "Jharkhand", "st_code": "20", "year": "2011_c"}, "geometry": {"type": "Polygon", "coordinates": [[[86.4523349634399, 24.37285265843715], [86.49973978500967, 24.510328097692238], [86.61137049386755, 24.607935659563353], [86.65265856426703, 24.570817290964477], [86.7535849585769, 24.61755894031121], [86.91262048900455, 24.547446466291113], [86.88815348432337, 24.447089395634897], [86.9615544983669, 24.31373821955746], [87.02119282227727, 24.306864447594705], [87.04565982695846, 24.2230044296491], [86.93402911810058, 24.136394902918394], [86.97378800070749, 24.108899815067375], [86.95390855940403, 24.041536849832383], [86.68018394453335, 24.12952113095564], [86.57008242346805, 24.1418939204886], [86.48444790708393, 24.152891955629006], [86.51503166293541, 24.2230044296491], [86.4523349634399, 24.37285265843715]]]}}, {"type": "Feature", "properties": {"district": "Palamu", "dt_code": "358", "st_nm": "Jharkhand", "st_code": "20", "year": "2011_c"}, "geometry": {"type": "Polygon", "coordinates": [[[83.87259515736821, 24.53232416797305], [83.93682104465631, 24.548821220683664], [84.00869287090727, 24.642304519377124], [84.09279819949882, 24.533698922365602], [84.25642129330419, 24.52682515040285], [84.32676393176257, 24.489706781803974], [84.34205580968832, 24.393473974325413], [84.45980326971647, 24.337109044230825], [84.49650377673825, 24.287617886098992], [84.4475697673759, 24.23950148235971], [84.58213829312237, 24.1418939204886], [84.55461291285604, 24.008542744411162], [84.57907991753723, 23.9879214285229], [84.56684641519664, 23.92743223525066], [84.46897839647193, 23.95767683188678], [84.33440987072544, 23.909560428147497], [84.13714464548345, 23.90406141057729], [84.01939718545529, 23.802329585528526], [83.93682104465631, 23.86831779637097], [83.86494921840534, 24.069031937683402], [83.98881342960381, 24.106150306282274], [83.81754439683557, 24.288992640491543], [83.87259515736821, 24.53232416797305]]]}}, {"type": "Feature", "properties": {"district": "Chatra", "dt_code": "347", "st_nm": "Jharkhand", "st_code": "20", "year": "2011_c"}, "geometry": {"type": "Polygon", "coordinates": [[[84.49650377673825, 24.287617886098992], [84.58519666870751, 24.400347746288165], [84.80234133525298, 24.5309494135805], [84.8879758516371, 24.46358644834551], [84.90326772956283, 24.37285265843715], [85.02866112855386, 24.415470044606227], [85.08829945246424, 24.370103149652046], [85.10053295480482, 24.32886051787552], [85.22592635379586, 24.34398281619358], [85.322265184728, 24.309613956379806], [85.27180198757307, 24.216130657686346], [85.1601712787152, 24.229878201611854], [85.16934640547063, 24.09927653431952], [85.24886417068447, 24.034663077869627], [85.20145934911469, 23.956302077494225], [85.02407356517614, 23.99204569170055], [85.021015189591, 23.882065340296478], [85.05312813323505, 23.711595795620166], [84.96902280464349, 23.71572005879782], [84.93843904879202, 23.73359186590098], [84.95220173892518, 23.876566322726273], [84.9338514854143, 23.941179779176167], [84.67083118509164, 23.998919463663306], [84.57907991753723, 23.9879214285229], [84.55461291285604, 24.008542744411162], [84.58213829312237, 24.1418939204886], [84.4475697673759, 24.23950148235971], [84.49650377673825, 24.287617886098992]]]}}, {"type": "Feature", "properties": {"district": "Garhwa", "dt_code": "346", "st_nm": "Jharkhand", "st_code": "20", "year": "2011_c"}, "geometry": {"type": "Polygon", "coordinates": [[[83.50253171156541, 24.5254503960103], [83.71814719031828, 24.503454325729482], [83.87259515736821, 24.53232416797305], [83.81754439683557, 24.288992640491543], [83.98881342960381, 24.106150306282274], [83.86494921840534, 24.069031937683402], [83.93682104465631, 23.86831779637097], [84.01939718545529, 23.802329585528526], [84.01633880987013, 23.634609549637318], [83.93835023244888, 23.568621338794873], [83.7747271386435, 23.6098639705714], [83.7059136879777, 23.820201392631688], [83.57134516223121, 23.862818778800765], [83.51476521390599, 23.981047656560143], [83.43218907310701, 24.08552899039401], [83.32973349100459, 24.102026043104622], [83.40925125621841, 24.26699657021073], [83.38019668815951, 24.31373821955746], [83.40007612946297, 24.49795530815928], [83.50253171156541, 24.5254503960103]]]}}, {"type": "Feature", "properties": {"district": "Jamtara", "dt_code": "363", "st_nm": "Jharkhand", "st_code": "20", "year": "2011_c"}, "geometry": {"type": "Polygon", "coordinates": [[[86.48138953149879, 24.02229028833667], [86.57008242346805, 24.1418939204886], [86.68018394453335, 24.12952113095564], [86.95390855940403, 24.041536849832383], [86.97378800070749, 24.108899815067375], [87.01048850772926, 24.14601818366625], [87.09612302411338, 24.107525060674824], [87.1358819067203, 24.037412586654728], [87.23374992544501, 24.02503979712177], [87.29491743714794, 23.90131190179219], [87.23374992544501, 23.85594500683801], [87.12976515555, 23.85319549805291], [87.08541870956536, 23.811952866276382], [86.9156788645897, 23.882065340296478], [86.80098978014666, 23.833948936557196], [86.58231592580864, 23.982422410952694], [86.48138953149879, 24.02229028833667]]]}}, {"type": "Feature", "properties": {"district": "Dhanbad", "dt_code": "354", "st_nm": "Jharkhand", "st_code": "20", "year": "2011_c"}, "geometry": {"type": "Polygon", "coordinates": [[[86.10979689790341, 23.887564357866683], [86.22295679455385, 23.941179779176167], [86.29329943301224, 23.91643420011025], [86.37893394939636, 24.059408656935545], [86.48138953149879, 24.02229028833667], [86.58231592580864, 23.982422410952694], [86.80098978014666, 23.833948936557196], [86.82698597262042, 23.76521121692965], [86.80098978014666, 23.69922300608721], [86.7122968881774, 23.69922300608721], [86.48597709487652, 23.63598430402987], [86.37128801043349, 23.711595795620166], [86.24436542364988, 23.712970550012717], [86.1908438509098, 23.750088918611592], [86.10979689790341, 23.887564357866683]]]}}, {"type": "Feature", "properties": {"district": "Latehar", "dt_code": "359", "st_nm": "Jharkhand", "st_code": "20", "year": "2011_c"}, "geometry": {"type": "Polygon", "coordinates": [[[84.01939718545529, 23.802329585528526], [84.13714464548345, 23.90406141057729], [84.33440987072544, 23.909560428147497], [84.46897839647193, 23.95767683188678], [84.56684641519664, 23.92743223525066], [84.57907991753723, 23.9879214285229], [84.67083118509164, 23.998919463663306], [84.9338514854143, 23.941179779176167], [84.95220173892518, 23.876566322726273], [84.93843904879202, 23.73359186590098], [84.96902280464349, 23.71572005879782], [84.92314717086629, 23.66897840945109], [84.94761417554746, 23.60848921617885], [84.88491747605194, 23.558998058047017], [84.85739209578563, 23.53287772458855], [84.64177661703275, 23.66897840945109], [84.46897839647193, 23.657980374310682], [84.38793144346552, 23.6043649530012], [84.31758880500713, 23.58099412832783], [84.32829311955516, 23.494384601597126], [84.24571697875618, 23.446268197857844], [84.25947966888934, 23.381654741407953], [84.1921954060161, 23.325289811313365], [84.07444794598793, 23.33353833766867], [83.96281723713005, 23.385779004585604], [84.01480962207756, 23.504007882344983], [84.01633880987013, 23.634609549637318], [84.01939718545529, 23.802329585528526]]]}}, {"type": "Feature", "properties": {"district": "Bokaro", "dt_code": "355", "st_nm": "Jharkhand", "st_code": "20", "year": "2011_c"}, "geometry": {"type": "Polygon", "coordinates": [[[85.91406086045399, 23.949428305531473], [85.96758243319405, 23.894438129829435], [86.07156720308906, 23.921933217680454], [86.10979689790341, 23.887564357866683], [86.1908438509098, 23.750088918611592], [86.24436542364988, 23.712970550012717], [86.37128801043349, 23.711595795620166], [86.48597709487652, 23.63598430402987], [86.36517125926319, 23.531502970195998], [86.31012049873054, 23.411899338044073], [86.17708116077664, 23.469639022531208], [86.15873090726576, 23.558998058047017], [86.08227151763708, 23.565871830009772], [86.03945425944502, 23.498508864774777], [85.88500629239508, 23.48338656645672], [85.75502533002633, 23.663479391880884], [85.61434005310956, 23.633234795244764], [85.61281086531699, 23.798205322350874], [85.5822271094655, 23.85319549805291], [85.64339462116845, 23.954927323101675], [85.73667507651544, 23.950803059924024], [85.83454309524015, 23.84082270851995], [85.91406086045399, 23.949428305531473]]]}}, {"type": "Feature", "properties": {"district": "Ramgarh", "dt_code": "361", "st_nm": "Jharkhand", "st_code": "20", "year": "2011_c"}, "geometry": {"type": "Polygon", "coordinates": [[[85.64339462116845, 23.954927323101675], [85.5822271094655, 23.85319549805291], [85.61281086531699, 23.798205322350874], [85.61434005310956, 23.633234795244764], [85.75502533002633, 23.663479391880884], [85.88500629239508, 23.48338656645672], [85.85901009992133, 23.42977114514723], [85.77490477132979, 23.461390496175902], [85.71373725962684, 23.444893443465293], [85.6005773629764, 23.48888558402692], [85.52870553672543, 23.561747566832118], [85.38496188422351, 23.55074953169171], [85.26721442419534, 23.57824461954273], [85.20451772469983, 23.627735777674562], [85.23051391717358, 23.684100707769147], [85.33602787486116, 23.70472202365741], [85.42319157903785, 23.684100707769147], [85.46906721281506, 23.76521121692965], [85.426249954623, 23.79408105917322], [85.64339462116845, 23.954927323101675]]]}}, {"type": "Feature", "properties": {"district": "Ranchi", "dt_code": "364", "st_nm": "Jharkhand", "st_code": "20", "year": "2011_c"}, "geometry": {"type": "Polygon", "coordinates": [[[84.96902280464349, 23.71572005879782], [85.05312813323505, 23.711595795620166], [85.07606595012365, 23.66760365505854], [85.23051391717358, 23.684100707769147], [85.20451772469983, 23.627735777674562], [85.26721442419534, 23.57824461954273], [85.38496188422351, 23.55074953169171], [85.52870553672543, 23.561747566832118], [85.6005773629764, 23.48888558402692], [85.71373725962684, 23.444893443465293], [85.77490477132979, 23.461390496175902], [85.85901009992133, 23.42977114514723], [85.8834771046025, 23.35003539037928], [85.81925121731442, 23.268924881218776], [85.88500629239508, 23.16719305617001], [85.81007609055898, 23.07645926626165], [85.85748091212875, 22.900490704015137], [85.72902913755257, 22.944482844576765], [85.5822271094655, 22.894991686444932], [85.54858497802888, 22.930735300651257], [85.65562812350905, 23.004972037849004], [85.61434005310956, 23.114952389253077], [85.48282990294823, 23.124575670000933], [85.38496188422351, 23.19331338962848], [85.22133879041814, 23.208435687946537], [85.22745554158843, 23.267550126826226], [85.08829945246424, 23.24280454776031], [85.04701138206474, 23.19468814402103], [85.05465732102762, 23.120451406823282], [84.94302661216975, 23.002222529063904], [84.90326772956283, 23.055837950373387], [84.88950503942966, 23.16719305617001], [84.90173854177026, 23.326664565705915], [84.88491747605194, 23.403650811688767], [84.94455579996232, 23.498508864774777], [84.88491747605194, 23.558998058047017], [84.94761417554746, 23.60848921617885], [84.92314717086629, 23.66897840945109], [84.96902280464349, 23.71572005879782]]]}}, {"type": "Feature", "properties": {"district": "Lohardaga", "dt_code": "356", "st_nm": "Jharkhand", "st_code": "20", "year": "2011_c"}, "geometry": {"type": "Polygon", "coordinates": [[[84.38793144346552, 23.6043649530012], [84.46897839647193, 23.657980374310682], [84.64177661703275, 23.66897840945109], [84.85739209578563, 23.53287772458855], [84.88491747605194, 23.558998058047017], [84.94455579996232, 23.498508864774777], [84.88491747605194, 23.403650811688767], [84.90173854177026, 23.326664565705915], [84.79316620849752, 23.278548161966633], [84.5913134198778, 23.31841603935061], [84.51332484245656, 23.384404250193054], [84.4414530162056, 23.405025566081317], [84.47509514764222, 23.48613607524182], [84.4705075842645, 23.57961937393528], [84.38793144346552, 23.6043649530012]]]}}, {"type": "Feature", "properties": {"district": "Gumla", "dt_code": "366", "st_nm": "Jharkhand", "st_code": "20", "year": "2011_c"}, "geometry": {"type": "Polygon", "coordinates": [[[84.07444794598793, 23.33353833766867], [84.1921954060161, 23.325289811313365], [84.25947966888934, 23.381654741407953], [84.24571697875618, 23.446268197857844], [84.32829311955516, 23.494384601597126], [84.31758880500713, 23.58099412832783], [84.38793144346552, 23.6043649530012], [84.4705075842645, 23.57961937393528], [84.47509514764222, 23.48613607524182], [84.4414530162056, 23.405025566081317], [84.51332484245656, 23.384404250193054], [84.5913134198778, 23.31841603935061], [84.79316620849752, 23.278548161966633], [84.90173854177026, 23.326664565705915], [84.88950503942966, 23.16719305617001], [84.90326772956283, 23.055837950373387], [84.94302661216975, 23.002222529063904], [84.9858438703618, 22.91973726551085], [84.97972711919151, 22.785011335040863], [84.85739209578563, 22.72039787859097], [84.73352788458716, 22.801508387751472], [84.69529818977281, 22.741019194479232], [84.55767128844118, 22.732770668123926], [84.55614210064861, 22.787760843825964], [84.44909895516847, 22.835877247565247], [84.41545682373184, 22.7643900191526], [84.29312180032596, 22.772638545507903], [84.32370555617743, 22.850999545883305], [84.39710657022096, 22.927985791866156], [84.37416875333236, 22.97885170439054], [84.17843271588293, 22.98022645878309], [84.06374363143992, 23.113577634860526], [84.03774743896616, 23.171317319347665], [84.07444794598793, 23.33353833766867]]]}}, {"type": "Feature", "properties": {"district": "Khunti", "dt_code": "365", "st_nm": "Jharkhand", "st_code": "20", "year": "2011_c"}, "geometry": {"type": "Polygon", "coordinates": [[[84.94302661216975, 23.002222529063904], [85.05465732102762, 23.120451406823282], [85.04701138206474, 23.19468814402103], [85.08829945246424, 23.24280454776031], [85.22745554158843, 23.267550126826226], [85.22133879041814, 23.208435687946537], [85.38496188422351, 23.19331338962848], [85.48282990294823, 23.124575670000933], [85.61434005310956, 23.114952389253077], [85.65562812350905, 23.004972037849004], [85.54858497802888, 22.930735300651257], [85.5822271094655, 22.894991686444932], [85.51647203438485, 22.807007405321677], [85.34061543823887, 22.882618896911975], [85.24886417068447, 22.834502493172693], [85.15711290313004, 22.83175298438759], [85.0730075745385, 22.56780014101782], [85.04089463089446, 22.681904755599547], [85.04854056985732, 22.75339198401219], [84.97972711919151, 22.785011335040863], [84.9858438703618, 22.91973726551085], [84.94302661216975, 23.002222529063904]]]}}, {"type": "Feature", "properties": {"district": "Saraikela-Kharsawan", "dt_code": "369", "st_nm": "Jharkhand", "st_code": "20", "year": "2011_c"}, "geometry": {"type": "Polygon", "coordinates": [[[86.06697963971135, 22.556802105877413], [85.96299486981634, 22.485314877464766], [85.90029817032082, 22.525182754848743], [85.91406086045399, 22.604918509616695], [85.86512685109163, 22.712149352235663], [85.72444157417485, 22.684654264384648], [85.70150375728625, 22.807007405321677], [85.6464529967536, 22.850999545883305], [85.51647203438485, 22.807007405321677], [85.5822271094655, 22.894991686444932], [85.72902913755257, 22.944482844576765], [85.85748091212875, 22.900490704015137], [85.81007609055898, 23.07645926626165], [85.88500629239508, 23.16719305617001], [86.04404182282273, 23.145196985889196], [86.24130704806473, 22.9967235114937], [86.18778547532466, 22.94723235336187], [86.19848978987267, 22.818005440462084], [86.15873090726576, 22.75201722961964], [86.14955578051031, 22.63103884307516], [86.06697963971135, 22.556802105877413]]]}}, {"type": "Feature", "properties": {"district": "East Singhbhum", "dt_code": "357", "st_nm": "Jharkhand", "st_code": "20", "year": "2011_c"}, "geometry": {"type": "Polygon", "coordinates": [[[86.72758876610314, 22.21586301652479], [86.55479054554232, 22.298348280077846], [86.49668140942453, 22.346464683817125], [86.42939714655128, 22.316220087181005], [86.3590545080929, 22.349214192602226], [86.28259511846423, 22.44819650886589], [86.11897202465885, 22.486689631857317], [86.06697963971135, 22.556802105877413], [86.14955578051031, 22.63103884307516], [86.15873090726576, 22.75201722961964], [86.19848978987267, 22.818005440462084], [86.18778547532466, 22.94723235336187], [86.24130704806473, 22.9967235114937], [86.50126897280225, 22.993974002708597], [86.43551389772158, 22.926611037473606], [86.41869283200327, 22.790510352611065], [86.55937810892004, 22.713524106628213], [86.64195424971902, 22.65715917653363], [86.65877531543732, 22.576048667373126], [86.76581846091747, 22.576048667373126], [86.80098978014666, 22.488064386249867], [86.7642892731249, 22.426200438585077], [86.84533622613131, 22.400080105126612], [86.83310272379072, 22.32584336792886], [86.72758876610314, 22.21586301652479]]]}}, {"type": "Feature", "properties": {"district": "West Singhbhum", "dt_code": "368", "st_nm": "Jharkhand", "st_code": "20", "year": "2011_c"}, "geometry": {"type": "Polygon", "coordinates": [[[85.96299486981634, 22.485314877464766], [86.01804563034898, 22.426200438585077], [86.028749944897, 22.334091894284168], [85.97369918436435, 22.24748236755346], [86.03180832048216, 22.18974268306632], [86.00887050359354, 22.115505945868577], [85.89723979473567, 21.983529524183687], [85.78407989808522, 21.984904278576238], [85.74890857885603, 22.074263314092047], [85.68315350377537, 22.05776626138144], [85.3971953865641, 22.163622349607856], [85.27486036315821, 22.082511840447353], [85.23815985613645, 22.009649857642156], [85.18005072001864, 22.072888559699496], [85.02866112855386, 22.12237971783133], [85.07759513791622, 22.25710564830132], [85.06994919895335, 22.490813895034968], [85.0730075745385, 22.56780014101782], [85.15711290313004, 22.83175298438759], [85.24886417068447, 22.834502493172693], [85.34061543823887, 22.882618896911975], [85.51647203438485, 22.807007405321677], [85.6464529967536, 22.850999545883305], [85.70150375728625, 22.807007405321677], [85.72444157417485, 22.684654264384648], [85.86512685109163, 22.712149352235663], [85.91406086045399, 22.604918509616695], [85.90029817032082, 22.525182754848743], [85.96299486981634, 22.485314877464766]]]}}, {"type": "Feature", "properties": {"district": "Simdega", "dt_code": "367", "st_nm": "Jharkhand", "st_code": "20", "year": "2011_c"}, "geometry": {"type": "Polygon", "coordinates": [[[85.06994919895335, 22.490813895034968], [84.95831849009548, 22.44544700008079], [84.80998727421584, 22.453695526436093], [84.75034895030547, 22.419326666622325], [84.53473347155258, 22.427575192977628], [84.42921951386501, 22.351963701387326], [84.29159261253338, 22.342340420639474], [84.19678296939382, 22.3780840348458], [84.11114845300969, 22.47706635110946], [84.01175124649241, 22.527932263633843], [84.01022205869984, 22.57329915858802], [84.08362307274338, 22.637912615037916], [84.1524365234092, 22.636537860645365], [84.23807103979331, 22.6915280363474], [84.29312180032596, 22.772638545507903], [84.41545682373184, 22.7643900191526], [84.44909895516847, 22.835877247565247], [84.55614210064861, 22.787760843825964], [84.55767128844118, 22.732770668123926], [84.69529818977281, 22.741019194479232], [84.73352788458716, 22.801508387751472], [84.85739209578563, 22.72039787859097], [84.97972711919151, 22.785011335040863], [85.04854056985732, 22.75339198401219], [85.04089463089446, 22.681904755599547], [85.0730075745385, 22.56780014101782], [85.06994919895335, 22.490813895034968]]]}}, {"type": "Feature", "properties": {"district": "Koderma", "dt_code": "348", "st_nm": "Jharkhand", "st_code": "20", "year": "2011_c"}, "geometry": {"type": "Polygon", "coordinates": [[[85.3742575696755, 24.55432023825387], [85.5424682268586, 24.53232416797305], [85.67703675260508, 24.59143860685274], [85.66633243805705, 24.661551080872837], [85.73820426430802, 24.81964783601619], [85.9018273581134, 24.766032414706704], [85.81772202952185, 24.723415028537627], [85.77337558353722, 24.610685168348454], [85.86818522667677, 24.52682515040285], [85.84983497316588, 24.273870342173485], [85.64186543337588, 24.33161002666062], [85.51647203438485, 24.317862482735112], [85.3971953865641, 24.36185462329674], [85.41248726448984, 24.40722151825092], [85.33144031148343, 24.510328097692238], [85.3742575696755, 24.55432023825387]]]}}, {"type": "Feature", "properties": {"district": "Hazaribagh", "dt_code": "360", "st_nm": "Jharkhand", "st_code": "20", "year": "2011_c"}, "geometry": {"type": "Polygon", "coordinates": [[[85.08829945246424, 24.370103149652046], [85.28862305329137, 24.522700887225195], [85.33144031148343, 24.510328097692238], [85.41248726448984, 24.40722151825092], [85.3971953865641, 24.36185462329674], [85.51647203438485, 24.317862482735112], [85.64186543337588, 24.33161002666062], [85.84983497316588, 24.273870342173485], [85.84677659758074, 24.218880166471447], [85.68162431598279, 24.17626278030237], [85.7106788840417, 24.102026043104622], [85.83607228303273, 24.071781446468503], [85.91406086045399, 23.949428305531473], [85.83454309524015, 23.84082270851995], [85.73667507651544, 23.950803059924024], [85.64339462116845, 23.954927323101675], [85.426249954623, 23.79408105917322], [85.46906721281506, 23.76521121692965], [85.42319157903785, 23.684100707769147], [85.33602787486116, 23.70472202365741], [85.23051391717358, 23.684100707769147], [85.07606595012365, 23.66760365505854], [85.05312813323505, 23.711595795620166], [85.021015189591, 23.882065340296478], [85.02407356517614, 23.99204569170055], [85.20145934911469, 23.956302077494225], [85.24886417068447, 24.034663077869627], [85.16934640547063, 24.09927653431952], [85.1601712787152, 24.229878201611854], [85.27180198757307, 24.216130657686346], [85.322265184728, 24.309613956379806], [85.22592635379586, 24.34398281619358], [85.10053295480482, 24.32886051787552], [85.08829945246424, 24.370103149652046]]]}}], "metadata": {"source": "udit-001/india-maps-data (Census 2011)", "url": "https://github.com/udit-001/india-maps-data", "license": "ODbL (Open Database License)", "feature_count": 25}}