{"type": "FeatureCollection", "features": [{"type": "Feature", "properties": {"district": "Kupwara", "dt_code": "001", "st_nm": "Jammu and Kashmir", "st_code": "01", "year": "2011_c"}, "geometry": {"type": "Polygon", "coordinates": [[[74.31975901716089, 34.786617182010204], [74.5628998761801, 34.76874537490704], [74.60112957099443, 34.73712602387837], [74.54760799825436, 34.5542836896691], [74.4298605382262, 34.43330530312462], [74.34728439742722, 34.346695776393915], [74.18366130362185, 34.31920068854289], [74.14084404542979, 34.2435891969526], [73.99404201734272, 34.2573367408781], [73.93746206901749, 34.332948232468404], [73.76007628507895, 34.35219479396412], [73.80901029444131, 34.42505677676931], [73.89311562303286, 34.44980235583523], [73.9665166370764, 34.57765451434246], [73.9772209516244, 34.68626011135399], [74.15766511114809, 34.68351060256888], [74.31975901716089, 34.786617182010204]]]}}, {"type": "Feature", "properties": {"district": "Bandipora", "dt_code": "009", "st_nm": "Jammu and Kashmir", "st_code": "01", "year": "2011_c"}, "geometry": {"type": "Polygon", "coordinates": [[[74.60112957099443, 34.73712602387837], [74.73263972115576, 34.67113781303593], [74.92531738302004, 34.66288928668062], [75.0201270261596, 34.62577091808174], [75.13175773501747, 34.646392233970005], [75.23880088049764, 34.62852042686684], [75.3565483405258, 34.529538110603184], [75.31984783350403, 34.43468005751717], [75.37489859403668, 34.38793840817044], [75.14857880073579, 34.34532102200136], [75.01706865057446, 34.43605481190972], [74.89932119054629, 34.448427601442674], [74.89320443937599, 34.37556561863748], [74.74487322349636, 34.31370167097269], [74.6668846460751, 34.32195019732799], [74.65923870711224, 34.22709214424198], [74.70052677751173, 34.18447475807291], [74.68523489958598, 34.17760098611015], [74.5506663738395, 34.24221444256004], [74.51702424240288, 34.29720461826208], [74.54149124708407, 34.397561688918294], [74.4298605382262, 34.43330530312462], [74.54760799825436, 34.5542836896691], [74.60112957099443, 34.73712602387837]]]}}, {"type": "Feature", "properties": {"district": "Baramulla", "dt_code": "008", "st_nm": "Jammu and Kashmir", "st_code": "01", "year": "2011_c"}, "geometry": {"type": "Polygon", "coordinates": [[[73.99404201734272, 34.2573367408781], [74.14084404542979, 34.2435891969526], [74.18366130362185, 34.31920068854289], [74.34728439742722, 34.346695776393915], [74.4298605382262, 34.43330530312462], [74.54149124708407, 34.397561688918294], [74.51702424240288, 34.29720461826208], [74.5506663738395, 34.24221444256004], [74.68523489958598, 34.17760098611015], [74.69288083854886, 34.137733108726174], [74.61642144892018, 34.11436228405281], [74.4757361720034, 34.00438193264874], [74.41609784809303, 33.908149125170176], [74.24635800311736, 34.020878985359346], [73.9542831347358, 34.0167547221817], [73.89464481082543, 34.06487112592097], [73.93287450563977, 34.14048261751128], [74.00321714409816, 34.18447475807291], [73.99404201734272, 34.2573367408781]]]}}, {"type": "Feature", "properties": {"district": "Ganderbal", "dt_code": "011", "st_nm": "Jammu and Kashmir", "st_code": "01", "year": "2011_c"}, "geometry": {"type": "Polygon", "coordinates": [[[75.37489859403668, 34.38793840817044], [75.38407372079212, 34.36181807471198], [75.41312828885103, 34.28345707433657], [75.49723361744257, 34.23396591620474], [75.37642778182925, 34.206470828353716], [75.2693846363491, 34.25596198648555], [75.10576154254373, 34.16660295096975], [75.01095189940416, 34.161103933399545], [74.93143413419034, 34.20234656517607], [74.85038718118393, 34.12398556480066], [74.70052677751173, 34.18447475807291], [74.65923870711224, 34.22709214424198], [74.6668846460751, 34.32195019732799], [74.74487322349636, 34.31370167097269], [74.89320443937599, 34.37556561863748], [74.89932119054629, 34.448427601442674], [75.01706865057446, 34.43605481190972], [75.14857880073579, 34.34532102200136], [75.37489859403668, 34.38793840817044]]]}}, {"type": "Feature", "properties": {"district": "Anantnag", "dt_code": "014", "st_nm": "Jammu and Kashmir", "st_code": "01", "year": "2011_c"}, "geometry": {"type": "Polygon", "coordinates": [[[75.49723361744257, 34.23396591620474], [75.59510163616729, 34.19822230199841], [75.53240493667177, 34.11848654723046], [75.52170062212375, 34.04699931881782], [75.44677042028763, 34.040125546855066], [75.39477803534014, 33.90265010759997], [75.52170062212375, 33.715683510213054], [75.52934656108661, 33.60157889563132], [75.45747473483566, 33.49847231619], [75.47276661276139, 33.399489999926345], [75.38254453299955, 33.36374638572002], [75.15163717632093, 33.55621200067715], [75.10576154254373, 33.63182349226744], [75.1195242326769, 33.76517466834488], [75.03388971629276, 33.780296966662945], [75.03236052850019, 33.780296966662945], [75.03083134070762, 33.780296966662945], [75.04306484304821, 33.81329107208416], [75.19292524672042, 33.904024861992525], [75.22656737815704, 33.956265528909455], [75.20515874906101, 34.06899538909863], [75.15010798852836, 34.08549244180924], [75.10576154254373, 34.16660295096975], [75.2693846363491, 34.25596198648555], [75.37642778182925, 34.206470828353716], [75.49723361744257, 34.23396591620474]]]}}, {"type": "Feature", "properties": {"district": "Kishtwar", "dt_code": "018", "st_nm": "Jammu and Kashmir", "st_code": "01", "year": "2011_c"}, "geometry": {"type": "Polygon", "coordinates": [[[75.59510163616729, 34.19822230199841], [75.6868529037217, 34.15972917900699], [75.86423868766023, 33.978261599190276], [76.02174503029532, 33.99750816068598], [76.04774122276908, 33.92877044105844], [76.17007624617496, 33.79541926498101], [76.26488588931451, 33.74180384367152], [76.27100264048481, 33.642821527407854], [76.30923233529916, 33.571334298995204], [76.50190999716344, 33.516344123293166], [76.77257623644896, 33.251016525530844], [76.74810923176778, 33.1795292971182], [76.64565364966535, 33.16165749001504], [76.56919426003667, 33.20977389375432], [76.41015872960901, 33.18640306908095], [76.29241126958084, 33.1039178055279], [76.22206863112245, 33.021432541974846], [76.21289350436702, 33.08879550720984], [76.14560924149379, 33.16028273562249], [75.9988072134067, 33.087420752817295], [75.85965112428252, 33.12453912141616], [75.692969654892, 33.23864373599789], [75.60427676292272, 33.256515543101045], [75.47276661276139, 33.399489999926345], [75.45747473483566, 33.49847231619], [75.52934656108661, 33.60157889563132], [75.52170062212375, 33.715683510213054], [75.39477803534014, 33.90265010759997], [75.44677042028763, 34.040125546855066], [75.52170062212375, 34.04699931881782], [75.53240493667177, 34.11848654723046], [75.59510163616729, 34.19822230199841]]]}}, {"type": "Feature", "properties": {"district": "Srinagar", "dt_code": "010", "st_nm": "Jammu and Kashmir", "st_code": "01", "year": "2011_c"}, "geometry": {"type": "Polygon", "coordinates": [[[74.68523489958598, 34.17760098611015], [74.70052677751173, 34.18447475807291], [74.85038718118393, 34.12398556480066], [74.93143413419034, 34.20234656517607], [75.01095189940416, 34.161103933399545], [75.10576154254373, 34.16660295096975], [75.15010798852836, 34.08549244180924], [75.07517778669225, 34.11711179283791], [74.91461306847202, 34.020878985359346], [74.69288083854886, 34.137733108726174], [74.68523489958598, 34.17760098611015]]]}}, {"type": "Feature", "properties": {"district": "Budgam", "dt_code": "002", "st_nm": "Jammu and Kashmir", "st_code": "01", "year": "2011_c"}, "geometry": {"type": "Polygon", "coordinates": [[[74.41609784809303, 33.908149125170176], [74.4757361720034, 34.00438193264874], [74.61642144892018, 34.11436228405281], [74.69288083854886, 34.137733108726174], [74.91461306847202, 34.020878985359346], [74.8182742375399, 33.86415698460854], [74.71581865543746, 33.80504254572886], [74.56748743955782, 33.69231268553968], [74.54302043487664, 33.68131465039927], [74.4527983551148, 33.75280187881192], [74.41609784809303, 33.908149125170176]]]}}, {"type": "Feature", "properties": {"district": "Pulwama", "dt_code": "012", "st_nm": "Jammu and Kashmir", "st_code": "01", "year": "2011_c"}, "geometry": {"type": "Polygon", "coordinates": [[[75.15010798852836, 34.08549244180924], [75.20515874906101, 34.06899538909863], [75.22656737815704, 33.956265528909455], [75.19292524672042, 33.904024861992525], [75.04306484304821, 33.81329107208416], [74.87638337365769, 33.78854549301825], [74.71581865543746, 33.80504254572886], [74.8182742375399, 33.86415698460854], [74.91461306847202, 34.020878985359346], [75.07517778669225, 34.11711179283791], [75.15010798852836, 34.08549244180924]]]}}, {"type": "Feature", "properties": {"district": "Punch", "dt_code": "005", "st_nm": "Jammu and Kashmir", "st_code": "01", "year": "2011_c"}, "geometry": {"type": "Polygon", "coordinates": [[[73.89464481082543, 34.06487112592097], [73.9542831347358, 34.0167547221817], [74.24635800311736, 34.020878985359346], [74.41609784809303, 33.908149125170176], [74.4527983551148, 33.75280187881192], [74.54302043487664, 33.68131465039927], [74.51396586681774, 33.59882938684622], [74.5736041907281, 33.50809559693786], [74.5277285569509, 33.46822771955389], [74.42221459926333, 33.56721003581755], [74.20965749609559, 33.54521396553674], [74.2264785618139, 33.48884903544215], [74.16684023790353, 33.411862789459306], [74.14696079660007, 33.53971494796653], [74.0643846558011, 33.55071298310694], [73.95275394694323, 33.62220021151958], [73.84723998925566, 33.59333036927602], [73.70349633675373, 33.62220021151958], [73.59798237906615, 33.712934001427946], [73.5597526842518, 33.77617270348529], [73.58880725231072, 33.88340354610426], [73.52152298943747, 33.98513537115302], [73.48788085800085, 34.144606880688926], [73.53375649177806, 34.151480652651685], [73.6530331395988, 34.06349637152843], [73.80595191885617, 34.08136817863159], [73.89464481082543, 34.06487112592097]]]}}, {"type": "Feature", "properties": {"district": "Shopiyan", "dt_code": "013", "st_nm": "Jammu and Kashmir", "st_code": "01", "year": "2011_c"}, "geometry": {"type": "Polygon", "coordinates": [[[75.04306484304821, 33.81329107208416], [75.03083134070762, 33.780296966662945], [74.9513135754938, 33.73905433488642], [74.96507626562695, 33.68131465039927], [74.87026662248739, 33.62357496591214], [74.68064733620827, 33.701935966287536], [74.56748743955782, 33.69231268553968], [74.71581865543746, 33.80504254572886], [74.87638337365769, 33.78854549301825], [75.04306484304821, 33.81329107208416]]]}}, {"type": "Feature", "properties": {"district": "Kulgam", "dt_code": "015", "st_nm": "Jammu and Kashmir", "st_code": "01", "year": "2011_c"}, "geometry": {"type": "Polygon", "coordinates": [[[75.03388971629276, 33.780296966662945], [75.1195242326769, 33.76517466834488], [75.10576154254373, 33.63182349226744], [75.15163717632093, 33.55621200067715], [75.02318540174475, 33.49847231619], [74.79533642065128, 33.46547821076879], [74.71123109205973, 33.524592649648476], [74.62559657567562, 33.4957228074049], [74.5736041907281, 33.50809559693786], [74.51396586681774, 33.59882938684622], [74.54302043487664, 33.68131465039927], [74.56748743955782, 33.69231268553968], [74.68064733620827, 33.701935966287536], [74.87026662248739, 33.62357496591214], [74.96507626562695, 33.68131465039927], [74.9513135754938, 33.73905433488642], [75.03083134070762, 33.780296966662945], [75.03236052850019, 33.780296966662945], [75.03388971629276, 33.780296966662945]]]}}, {"type": "Feature", "properties": {"district": "Rajouri", "dt_code": "006", "st_nm": "Jammu and Kashmir", "st_code": "01", "year": "2011_c"}, "geometry": {"type": "Polygon", "coordinates": [[[74.16684023790353, 33.411862789459306], [74.2264785618139, 33.48884903544215], [74.20965749609559, 33.54521396553674], [74.42221459926333, 33.56721003581755], [74.5277285569509, 33.46822771955389], [74.5736041907281, 33.50809559693786], [74.62559657567562, 33.4957228074049], [74.68523489958598, 33.35962212254237], [74.69135165075627, 33.24139324478299], [74.57054581514296, 33.028306313937605], [74.33352170729405, 32.954069576739855], [74.31975901716089, 33.02968106833015], [74.16378186231839, 33.075047963284334], [74.14696079660007, 33.139661419734225], [74.00168795630559, 33.21802242010963], [74.00474633189073, 33.25926505188615], [74.13166891867434, 33.30738145562543], [74.16684023790353, 33.411862789459306]]]}}, {"type": "Feature", "properties": {"district": "Ramban", "dt_code": "017", "st_nm": "Jammu and Kashmir", "st_code": "01", "year": "2011_c"}, "geometry": {"type": "Polygon", "coordinates": [[[75.15163717632093, 33.55621200067715], [75.38254453299955, 33.36374638572002], [75.34890240156292, 33.29775817487757], [75.37642778182925, 33.202900121791565], [75.33513971142978, 33.141036174126775], [75.3565483405258, 33.06954894571413], [75.23421331711991, 33.149284700482085], [75.09199885241057, 33.18640306908095], [75.03694809187792, 33.207024384969216], [75.01706865057446, 33.31150571880309], [75.05988590876652, 33.35824736814982], [75.00942271161159, 33.41598705263695], [75.02318540174475, 33.49847231619], [75.15163717632093, 33.55621200067715]]]}}, {"type": "Feature", "properties": {"district": "Reasi", "dt_code": "020", "st_nm": "Jammu and Kashmir", "st_code": "01", "year": "2011_c"}, "geometry": {"type": "Polygon", "coordinates": [[[74.62559657567562, 33.4957228074049], [74.71123109205973, 33.524592649648476], [74.79533642065128, 33.46547821076879], [75.02318540174475, 33.49847231619], [75.00942271161159, 33.41598705263695], [75.05988590876652, 33.35824736814982], [75.01706865057446, 33.31150571880309], [75.03694809187792, 33.207024384969216], [75.09199885241057, 33.18640306908095], [75.02930215291505, 33.09979354235025], [75.08282372565512, 33.065424682536474], [74.9803681435527, 32.92794924328139], [74.93449250977548, 32.888081365897406], [74.85038718118393, 32.98981319094618], [74.73722728453349, 33.05992566496627], [74.62100901229789, 32.99943647169403], [74.57054581514296, 33.028306313937605], [74.69135165075627, 33.24139324478299], [74.68523489958598, 33.35962212254237], [74.62559657567562, 33.4957228074049]]]}}, {"type": "Feature", "properties": {"district": "Doda", "dt_code": "016", "st_nm": "Jammu and Kashmir", "st_code": "01", "year": "2011_c"}, "geometry": {"type": "Polygon", "coordinates": [[[75.38254453299955, 33.36374638572002], [75.47276661276139, 33.399489999926345], [75.60427676292272, 33.256515543101045], [75.692969654892, 33.23864373599789], [75.85965112428252, 33.12453912141616], [75.9988072134067, 33.087420752817295], [76.14560924149379, 33.16028273562249], [76.21289350436702, 33.08879550720984], [76.22206863112245, 33.021432541974846], [76.11196711005717, 33.006310243656785], [76.08750010537598, 32.956819085524955], [75.95446076742208, 32.872959067579345], [75.85047599752707, 32.92932399767393], [75.80154198816471, 32.885331857112305], [75.68226534034397, 32.86196103243894], [75.65626914787022, 32.92382498010373], [75.56145950473066, 32.96506761188026], [75.45135798366536, 32.959568594310056], [75.3565483405258, 33.06954894571413], [75.33513971142978, 33.141036174126775], [75.37642778182925, 33.202900121791565], [75.34890240156292, 33.29775817487757], [75.38254453299955, 33.36374638572002]]]}}, {"type": "Feature", "properties": {"district": "Jammu", "dt_code": "021", "st_nm": "Jammu and Kashmir", "st_code": "01", "year": "2011_c"}, "geometry": {"type": "Polygon", "coordinates": [[[74.33352170729405, 32.954069576739855], [74.57054581514296, 33.028306313937605], [74.62100901229789, 32.99943647169403], [74.73722728453349, 33.05992566496627], [74.85038718118393, 32.98981319094618], [74.93449250977548, 32.888081365897406], [74.9803681435527, 32.92794924328139], [75.1653998664541, 32.765728224960384], [75.09199885241057, 32.71623706682855], [75.00483514823387, 32.74098264589446], [74.89779200275372, 32.64612459280845], [74.94213844873835, 32.585635399536216], [74.88861687599828, 32.521021943086325], [74.86873743469482, 32.48665308327254], [74.68064733620827, 32.49215210084275], [74.63783007801621, 32.61313048738723], [74.65923870711224, 32.78772429524119], [74.51396586681774, 32.74373215467956], [74.4466816039445, 32.78909904963375], [74.4115102847153, 32.896329892252716], [74.33352170729405, 32.954069576739855]]]}}, {"type": "Feature", "properties": {"district": "Kathua", "dt_code": "007", "st_nm": "Jammu and Kashmir", "st_code": "01", "year": "2011_c"}, "geometry": {"type": "Polygon", "coordinates": [[[75.68226534034397, 32.86196103243894], [75.80154198816471, 32.885331857112305], [75.92387701157061, 32.74785641785722], [75.91776026040031, 32.633751803275494], [75.83671330739391, 32.511398662338465], [75.72814097412119, 32.452284223458776], [75.6868529037217, 32.390420275793986], [75.59663082395986, 32.378047486261025], [75.51252549536831, 32.30793501224093], [75.34125646260006, 32.34642813523236], [75.20515874906101, 32.417915363645], [75.2586803218011, 32.48665308327254], [75.28467651427484, 32.642000329630804], [75.41312828885103, 32.67911869822967], [75.49417524185742, 32.764353470567826], [75.65473996007765, 32.771227242530585], [75.68226534034397, 32.86196103243894]]]}}, {"type": "Feature", "properties": {"district": "Udhampur", "dt_code": "019", "st_nm": "Jammu and Kashmir", "st_code": "01", "year": "2011_c"}, "geometry": {"type": "Polygon", "coordinates": [[[75.09199885241057, 33.18640306908095], [75.23421331711991, 33.149284700482085], [75.3565483405258, 33.06954894571413], [75.45135798366536, 32.959568594310056], [75.56145950473066, 32.96506761188026], [75.65626914787022, 32.92382498010373], [75.68226534034397, 32.86196103243894], [75.65473996007765, 32.771227242530585], [75.49417524185742, 32.764353470567826], [75.41312828885103, 32.67911869822967], [75.28467651427484, 32.642000329630804], [75.16081230307638, 32.7231108387913], [75.09199885241057, 32.71623706682855], [75.1653998664541, 32.765728224960384], [74.9803681435527, 32.92794924328139], [75.08282372565512, 33.065424682536474], [75.02930215291505, 33.09979354235025], [75.09199885241057, 33.18640306908095]]]}}, {"type": "Feature", "properties": {"district": "Samba", "dt_code": "022", "st_nm": "Jammu and Kashmir", "st_code": "01", "year": "2011_c"}, "geometry": {"type": "Polygon", "coordinates": [[[74.88861687599828, 32.521021943086325], [74.94213844873835, 32.585635399536216], [74.89779200275372, 32.64612459280845], [75.00483514823387, 32.74098264589446], [75.09199885241057, 32.71623706682855], [75.16081230307638, 32.7231108387913], [75.28467651427484, 32.642000329630804], [75.2586803218011, 32.48665308327254], [75.20515874906101, 32.417915363645], [75.1072907303363, 32.46053274981408], [74.94672601211607, 32.446785205888574], [74.88861687599828, 32.521021943086325]]]}}, {"type": "Feature", "properties": {"district": "Muzaffarabad", "dt_code": "992", "st_nm": "Jammu and Kashmir", "st_code": "01", "year": "2011_c"}, "geometry": {"type": "Polygon", "coordinates": [[[74.14696079660007, 35.0973116747267], [74.25247475428765, 35.036822481454465], [74.38092652886384, 35.05744379734273], [74.48644048655142, 35.10968446425966], [74.58736688086127, 35.00932739360344], [74.56748743955782, 34.8732267087409], [74.45738591849252, 34.85260539285264], [74.41303947250788, 34.79898997154316], [74.31975901716089, 34.786617182010204], [74.15766511114809, 34.68351060256888], [73.9772209516244, 34.68626011135399], [73.9665166370764, 34.57765451434246], [73.89311562303286, 34.44980235583523], [73.80901029444131, 34.42505677676931], [73.76007628507895, 34.35219479396412], [73.93746206901749, 34.332948232468404], [73.99404201734272, 34.2573367408781], [74.00321714409816, 34.18447475807291], [73.93287450563977, 34.14048261751128], [73.89464481082543, 34.06487112592097], [73.80595191885617, 34.08136817863159], [73.6530331395988, 34.06349637152843], [73.53375649177806, 34.151480652651685], [73.48788085800085, 34.144606880688926], [73.49246842137858, 34.220218372279234], [73.39001283927614, 34.37419086424493], [73.44659278760136, 34.57353025116481], [73.61786182036961, 34.58590304069777], [73.74937197053094, 34.786617182010204], [73.96345826149124, 34.841607357712235], [74.07355978255654, 34.93921491958335], [74.06591384359368, 35.04782051659487], [74.14696079660007, 35.0973116747267]]]}}, {"type": "Feature", "properties": {"district": "Mirpur", "dt_code": "991", "st_nm": "Jammu and Kashmir", "st_code": "01", "year": "2011_c"}, "geometry": {"type": "Polygon", "coordinates": [[[73.59798237906615, 33.712934001427946], [73.70349633675373, 33.62220021151958], [73.84723998925566, 33.59333036927602], [73.95275394694323, 33.62220021151958], [74.0643846558011, 33.55071298310694], [74.14696079660007, 33.53971494796653], [74.16684023790353, 33.411862789459306], [74.13166891867434, 33.30738145562543], [74.00474633189073, 33.25926505188615], [74.00168795630559, 33.21802242010963], [74.14696079660007, 33.139661419734225], [74.16378186231839, 33.075047963284334], [74.31975901716089, 33.02968106833015], [74.33352170729405, 32.954069576739855], [74.4115102847153, 32.896329892252716], [74.4466816039445, 32.78909904963375], [74.38245571665641, 32.757479698605074], [74.17754455245155, 32.882582348327205], [74.05979709242338, 32.90870268178567], [73.95734151032094, 32.98706368216108], [73.82888973574477, 33.00768499804934], [73.688204458828, 33.087420752817295], [73.62703694712505, 33.090170261602395], [73.65609151518395, 33.208399139361774], [73.56434024762953, 33.34175031543921], [73.62092019595475, 33.57408380778031], [73.56128187204439, 33.62082545712704], [73.59798237906615, 33.712934001427946]]]}}], "metadata": {"source": "udit-001/india-maps-data (Census 2011)", "url": "https://github.com/udit-001/india-maps-data", "license": "ODbL (Open Database License)", "feature_count": 23}}