{"type": "FeatureCollection", "features": [{"type": "Feature", "properties": {"district": "Bidar", "dt_code": "558", "st_nm": "Karnataka", "st_code": "29", "year": "2011_c"}, "geometry": {"type": "Polygon", "coordinates": [[[77.26497470565766, 18.422915647476863], [77.31696709060516, 18.442162208972576], [77.4133059215373, 18.392671050840743], [77.40871835815958, 18.301937260932384], [77.4652983064848, 18.262069383548408], [77.55093282286893, 18.292313980184527], [77.60139602002386, 18.27581692747392], [77.56316632520951, 18.196081172705966], [77.5983376444387, 18.09297459326465], [77.54787444728377, 18.055856224665774], [77.65644678055651, 17.969246697935066], [77.58610414209812, 17.907382750270276], [77.53717013273577, 17.77953059176304], [77.45306480414422, 17.694295819424887], [77.44388967738877, 17.584315468020815], [77.31085033943486, 17.595313503161222], [77.2741498324131, 17.626932854189896], [77.08605973392655, 17.658552205218562], [76.89949882323256, 17.644804661293055], [76.68541253227227, 17.681923029891927], [76.71446710033116, 17.780905346155592], [76.79092648995984, 17.826272241109773], [76.74046329280492, 17.89913422391497], [76.77563461203411, 17.877138153634156], [76.91937826453602, 17.915631276625582], [76.90561557440286, 18.009114575319042], [76.95302039597264, 18.040733926347713], [76.9209074523286, 18.117720172330564], [76.95149120818007, 18.18783264635066], [77.06465110483052, 18.150714277751785], [77.24662445214678, 18.37067498055993], [77.26497470565766, 18.422915647476863]]]}}, {"type": "Feature", "properties": {"district": "Kalaburagi", "dt_code": "579", "st_nm": "Karnataka", "st_code": "29", "year": "2011_c"}, "geometry": {"type": "Polygon", "coordinates": [[[76.4285089831199, 17.643429906900504], [76.48967649482285, 17.659926959611113], [76.52331862625945, 17.76028403026733], [76.65635796421337, 17.71766664409825], [76.68541253227227, 17.681923029891927], [76.89949882323256, 17.644804661293055], [77.08605973392655, 17.658552205218562], [77.2741498324131, 17.626932854189896], [77.31085033943486, 17.595313503161222], [77.44388967738877, 17.584315468020815], [77.46682749427738, 17.57744169605806], [77.4943528745437, 17.566443660917656], [77.6855013486154, 17.51145348521562], [77.51270312805458, 17.430342976055115], [77.48364855999569, 17.354731484464814], [77.37966379010068, 17.22275506277993], [77.36437191217495, 17.158141606330037], [77.46376911869223, 17.110025202590755], [77.49741125012885, 17.042662237355763], [77.46682749427738, 16.954677956232505], [77.4591815553145, 16.88456548221241], [77.34143409528635, 16.93405664034424], [77.16557749914037, 16.939555657914447], [77.01724628326073, 16.898313026137917], [76.98207496403154, 16.808953990622108], [76.91020313778058, 16.817202516977414], [76.87044425517367, 16.895563517352816], [76.73434654163462, 16.77870939398599], [76.596719640303, 16.76496185006048], [76.46215111455652, 16.711346428750993], [76.3703998470021, 16.76908611323813], [76.37498741037982, 16.858445148753944], [76.44074248546049, 16.997295342401582], [76.36275390803924, 17.115524220160957], [76.36887065920953, 17.166390132685343], [76.24194807242591, 17.15126783436728], [76.1272589879829, 17.244751133060745], [76.07526660303539, 17.33685967736165], [76.22971457008532, 17.365729519605225], [76.38263334934268, 17.314863607080838], [76.37192903479468, 17.435841993625317], [76.33064096439519, 17.47021085343909], [76.33217015218776, 17.596688257553772], [76.4285089831199, 17.643429906900504]]]}}, {"type": "Feature", "properties": {"district": "Belagavi", "dt_code": "555", "st_nm": "Karnataka", "st_code": "29", "year": "2011_c"}, "geometry": {"type": "Polygon", "coordinates": [[[74.695939214134, 16.715470691928648], [74.85038718118393, 16.773210376415786], [74.91920063184975, 16.773210376415786], [74.90237956613144, 16.862569411931595], [75.08894047682541, 16.9519284474474], [75.18222093217241, 16.843322850435882], [75.26479707297138, 16.862569411931595], [75.28008895089712, 16.956052710625055], [75.34125646260006, 16.956052710625055], [75.33513971142978, 16.869443183894347], [75.39477803534014, 16.862569411931595], [75.38407372079212, 16.76358709566793], [75.36266509169609, 16.714095937536097], [75.26632626076396, 16.692099867255283], [75.2586803218011, 16.606865094917126], [75.15775392749123, 16.58349427024376], [75.11493666929917, 16.50650802426091], [75.00789352381902, 16.538127375289584], [74.98801408251556, 16.452892602951426], [75.04306484304821, 16.31816667248144], [75.1302285472249, 16.330539462014396], [75.14857880073579, 16.282423058275114], [75.23421331711991, 16.25905223360175], [75.2862057020674, 16.20131254911461], [75.2755013875194, 16.12020203995411], [75.43912448132477, 16.116077776776457], [75.41924504002131, 16.052839074719117], [75.45135798366536, 15.886493793220456], [75.36419427948867, 15.805383284059953], [75.30302676778572, 15.812257056022709], [75.28926407765256, 15.69127866947823], [75.20210037347586, 15.648661283309151], [75.10881991812887, 15.672032107982517], [75.05682753318138, 15.63216423059854], [74.96660545341953, 15.654160300879354], [74.83050773988047, 15.610168160317727], [74.81368667416217, 15.504312072091308], [74.73875647232606, 15.414953036575499], [74.61336307333502, 15.358588106480912], [74.54454962266921, 15.41632779096805], [74.42680216264105, 15.398455983864888], [74.42221459926333, 15.46306944031478], [74.34269683404949, 15.518059616016815], [74.2784709467614, 15.522183879194468], [74.23718287636191, 15.667907844804864], [74.11790622854117, 15.651410792094254], [74.1224937919189, 15.720148511721797], [74.20965749609559, 15.780637704994037], [74.2387120641545, 15.744894090787714], [74.34575520963465, 15.764140652283427], [74.38704328003413, 15.904365600323619], [74.46350266966282, 16.039091530793606], [74.3717514021084, 16.07895940817758], [74.48032373538112, 16.147697127805127], [74.48032373538112, 16.249428952853894], [74.37328058990097, 16.26180174238685], [74.31670064157575, 16.32641519883674], [74.33199251950148, 16.45426735734398], [74.31517145378317, 16.554624428000192], [74.54454962266921, 16.635734937160695], [74.57054581514296, 16.554624428000192], [74.63018413905334, 16.58349427024376], [74.695939214134, 16.715470691928648]]]}}, {"type": "Feature", "properties": {"district": "Yadgir", "dt_code": "580", "st_nm": "Karnataka", "st_code": "29", "year": "2011_c"}, "geometry": {"type": "Polygon", "coordinates": [[[76.46215111455652, 16.711346428750993], [76.596719640303, 16.76496185006048], [76.73434654163462, 16.77870939398599], [76.87044425517367, 16.895563517352816], [76.91020313778058, 16.817202516977414], [76.98207496403154, 16.808953990622108], [77.01724628326073, 16.898313026137917], [77.16557749914037, 16.939555657914447], [77.34143409528635, 16.93405664034424], [77.4591815553145, 16.88456548221241], [77.47600262103282, 16.788332674733844], [77.4255394238779, 16.720969709498853], [77.45306480414422, 16.616488375664986], [77.41636429712244, 16.51750605940132], [77.24203688876905, 16.47351391883969], [77.28791252254626, 16.4089004623898], [77.17322343810325, 16.432271287063163], [77.15640237238493, 16.47213916444714], [77.00960034429787, 16.545001147252336], [76.97137064948353, 16.50375851547581], [76.87044425517367, 16.488636217157747], [76.84138968711477, 16.430896532670612], [76.74352166839006, 16.4089004623898], [76.4805013680674, 16.29204633902297], [76.33217015218776, 16.19443877715186], [76.30005720854372, 16.283797812667665], [76.33217015218776, 16.426772269492957], [76.4346257342902, 16.437770304633368], [76.4055711662313, 16.64260870912345], [76.46215111455652, 16.711346428750993]]]}}, {"type": "Feature", "properties": {"district": "Bagalkote", "dt_code": "556", "st_nm": "Karnataka", "st_code": "29", "year": "2011_c"}, "geometry": {"type": "Polygon", "coordinates": [[[75.45135798366536, 15.886493793220456], [75.41924504002131, 16.052839074719117], [75.43912448132477, 16.116077776776457], [75.2755013875194, 16.12020203995411], [75.2862057020674, 16.20131254911461], [75.23421331711991, 16.25905223360175], [75.14857880073579, 16.282423058275114], [75.1302285472249, 16.330539462014396], [75.04306484304821, 16.31816667248144], [74.98801408251556, 16.452892602951426], [75.00789352381902, 16.538127375289584], [75.11493666929917, 16.50650802426091], [75.15775392749123, 16.58349427024376], [75.2586803218011, 16.606865094917126], [75.26632626076396, 16.692099867255283], [75.36266509169609, 16.714095937536097], [75.38407372079212, 16.76358709566793], [75.49417524185742, 16.593117550991618], [75.49876280523515, 16.45426735734398], [75.63333133098162, 16.44326932220357], [75.95598995521465, 16.297545356593176], [76.02633259367303, 16.300294865378277], [76.06762066407252, 16.208186321077367], [76.23888969684077, 16.165568934908286], [76.30311558412886, 16.07346039060738], [76.32758258881003, 15.933235442567188], [76.28170695503283, 15.902990845931068], [76.22665619450018, 15.941483968922492], [76.14560924149379, 15.894742319575762], [76.05844553731708, 15.90711510910872], [76.07832497862054, 16.01022168855004], [75.97434020872554, 15.986850863876672], [75.97434020872554, 15.86174821415454], [75.87647219000083, 15.931860688174636], [75.84741762194193, 15.838377389481176], [75.73731610087663, 15.81363181041526], [75.64250645773706, 15.841126898266277], [75.52934656108661, 15.834253126303523], [75.45135798366536, 15.886493793220456]]]}}, {"type": "Feature", "properties": {"district": "Raichur", "dt_code": "559", "st_nm": "Karnataka", "st_code": "29", "year": "2011_c"}, "geometry": {"type": "Polygon", "coordinates": [[[76.33217015218776, 16.19443877715186], [76.4805013680674, 16.29204633902297], [76.74352166839006, 16.4089004623898], [76.84138968711477, 16.430896532670612], [76.87044425517367, 16.488636217157747], [76.97137064948353, 16.50375851547581], [77.00960034429787, 16.545001147252336], [77.15640237238493, 16.47213916444714], [77.17322343810325, 16.432271287063163], [77.28791252254626, 16.4089004623898], [77.41483510932987, 16.36765783061327], [77.48976531116598, 16.38552963771643], [77.59375008106099, 16.342912251547354], [77.50046962571399, 16.221933865002875], [77.51423231584715, 15.927736424996983], [77.24815363993935, 15.964854793595858], [77.07229704379338, 15.909864617893822], [77.02642141001618, 15.837002635088623], [76.94231608142462, 15.761391143498326], [76.91631988895088, 15.699527195833534], [76.8337437481519, 15.628039967420888], [76.8108059312633, 15.546929458260385], [76.68847090785741, 15.596420616392217], [76.69000009564998, 15.648661283309151], [76.596719640303, 15.699527195833534], [76.44685923663079, 15.733896055647307], [76.42697979532733, 15.89061805639811], [76.28170695503283, 15.902990845931068], [76.32758258881003, 15.933235442567188], [76.30311558412886, 16.07346039060738], [76.23888969684077, 16.165568934908286], [76.33217015218776, 16.19443877715186]]]}}, {"type": "Feature", "properties": {"district": "Koppal", "dt_code": "560", "st_nm": "Karnataka", "st_code": "29", "year": "2011_c"}, "geometry": {"type": "Polygon", "coordinates": [[[75.84741762194193, 15.838377389481176], [75.87647219000083, 15.931860688174636], [75.97434020872554, 15.86174821415454], [75.97434020872554, 15.986850863876672], [76.07832497862054, 16.01022168855004], [76.05844553731708, 15.90711510910872], [76.14560924149379, 15.894742319575762], [76.22665619450018, 15.941483968922492], [76.28170695503283, 15.902990845931068], [76.42697979532733, 15.89061805639811], [76.44685923663079, 15.733896055647307], [76.596719640303, 15.699527195833534], [76.69000009564998, 15.648661283309151], [76.68847090785741, 15.596420616392217], [76.8108059312633, 15.546929458260385], [76.79092648995984, 15.500187808913655], [76.61201151822873, 15.442448124426516], [76.49273487040799, 15.344840562555403], [76.36428309583181, 15.328343509844792], [76.29088208178827, 15.222487421618373], [76.18689731189326, 15.23486021115133], [76.09361685654628, 15.163372982738684], [75.95140239183694, 15.138627403672768], [75.88870569234142, 15.289850386853367], [75.8657678754528, 15.408079264612745], [75.82447980505333, 15.452071405174372], [75.89788081909686, 15.607418651532624], [75.87035543883053, 15.714649494151594], [75.96669426976267, 15.67890587994527], [76.03856609601362, 15.76826491546108], [75.92846457494832, 15.790260985741893], [75.84741762194193, 15.838377389481176]]]}}, {"type": "Feature", "properties": {"district": "Gadag", "dt_code": "561", "st_nm": "Karnataka", "st_code": "29", "year": "2011_c"}, "geometry": {"type": "Polygon", "coordinates": [[[75.28926407765256, 15.69127866947823], [75.30302676778572, 15.812257056022709], [75.36419427948867, 15.805383284059953], [75.45135798366536, 15.886493793220456], [75.52934656108661, 15.834253126303523], [75.64250645773706, 15.841126898266277], [75.73731610087663, 15.81363181041526], [75.84741762194193, 15.838377389481176], [75.92846457494832, 15.790260985741893], [76.03856609601362, 15.76826491546108], [75.96669426976267, 15.67890587994527], [75.87035543883053, 15.714649494151594], [75.89788081909686, 15.607418651532624], [75.82447980505333, 15.452071405174372], [75.8657678754528, 15.408079264612745], [75.88870569234142, 15.289850386853367], [75.95140239183694, 15.138627403672768], [75.90858513364488, 15.076763456007978], [75.70061559385486, 14.948911297500745], [75.63180214318905, 14.991528683669822], [75.5415800634272, 14.979155894136865], [75.53240493667177, 15.0341460698389], [75.41618666443617, 15.085011982363284], [75.43300773015449, 15.199116596945007], [75.41312828885103, 15.299473667601223], [75.49264605406485, 15.368211387228769], [75.48194173951683, 15.531807159942325], [75.52934656108661, 15.537306177512528], [75.5538135657678, 15.6472865289166], [75.48805849068712, 15.702276704618637], [75.41312828885103, 15.655535055271907], [75.28926407765256, 15.69127866947823]]]}}, {"type": "Feature", "properties": {"district": "Ballari", "dt_code": "565", "st_nm": "Karnataka", "st_code": "29", "year": "2011_c"}, "geometry": {"type": "Polygon", "coordinates": [[[76.8108059312633, 15.546929458260385], [76.8337437481519, 15.628039967420888], [76.91631988895088, 15.699527195833534], [76.94231608142462, 15.761391143498326], [77.02642141001618, 15.837002635088623], [77.0830013583414, 15.659659318449558], [77.0310089733939, 15.634913739383641], [77.03253816118647, 15.435574352463762], [77.06312191703795, 15.328343509844792], [77.15181480900722, 15.29259989563847], [77.12581861653346, 15.226611684796026], [77.15640237238493, 15.14000215806532], [77.11358511419287, 15.0341460698389], [76.9851333396167, 15.014899508343188], [76.80010161671528, 15.09601001750369], [76.76034273410838, 14.988779174884721], [76.6777665933094, 14.887047349835955], [76.71293791253859, 14.86505127955514], [76.64412446187278, 14.71245354198199], [76.5676650722441, 14.58735089225986], [76.51108512391887, 14.55985580440884], [76.42392141974217, 14.581851874689654], [76.33369933998033, 14.687707962916074], [76.18383893630812, 14.700080752449033], [76.12878817577547, 14.869175542732792], [75.96669426976267, 14.909043420116769], [75.80154198816471, 14.869175542732792], [75.82447980505333, 14.778441752824433], [75.75872472997266, 14.734449612262804], [75.6639150868331, 14.807311595068002], [75.70061559385486, 14.948911297500745], [75.90858513364488, 15.076763456007978], [75.95140239183694, 15.138627403672768], [76.09361685654628, 15.163372982738684], [76.18689731189326, 15.23486021115133], [76.29088208178827, 15.222487421618373], [76.36428309583181, 15.328343509844792], [76.49273487040799, 15.344840562555403], [76.61201151822873, 15.442448124426516], [76.79092648995984, 15.500187808913655], [76.8108059312633, 15.546929458260385]]]}}, {"type": "Feature", "properties": {"district": "Dharwad", "dt_code": "562", "st_nm": "Karnataka", "st_code": "29", "year": "2011_c"}, "geometry": {"type": "Polygon", "coordinates": [[[74.73875647232606, 15.414953036575499], [74.81368667416217, 15.504312072091308], [74.83050773988047, 15.610168160317727], [74.96660545341953, 15.654160300879354], [75.05682753318138, 15.63216423059854], [75.10881991812887, 15.672032107982517], [75.20210037347586, 15.648661283309151], [75.28926407765256, 15.69127866947823], [75.41312828885103, 15.655535055271907], [75.48805849068712, 15.702276704618637], [75.5538135657678, 15.6472865289166], [75.52934656108661, 15.537306177512528], [75.48194173951683, 15.531807159942325], [75.49264605406485, 15.368211387228769], [75.41312828885103, 15.299473667601223], [75.43300773015449, 15.199116596945007], [75.41618666443617, 15.085011982363284], [75.23880088049764, 15.108382807036648], [75.08282372565512, 15.075388701615427], [74.88861687599828, 15.050643122549511], [74.83203692767304, 15.135877894887667], [74.91002550509431, 15.251357263861943], [74.88861687599828, 15.307722193956529], [74.73875647232606, 15.414953036575499]]]}}, {"type": "Feature", "properties": {"district": "Uttara Kannada", "dt_code": "563", "st_nm": "Karnataka", "st_code": "29", "year": "2011_c"}, "geometry": {"type": "Polygon", "coordinates": [[[74.2784709467614, 15.522183879194468], [74.34269683404949, 15.518059616016815], [74.42221459926333, 15.46306944031478], [74.42680216264105, 15.398455983864888], [74.54454962266921, 15.41632779096805], [74.61336307333502, 15.358588106480912], [74.73875647232606, 15.414953036575499], [74.88861687599828, 15.307722193956529], [74.91002550509431, 15.251357263861943], [74.83203692767304, 15.135877894887667], [74.88861687599828, 15.050643122549511], [75.08282372565512, 15.075388701615427], [75.10270316695858, 14.933788999182685], [75.04153565525563, 14.77431748964678], [75.05071078201108, 14.64921483992465], [75.02318540174475, 14.568104330764147], [74.90085037833886, 14.52961120777272], [74.87944174924283, 14.43612790907926], [74.94825519990864, 14.399009540480385], [74.89014606379085, 14.216167206271116], [74.79227804506614, 14.227165241411523], [74.66535545828253, 14.184547855242446], [74.63783007801621, 14.095188819726637], [74.6668846460751, 13.986583222715115], [74.58277931748356, 13.926094029442876], [74.51549505461031, 13.986583222715115], [74.46961942083311, 14.188672118420097], [74.44209404056679, 14.224415732626422], [74.394689218997, 14.418256101976098], [74.35493033639008, 14.508989891884458], [74.26929582000596, 14.627218769643834], [74.26317906883567, 14.719327313944746], [74.11790622854117, 14.785315524787187], [74.08579328489714, 14.900794893761462], [74.20201155713272, 14.925540472827379], [74.29682120027229, 15.041019841801655], [74.2723541955911, 15.097384771896241], [74.31670064157575, 15.18674380741205], [74.26012069325053, 15.241733983114086], [74.32587576833119, 15.282976614890613], [74.32281739274605, 15.368211387228769], [74.27541257117626, 15.391582211902133], [74.25094556649508, 15.491939282558349], [74.2784709467614, 15.522183879194468]]]}}, {"type": "Feature", "properties": {"district": "Haveri", "dt_code": "564", "st_nm": "Karnataka", "st_code": "29", "year": "2011_c"}, "geometry": {"type": "Polygon", "coordinates": [[[75.41618666443617, 15.085011982363284], [75.53240493667177, 15.0341460698389], [75.5415800634272, 14.979155894136865], [75.63180214318905, 14.991528683669822], [75.70061559385486, 14.948911297500745], [75.6639150868331, 14.807311595068002], [75.75872472997266, 14.734449612262804], [75.79848361257957, 14.68083419095332], [75.81836305388303, 14.565354821979044], [75.796954424787, 14.510364646277008], [75.68991127930684, 14.492492839173845], [75.64250645773706, 14.430628891509055], [75.60274757513015, 14.293153452253966], [75.53240493667177, 14.278031153935906], [75.34890240156292, 14.388011505339978], [75.34584402597778, 14.485619067211092], [75.26479707297138, 14.580477120297104], [75.1883376833427, 14.623094506466181], [75.05071078201108, 14.64921483992465], [75.04153565525563, 14.77431748964678], [75.10270316695858, 14.933788999182685], [75.08282372565512, 15.075388701615427], [75.23880088049764, 15.108382807036648], [75.41618666443617, 15.085011982363284]]]}}, {"type": "Feature", "properties": {"district": "Chitradurga", "dt_code": "566", "st_nm": "Karnataka", "st_code": "29", "year": "2011_c"}, "geometry": {"type": "Polygon", "coordinates": [[[76.51108512391887, 14.55985580440884], [76.5676650722441, 14.58735089225986], [76.64412446187278, 14.71245354198199], [76.71293791253859, 14.86505127955514], [76.6777665933094, 14.887047349835955], [76.76034273410838, 14.988779174884721], [76.86738587958853, 14.969532613389008], [76.83680212373704, 14.790814542357392], [76.77563461203411, 14.68083419095332], [76.76493029748609, 14.602473190577918], [76.80621836788558, 14.530985962165271], [76.90102801102515, 14.489743330388745], [76.88420694530683, 14.348143627956002], [77.00501278092014, 14.235413767766829], [77.00348359312757, 14.198295399167954], [76.89491125985485, 14.168050802531834], [76.94843283259492, 14.095188819726637], [76.88879450868455, 14.048447170379905], [76.8505648138702, 13.963212398041751], [76.72211303929403, 13.898598941591858], [76.76493029748609, 13.781744818225032], [76.62118664498416, 13.73362841448575], [76.45450517559365, 13.590653957660457], [76.35357878128379, 13.57965592252005], [76.2725318282774, 13.605776255978517], [76.21901025553731, 13.713007098597487], [76.14866761707893, 13.7322536600932], [76.098204419924, 13.864230081778086], [76.02939096925819, 13.898598941591858], [76.04468284718392, 13.942591082153488], [76.06150391290223, 14.22304097823387], [76.13490492694577, 14.256035083655092], [76.1563135560418, 14.320648540104983], [76.13643411473834, 14.426504628331404], [76.2083059409893, 14.458123979360074], [76.28170695503283, 14.404508558050589], [76.45909273897136, 14.451250207397319], [76.51108512391887, 14.55985580440884]]]}}, {"type": "Feature", "properties": {"district": "Davanagere", "dt_code": "567", "st_nm": "Karnataka", "st_code": "29", "year": "2011_c"}, "geometry": {"type": "Polygon", "coordinates": [[[75.75872472997266, 14.734449612262804], [75.82447980505333, 14.778441752824433], [75.80154198816471, 14.869175542732792], [75.96669426976267, 14.909043420116769], [76.12878817577547, 14.869175542732792], [76.18383893630812, 14.700080752449033], [76.33369933998033, 14.687707962916074], [76.42392141974217, 14.581851874689654], [76.51108512391887, 14.55985580440884], [76.45909273897136, 14.451250207397319], [76.28170695503283, 14.404508558050589], [76.2083059409893, 14.458123979360074], [76.13643411473834, 14.426504628331404], [76.1563135560418, 14.320648540104983], [76.13490492694577, 14.256035083655092], [76.06150391290223, 14.22304097823387], [76.04468284718392, 13.942591082153488], [76.02939096925819, 13.898598941591858], [75.9529315796295, 13.816113678038803], [75.8780013777934, 13.810614660468602], [75.80612955154244, 14.097938328511738], [75.60427676292272, 14.056695696735211], [75.49111686627228, 14.104812100474494], [75.39936559871786, 14.11718489000745], [75.53240493667177, 14.278031153935906], [75.60274757513015, 14.293153452253966], [75.64250645773706, 14.430628891509055], [75.68991127930684, 14.492492839173845], [75.796954424787, 14.510364646277008], [75.81836305388303, 14.565354821979044], [75.79848361257957, 14.68083419095332], [75.75872472997266, 14.734449612262804]]]}}, {"type": "Feature", "properties": {"district": "Shivamogga", "dt_code": "568", "st_nm": "Karnataka", "st_code": "29", "year": "2011_c"}, "geometry": {"type": "Polygon", "coordinates": [[[74.6668846460751, 13.986583222715115], [74.63783007801621, 14.095188819726637], [74.66535545828253, 14.184547855242446], [74.79227804506614, 14.227165241411523], [74.89014606379085, 14.216167206271116], [74.94825519990864, 14.399009540480385], [74.87944174924283, 14.43612790907926], [74.90085037833886, 14.52961120777272], [75.02318540174475, 14.568104330764147], [75.05071078201108, 14.64921483992465], [75.1883376833427, 14.623094506466181], [75.26479707297138, 14.580477120297104], [75.34584402597778, 14.485619067211092], [75.34890240156292, 14.388011505339978], [75.53240493667177, 14.278031153935906], [75.39936559871786, 14.11718489000745], [75.49111686627228, 14.104812100474494], [75.60427676292272, 14.056695696735211], [75.80612955154244, 14.097938328511738], [75.8780013777934, 13.810614660468602], [75.5415800634272, 13.728129396915548], [75.50640874419801, 13.76524776551442], [75.41924504002131, 13.706133326634733], [75.4146574766436, 13.652517905325247], [75.34431483818521, 13.5810306769126], [75.24491763166793, 13.605776255978517], [75.22656737815704, 13.527415255603117], [75.14093286177292, 13.461427044760672], [75.03541890408535, 13.567283132987093], [74.99871839706357, 13.737752677663403], [74.92837575860518, 13.769372028692075], [74.90849631730173, 13.857356309815332], [74.83968286663593, 13.897224187199306], [74.71123109205973, 13.905472713554612], [74.6668846460751, 13.986583222715115]]]}}, {"type": "Feature", "properties": {"district": "Udupi", "dt_code": "569", "st_nm": "Karnataka", "st_code": "29", "year": "2011_c"}, "geometry": {"type": "Polygon", "coordinates": [[[74.58277931748356, 13.926094029442876], [74.6668846460751, 13.986583222715115], [74.71123109205973, 13.905472713554612], [74.83968286663593, 13.897224187199306], [74.90849631730173, 13.857356309815332], [74.92837575860518, 13.769372028692075], [74.99871839706357, 13.737752677663403], [75.03541890408535, 13.567283132987093], [75.14093286177292, 13.461427044760672], [75.11187829371403, 13.356945710926805], [75.16692905424667, 13.202973218961105], [75.20515874906101, 13.176852885502637], [75.15010798852836, 13.124612218585703], [74.99413083368586, 13.157606324006924], [74.87791256145026, 13.095742376342134], [74.82592017650276, 13.130111236155907], [74.77698616714041, 13.07099679727622], [74.71734784323003, 13.314328324757728], [74.66994302166025, 13.634646098222087], [74.58277931748356, 13.926094029442876]]]}}, {"type": "Feature", "properties": {"district": "Chikkamagaluru", "dt_code": "570", "st_nm": "Karnataka", "st_code": "29", "year": "2011_c"}, "geometry": {"type": "Polygon", "coordinates": [[[76.02939096925819, 13.898598941591858], [76.098204419924, 13.864230081778086], [76.14866761707893, 13.7322536600932], [76.21901025553731, 13.713007098597487], [76.2725318282774, 13.605776255978517], [76.35357878128379, 13.57965592252005], [76.36428309583181, 13.54666181709883], [76.2312437578779, 13.468300816723428], [76.16243030721209, 13.469675571115978], [76.13949249032349, 13.406436869058638], [76.04162447159878, 13.374817518029968], [76.01409909133245, 13.260712903448242], [75.89941000688943, 13.266211921018446], [75.72814097412119, 13.183726657465392], [75.75413716659493, 13.13561025372611], [75.7097907206103, 13.038002691854995], [75.64250645773706, 13.031128919892243], [75.55840112914551, 12.915649550917966], [75.51405468316088, 12.978888252975308], [75.51558387095345, 13.065497779706014], [75.40701153768073, 13.112239429052746], [75.3794861574144, 13.17960239428774], [75.29385164103029, 13.124612218585703], [75.20515874906101, 13.176852885502637], [75.16692905424667, 13.202973218961105], [75.11187829371403, 13.356945710926805], [75.14093286177292, 13.461427044760672], [75.22656737815704, 13.527415255603117], [75.24491763166793, 13.605776255978517], [75.34431483818521, 13.5810306769126], [75.4146574766436, 13.652517905325247], [75.41924504002131, 13.706133326634733], [75.50640874419801, 13.76524776551442], [75.5415800634272, 13.728129396915548], [75.8780013777934, 13.810614660468602], [75.9529315796295, 13.816113678038803], [76.02939096925819, 13.898598941591858]]]}}, {"type": "Feature", "properties": {"district": "Chikkaballapura", "dt_code": "582", "st_nm": "Karnataka", "st_code": "29", "year": "2011_c"}, "geometry": {"type": "Polygon", "coordinates": [[[77.45612317972936, 13.682762501961367], [77.62127546132731, 13.767997274299523], [77.78184017954754, 13.818863186823906], [77.81395312319158, 13.915095994302469], [77.9699302780341, 13.959088134864098], [78.00051403388557, 13.872478608133392], [78.11520311832858, 13.862855327385535], [78.1259074328766, 13.787243835795236], [78.12131986949888, 13.71575660738259], [78.20389601029785, 13.629147080651883], [78.19625007133499, 13.568657887379644], [78.21001276146815, 13.471050325508529], [78.13508255963204, 13.405062114666087], [78.13355337183947, 13.28820799129926], [77.96075515127865, 13.284083728121608], [77.9347589588049, 13.245590605130182], [77.80936555981387, 13.262087657840793], [77.82771581332474, 13.326701114290685], [77.65797596834908, 13.398188342703332], [77.43318536284076, 13.464176553545775], [77.38578054127098, 13.513667711677607], [77.36437191217495, 13.629147080651883], [77.45612317972936, 13.682762501961367]]]}}, {"type": "Feature", "properties": {"district": "Hassan", "dt_code": "574", "st_nm": "Karnataka", "st_code": "29", "year": "2011_c"}, "geometry": {"type": "Polygon", "coordinates": [[[75.55840112914551, 12.915649550917966], [75.64250645773706, 13.031128919892243], [75.7097907206103, 13.038002691854995], [75.75413716659493, 13.13561025372611], [75.72814097412119, 13.183726657465392], [75.89941000688943, 13.266211921018446], [76.01409909133245, 13.260712903448242], [76.04162447159878, 13.374817518029968], [76.13949249032349, 13.406436869058638], [76.16243030721209, 13.469675571115978], [76.2312437578779, 13.468300816723428], [76.36428309583181, 13.54666181709883], [76.41933385636446, 13.449054255227715], [76.34746203011349, 13.359695219711906], [76.3703998470021, 13.200223710176003], [76.47285542910453, 13.14935779765162], [76.47285542910453, 13.092992867557033], [76.60436557926586, 13.07099679727622], [76.63189095953219, 13.003633832041224], [76.5783693867921, 12.846911831290422], [76.48967649482285, 12.807043953906446], [76.38569172492784, 12.84553707689787], [76.34899121790608, 12.78504788362563], [76.34287446673578, 12.655820970725847], [76.30617395971402, 12.610454075771667], [76.21901025553731, 12.64482293558544], [76.11349629784974, 12.526594057826063], [76.01868665471017, 12.57058619838769], [75.93611051391119, 12.62970063726738], [75.9651650819701, 12.710811146427883], [75.87953056558597, 12.834539041757463], [75.83365493180877, 12.670943269043907], [75.66697346241824, 12.697063602502375], [75.61498107747074, 12.797420673158589], [75.62109782864103, 12.855160357645726], [75.55840112914551, 12.915649550917966]]]}}, {"type": "Feature", "properties": {"district": "Kolar", "dt_code": "581", "st_nm": "Karnataka", "st_code": "29", "year": "2011_c"}, "geometry": {"type": "Polygon", "coordinates": [[[78.23142139056418, 12.760302304559715], [78.13355337183947, 12.78229837484053], [78.05709398221079, 12.852410848860625], [77.97910540478954, 12.835913796150015], [77.92864220763461, 12.890903971852051], [77.86594550813909, 12.870282655963788], [77.86441632034652, 12.973389235405104], [77.90111682736828, 13.10261614830489], [77.95616758790094, 13.130111236155907], [77.9347589588049, 13.245590605130182], [77.96075515127865, 13.284083728121608], [78.13355337183947, 13.28820799129926], [78.13508255963204, 13.405062114666087], [78.21001276146815, 13.471050325508529], [78.19625007133499, 13.568657887379644], [78.32623103370375, 13.59477822083811], [78.40116123553985, 13.587904448875356], [78.37363585527352, 13.509543448499954], [78.36446072851808, 13.362444728497008], [78.44397849373192, 13.308829307187523], [78.58619295844126, 13.275835201766302], [78.5143211321903, 13.061373516528363], [78.46691631062052, 12.974763989797655], [78.35528560176265, 12.940395129983884], [78.31246834357059, 12.85928462082338], [78.25283001966021, 12.860659375215931], [78.23142139056418, 12.760302304559715]]]}}, {"type": "Feature", "properties": {"district": "Bengaluru Rural", "dt_code": "583", "st_nm": "Karnataka", "st_code": "29", "year": "2011_c"}, "geometry": {"type": "Polygon", "coordinates": [[[77.86594550813909, 12.870282655963788], [77.8307741889099, 12.866158392786133], [77.76501911382923, 12.943144638768985], [77.78031099175496, 13.033878428677344], [77.72526023122232, 13.193349938213249], [77.54481607169863, 13.231843061204673], [77.48059018441054, 13.223594534849369], [77.42859779946303, 13.086119095594277], [77.33072978073832, 12.974763989797655], [77.31390871502002, 13.10674041148254], [77.20380719395472, 13.185101411857943], [77.18239856485869, 13.22909355241957], [77.22827419863589, 13.312953570365176], [77.33837571970119, 13.329450623075786], [77.34908003424921, 13.45730278158302], [77.38578054127098, 13.513667711677607], [77.43318536284076, 13.464176553545775], [77.65797596834908, 13.398188342703332], [77.82771581332474, 13.326701114290685], [77.80936555981387, 13.262087657840793], [77.9347589588049, 13.245590605130182], [77.95616758790094, 13.130111236155907], [77.90111682736828, 13.10261614830489], [77.86441632034652, 12.973389235405104], [77.86594550813909, 12.870282655963788]]]}}, {"type": "Feature", "properties": {"district": "Dakshina Kannada", "dt_code": "575", "st_nm": "Karnataka", "st_code": "29", "year": "2011_c"}, "geometry": {"type": "Polygon", "coordinates": [[[74.77698616714041, 13.07099679727622], [74.82592017650276, 13.130111236155907], [74.87791256145026, 13.095742376342134], [74.99413083368586, 13.157606324006924], [75.15010798852836, 13.124612218585703], [75.20515874906101, 13.176852885502637], [75.29385164103029, 13.124612218585703], [75.3794861574144, 13.17960239428774], [75.40701153768073, 13.112239429052746], [75.51558387095345, 13.065497779706014], [75.51405468316088, 12.978888252975308], [75.55840112914551, 12.915649550917966], [75.62109782864103, 12.855160357645726], [75.61498107747074, 12.797420673158589], [75.66697346241824, 12.697063602502375], [75.64250645773706, 12.63245014605248], [75.67003183800338, 12.551339636891978], [75.61498107747074, 12.510097005115451], [75.49264605406485, 12.483976671656984], [75.41618666443617, 12.499098969975044], [75.28008895089712, 12.52384454904096], [75.11187829371403, 12.680566549791763], [74.98189733134527, 12.738306234278902], [74.86873743469482, 12.758927550167165], [74.82286180091761, 12.846911831290422], [74.77698616714041, 13.07099679727622]]]}}, {"type": "Feature", "properties": {"district": "Bengaluru Urban", "dt_code": "572", "st_nm": "Karnataka", "st_code": "29", "year": "2011_c"}, "geometry": {"type": "Polygon", "coordinates": [[[77.8307741889099, 12.866158392786133], [77.79254449409555, 12.749304269419309], [77.73902292135548, 12.672318023436457], [77.60139602002386, 12.668193760258806], [77.61515871015702, 12.709436392035332], [77.54328688390606, 12.775424602877775], [77.4194226727076, 12.826290515402158], [77.34296328307892, 12.888154463066948], [77.33072978073832, 12.974763989797655], [77.42859779946303, 13.086119095594277], [77.48059018441054, 13.223594534849369], [77.54481607169863, 13.231843061204673], [77.72526023122232, 13.193349938213249], [77.78031099175496, 13.033878428677344], [77.76501911382923, 12.943144638768985], [77.8307741889099, 12.866158392786133]]]}}, {"type": "Feature", "properties": {"district": "Kodagu", "dt_code": "576", "st_nm": "Karnataka", "st_code": "29", "year": "2011_c"}, "geometry": {"type": "Polygon", "coordinates": [[[75.66697346241824, 12.697063602502375], [75.83365493180877, 12.670943269043907], [75.87953056558597, 12.834539041757463], [75.9651650819701, 12.710811146427883], [75.93611051391119, 12.62970063726738], [76.01868665471017, 12.57058619838769], [75.90858513364488, 12.398741899318829], [76.00186558899186, 12.330004179691283], [76.02480340588046, 12.24889367053078], [76.1333757391532, 12.191153986043643], [76.18995568747842, 12.0495542836109], [76.11349629784974, 11.979441809590806], [76.00339477678443, 11.931325405851524], [75.93611051391119, 11.94094868659938], [75.87035543883053, 11.951946721739787], [75.79389604920185, 12.056428055573654], [75.63638970656677, 12.148536599874566], [75.5767513826564, 12.15678512622987], [75.48500011510198, 12.290136302307308], [75.4146574766436, 12.290136302307308], [75.42230341560646, 12.372621565860362], [75.36572346728124, 12.412489443244338], [75.41618666443617, 12.499098969975044], [75.49264605406485, 12.483976671656984], [75.61498107747074, 12.510097005115451], [75.67003183800338, 12.551339636891978], [75.64250645773706, 12.63245014605248], [75.66697346241824, 12.697063602502375]]]}}, {"type": "Feature", "properties": {"district": "Chamarajanagara", "dt_code": "578", "st_nm": "Karnataka", "st_code": "29", "year": "2011_c"}, "geometry": {"type": "Polygon", "coordinates": [[[77.74666886031835, 12.15541037183732], [77.77572342837725, 12.112792985668243], [77.708439165504, 12.035806739685391], [77.67632622185997, 11.951946721739787], [77.4943528745437, 11.943698195384481], [77.42859779946303, 11.767729633137968], [77.29250008592399, 11.808972264914495], [77.11052673860773, 11.77322865070817], [77.01265871988302, 11.814471282484696], [76.90867394998801, 11.795224720988985], [76.83527293594447, 11.654999772948793], [76.84750643828507, 11.594510579676554], [76.75728435852322, 11.61788140434992], [76.56001913328123, 11.62200566752757], [76.51108512391887, 11.704490931080626], [76.41780466857188, 11.671496825659403], [76.41321710519416, 11.758106352390111], [76.57684019899953, 11.923076879496218], [76.5783693867921, 11.98769033594611], [76.79398486554499, 11.986315581553558], [76.91479070115831, 12.026183458937535], [77.01418790767559, 12.163658898192626], [77.12276024094831, 12.196653003613847], [77.10899755081515, 12.240645144175476], [77.16710668693295, 12.310757618195572], [77.3261422173606, 12.30800810941047], [77.4301269872556, 12.287386793522206], [77.4714150576551, 12.243394652960578], [77.50505718909172, 12.198027758006397], [77.6105711467793, 12.206276284361703], [77.74666886031835, 12.15541037183732]]]}}, {"type": "Feature", "properties": {"district": "Tumakuru", "dt_code": "571", "st_nm": "Karnataka", "st_code": "29", "year": "2011_c"}, "geometry": {"type": "MultiPolygon", "coordinates": [[[[76.94843283259492, 14.095188819726637], [76.93161176687661, 14.030575363276744], [77.04171328794192, 13.932967801405631], [76.97748740065381, 13.827111713179212], [77.06465110483052, 13.743251695233607], [77.1579315601775, 13.806490397290949], [77.18086937706612, 13.869729099348291], [77.3261422173606, 13.833985485141966], [77.43318536284076, 13.843608765889822], [77.46988586986252, 13.758373993551668], [77.45612317972936, 13.682762501961367], [77.36437191217495, 13.629147080651883], [77.38578054127098, 13.513667711677607], [77.34908003424921, 13.45730278158302], [77.33837571970119, 13.329450623075786], [77.22827419863589, 13.312953570365176], [77.18239856485869, 13.22909355241957], [77.20380719395472, 13.185101411857943], [77.16251912355523, 13.191975183820697], [77.07382623158595, 13.124612218585703], [77.06923866820824, 13.0407522006401], [77.1579315601775, 12.958266937087044], [77.13040617991118, 12.85928462082338], [77.15028562121464, 12.786422638018182], [77.07688460717111, 12.749304269419309], [76.92396582791375, 12.804294445121343], [76.85362318945536, 12.978888252975308], [76.76798867307124, 13.033878428677344], [76.63189095953219, 13.003633832041224], [76.60436557926586, 13.07099679727622], [76.47285542910453, 13.092992867557033], [76.47285542910453, 13.14935779765162], [76.3703998470021, 13.200223710176003], [76.34746203011349, 13.359695219711906], [76.41933385636446, 13.449054255227715], [76.36428309583181, 13.54666181709883], [76.35357878128379, 13.57965592252005], [76.45450517559365, 13.590653957660457], [76.62118664498416, 13.73362841448575], [76.76493029748609, 13.781744818225032], [76.72211303929403, 13.898598941591858], [76.8505648138702, 13.963212398041751], [76.88879450868455, 14.048447170379905], [76.94843283259492, 14.095188819726637]]], [[[77.00501278092014, 14.235413767766829], [77.11664348977803, 14.225790487018973], [77.13805211887404, 14.337145592815595], [77.36437191217495, 14.275281645150805], [77.40871835815958, 14.337145592815595], [77.47906099661796, 14.291778697861416], [77.50352800129914, 14.157052767391427], [77.39342648023384, 14.17492457449459], [77.3903681046487, 14.016827819351235], [77.43471455063333, 13.948090099723691], [77.39801404361157, 13.906847467947163], [77.32155465398289, 14.030575363276744], [77.17322343810325, 14.012703556173584], [77.02795059780875, 14.062194714305416], [77.00348359312757, 14.198295399167954], [77.00501278092014, 14.235413767766829]]]]}}, {"type": "Feature", "properties": {"district": "Ramanagara", "dt_code": "584", "st_nm": "Karnataka", "st_code": "29", "year": "2011_c"}, "geometry": {"type": "Polygon", "coordinates": [[[77.60139602002386, 12.668193760258806], [77.58763332989069, 12.514221268293104], [77.63503815146048, 12.488100934834637], [77.61515871015702, 12.367122548290158], [77.55093282286893, 12.291511056699859], [77.4714150576551, 12.243394652960578], [77.4301269872556, 12.287386793522206], [77.3261422173606, 12.30800810941047], [77.26956226903538, 12.464730110161273], [77.12581861653346, 12.482601917264434], [77.1288769921186, 12.57058619838769], [77.07382623158595, 12.680566549791763], [77.07688460717111, 12.749304269419309], [77.15028562121464, 12.786422638018182], [77.13040617991118, 12.85928462082338], [77.1579315601775, 12.958266937087044], [77.06923866820824, 13.0407522006401], [77.07382623158595, 13.124612218585703], [77.16251912355523, 13.191975183820697], [77.20380719395472, 13.185101411857943], [77.31390871502002, 13.10674041148254], [77.33072978073832, 12.974763989797655], [77.34296328307892, 12.888154463066948], [77.4194226727076, 12.826290515402158], [77.54328688390606, 12.775424602877775], [77.61515871015702, 12.709436392035332], [77.60139602002386, 12.668193760258806]]]}}, {"type": "Feature", "properties": {"district": "Mandya", "dt_code": "573", "st_nm": "Karnataka", "st_code": "29", "year": "2011_c"}, "geometry": {"type": "Polygon", "coordinates": [[[76.34287446673578, 12.655820970725847], [76.34899121790608, 12.78504788362563], [76.38569172492784, 12.84553707689787], [76.48967649482285, 12.807043953906446], [76.5783693867921, 12.846911831290422], [76.63189095953219, 13.003633832041224], [76.76798867307124, 13.033878428677344], [76.85362318945536, 12.978888252975308], [76.92396582791375, 12.804294445121343], [77.07688460717111, 12.749304269419309], [77.07382623158595, 12.680566549791763], [77.1288769921186, 12.57058619838769], [77.12581861653346, 12.482601917264434], [77.26956226903538, 12.464730110161273], [77.3261422173606, 12.30800810941047], [77.16710668693295, 12.310757618195572], [77.10899755081515, 12.240645144175476], [76.9958376541647, 12.242019898568028], [76.99736684195727, 12.313507126980674], [76.93772851804691, 12.400116653711379], [76.85362318945536, 12.408365180066685], [76.80315999230044, 12.354749758757201], [76.73128816604947, 12.342376969224242], [76.4514468000085, 12.483976671656984], [76.34287446673578, 12.655820970725847]]]}}, {"type": "Feature", "properties": {"district": "Mysuru", "dt_code": "577", "st_nm": "Karnataka", "st_code": "29", "year": "2011_c"}, "geometry": {"type": "Polygon", "coordinates": [[[76.01868665471017, 12.57058619838769], [76.11349629784974, 12.526594057826063], [76.21901025553731, 12.64482293558544], [76.30617395971402, 12.610454075771667], [76.34287446673578, 12.655820970725847], [76.4514468000085, 12.483976671656984], [76.73128816604947, 12.342376969224242], [76.80315999230044, 12.354749758757201], [76.85362318945536, 12.408365180066685], [76.93772851804691, 12.400116653711379], [76.99736684195727, 12.313507126980674], [76.9958376541647, 12.242019898568028], [77.10899755081515, 12.240645144175476], [77.12276024094831, 12.196653003613847], [77.01418790767559, 12.163658898192626], [76.91479070115831, 12.026183458937535], [76.79398486554499, 11.986315581553558], [76.5783693867921, 11.98769033594611], [76.57684019899953, 11.923076879496218], [76.41321710519416, 11.758106352390111], [76.3184074620546, 11.751232580427356], [76.20677675319672, 11.861212931831428], [76.11349629784974, 11.858463423046327], [76.11349629784974, 11.979441809590806], [76.18995568747842, 12.0495542836109], [76.1333757391532, 12.191153986043643], [76.02480340588046, 12.24889367053078], [76.00186558899186, 12.330004179691283], [75.90858513364488, 12.398741899318829], [76.01868665471017, 12.57058619838769]]]}}, {"type": "Feature", "properties": {"district": "Vijayapura", "dt_code": "557", "st_nm": "Karnataka", "st_code": "29", "year": "2011_c"}, "geometry": {"type": "Polygon", "coordinates": [[[75.60427676292272, 17.305240326332985], [75.57369300707126, 17.383601326708384], [75.63333133098162, 17.477084625401844], [75.81377549050531, 17.372603291567977], [75.89482244351171, 17.401473133811546], [75.93152295053348, 17.323112133436144], [76.07526660303539, 17.33685967736165], [76.1272589879829, 17.244751133060745], [76.24194807242591, 17.15126783436728], [76.36887065920953, 17.166390132685343], [76.36275390803924, 17.115524220160957], [76.44074248546049, 16.997295342401582], [76.37498741037982, 16.858445148753944], [76.3703998470021, 16.76908611323813], [76.46215111455652, 16.711346428750993], [76.4055711662313, 16.64260870912345], [76.4346257342902, 16.437770304633368], [76.33217015218776, 16.426772269492957], [76.30005720854372, 16.283797812667665], [76.33217015218776, 16.19443877715186], [76.23888969684077, 16.165568934908286], [76.06762066407252, 16.208186321077367], [76.02633259367303, 16.300294865378277], [75.95598995521465, 16.297545356593176], [75.63333133098162, 16.44326932220357], [75.49876280523515, 16.45426735734398], [75.49417524185742, 16.593117550991618], [75.38407372079212, 16.76358709566793], [75.39477803534014, 16.862569411931595], [75.33513971142978, 16.869443183894347], [75.34125646260006, 16.956052710625055], [75.46512067379852, 16.989046816046276], [75.52934656108661, 16.969800254550563], [75.66544427462567, 16.97942353529842], [75.67309021358854, 17.115524220160957], [75.62568539201875, 17.173263904648095], [75.65473996007765, 17.27362097530431], [75.60427676292272, 17.305240326332985]]]}}], "metadata": {"source": "udit-001/india-maps-data (Census 2011)", "url": "https://github.com/udit-001/india-maps-data", "license": "ODbL (Open Database License)", "feature_count": 31}}