{"type": "FeatureCollection", "features": [{"type": "Feature", "properties": {"district": "Kasaragod", "dt_code": "588", "st_nm": "Kerala", "st_code": "32", "year": "2011_c"}, "geometry": {"type": "Polygon", "coordinates": [[[74.86873743469482, 12.758927550167165], [74.98189733134527, 12.738306234278902], [75.11187829371403, 12.680566549791763], [75.28008895089712, 12.52384454904096], [75.41618666443617, 12.499098969975044], [75.36572346728124, 12.412489443244338], [75.42230341560646, 12.372621565860362], [75.4146574766436, 12.290136302307308], [75.20362956126844, 12.191153986043643], [75.1653998664541, 12.089422160994877], [75.04153565525563, 12.389118618570972], [75.01553946278189, 12.417988460814541], [74.86873743469482, 12.758927550167165]]]}}, {"type": "Feature", "properties": {"district": "Wayanad", "dt_code": "590", "st_nm": "Kerala", "st_code": "32", "year": "2011_c"}, "geometry": {"type": "Polygon", "coordinates": [[[76.41780466857188, 11.671496825659403], [76.37804578596497, 11.601384351639307], [76.23430213346305, 11.52714761444156], [76.14255086590863, 11.450161368458708], [76.03703690822105, 11.502402035375644], [75.90858513364488, 11.600009597246757], [75.89941000688943, 11.675621088837056], [75.80001280037214, 11.752607334819906], [75.79389604920185, 11.789725703418782], [75.80918792712758, 11.855713914261225], [75.92693538715575, 11.841966370335715], [75.93611051391119, 11.94094868659938], [76.00339477678443, 11.931325405851524], [76.11349629784974, 11.979441809590806], [76.11349629784974, 11.858463423046327], [76.20677675319672, 11.861212931831428], [76.3184074620546, 11.751232580427356], [76.41321710519416, 11.758106352390111], [76.41780466857188, 11.671496825659403]]]}}, {"type": "Feature", "properties": {"district": "Kozhikode", "dt_code": "591", "st_nm": "Kerala", "st_code": "32", "year": "2011_c"}, "geometry": {"type": "Polygon", "coordinates": [[[75.79389604920185, 11.789725703418782], [75.80001280037214, 11.752607334819906], [75.89941000688943, 11.675621088837056], [75.90858513364488, 11.600009597246757], [76.03703690822105, 11.502402035375644], [76.14255086590863, 11.450161368458708], [76.08291254199827, 11.307186911633416], [75.85659274869737, 11.204080332192099], [75.8260089928459, 11.122969823031596], [75.69755721826971, 11.425415789392794], [75.61803945305589, 11.477656456309727], [75.5538135657678, 11.701741422295523], [75.66544427462567, 11.758106352390111], [75.79389604920185, 11.789725703418782]]]}}, {"type": "Feature", "properties": {"district": "Malappuram", "dt_code": "592", "st_nm": "Kerala", "st_code": "32", "year": "2011_c"}, "geometry": {"type": "Polygon", "coordinates": [[[76.0691498518651, 10.729790066762039], [75.95751914300723, 10.685797926200411], [75.91011432143745, 10.79302876881938], [75.8260089928459, 11.122969823031596], [75.85659274869737, 11.204080332192099], [76.08291254199827, 11.307186911633416], [76.14255086590863, 11.450161368458708], [76.23430213346305, 11.52714761444156], [76.46062192676395, 11.388297420793918], [76.54778563094064, 11.35942757855035], [76.52178943846688, 11.270068543034542], [76.44227167325306, 11.201330823406998], [76.40862954181644, 11.118845559853943], [76.34440365452835, 11.088600963217823], [76.31993664984716, 10.936003225644674], [76.23277294567048, 10.88513731312029], [76.17007624617496, 10.914007155363858], [76.04468284718392, 10.848018944521417], [76.0691498518651, 10.729790066762039]]]}}, {"type": "Feature", "properties": {"district": "Palakkad", "dt_code": "593", "st_nm": "Kerala", "st_code": "32", "year": "2011_c"}, "geometry": {"type": "Polygon", "coordinates": [[[76.44227167325306, 11.201330823406998], [76.62883258394704, 11.194457051444243], [76.7068211613683, 11.239823946398422], [76.6945876590277, 11.166961963593224], [76.75422598293808, 11.078977682469967], [76.65635796421337, 10.938752734429777], [76.83068537256676, 10.870015014802231], [76.90714476219543, 10.782030733678972], [76.83833131152963, 10.596438890684603], [76.81539349464101, 10.42321983722319], [76.8337437481519, 10.339359819277584], [76.62271583277675, 10.37922769666156], [76.58907370134013, 10.435592626756147], [76.47438461689711, 10.48645853928053], [76.41321710519416, 10.595064136292052], [76.46826786572682, 10.751786137042853], [76.35357878128379, 10.742162856294996], [76.20524756540415, 10.768283189753465], [76.16243030721209, 10.706419242088675], [76.0691498518651, 10.729790066762039], [76.04468284718392, 10.848018944521417], [76.17007624617496, 10.914007155363858], [76.23277294567048, 10.88513731312029], [76.31993664984716, 10.936003225644674], [76.34440365452835, 11.088600963217823], [76.40862954181644, 11.118845559853943], [76.44227167325306, 11.201330823406998]]]}}, {"type": "Feature", "properties": {"district": "Thrissur", "dt_code": "594", "st_nm": "Kerala", "st_code": "32", "year": "2011_c"}, "geometry": {"type": "Polygon", "coordinates": [[[76.8337437481519, 10.339359819277584], [76.8918528842697, 10.259624064509632], [76.80927674347072, 10.285744397968099], [76.69611684682027, 10.263748327687285], [76.41474629298673, 10.293992924323405], [76.3122907108843, 10.181263064134232], [76.21442269215959, 10.193635853667189], [76.16243030721209, 10.184012572919332], [76.10126279550914, 10.381977205446661], [75.95751914300723, 10.685797926200411], [76.0691498518651, 10.729790066762039], [76.16243030721209, 10.706419242088675], [76.20524756540415, 10.768283189753465], [76.35357878128379, 10.742162856294996], [76.46826786572682, 10.751786137042853], [76.41321710519416, 10.595064136292052], [76.47438461689711, 10.48645853928053], [76.58907370134013, 10.435592626756147], [76.62271583277675, 10.37922769666156], [76.8337437481519, 10.339359819277584]]]}}, {"type": "Feature", "properties": {"district": "Idukki", "dt_code": "596", "st_nm": "Kerala", "st_code": "32", "year": "2011_c"}, "geometry": {"type": "Polygon", "coordinates": [[[77.05088841469735, 10.262373573294735], [77.09064729730427, 10.314614240211668], [77.18086937706612, 10.357231626380745], [77.28791252254626, 10.232128976658615], [77.2680330812428, 10.122148625254543], [77.26344551786508, 10.028665326561082], [77.21298232071015, 9.877442343380483], [77.24662445214678, 9.799081343005081], [77.16710668693295, 9.61211474561816], [77.26956226903538, 9.572246868234183], [77.31849627839773, 9.602491464870303], [77.40260160698928, 9.525505218887453], [77.33990490749376, 9.419649130661034], [77.28179577137597, 9.298670744116555], [77.20992394512501, 9.448518972904601], [77.15487318459236, 9.470515043185417], [77.06159272924538, 9.44714421851205], [76.9728998372761, 9.466390780007764], [76.8857361330994, 9.53925276281296], [76.88726532089198, 9.716596079452028], [76.80774755567815, 9.788083307864675], [76.62883258394704, 9.854071518707118], [76.78328055099698, 10.035539098523836], [76.86585669179595, 10.094653537403524], [76.92702420349889, 10.178513555349129], [77.07382623158595, 10.177138800956579], [77.05088841469735, 10.262373573294735]]]}}, {"type": "Feature", "properties": {"district": "Ernakulam", "dt_code": "595", "st_nm": "Kerala", "st_code": "32", "year": "2011_c"}, "geometry": {"type": "Polygon", "coordinates": [[[76.89949882323256, 10.252750292546878], [76.98207496403154, 10.219756187125656], [77.05088841469735, 10.262373573294735], [77.07382623158595, 10.177138800956579], [76.92702420349889, 10.178513555349129], [76.86585669179595, 10.094653537403524], [76.78328055099698, 10.035539098523836], [76.62883258394704, 9.854071518707118], [76.57989857458469, 9.821077413285895], [76.4575635511788, 9.847197746744364], [76.37345822258725, 9.836199711603955], [76.29699883295856, 9.88844037852089], [76.28017776724026, 9.789458062257225], [76.1670178705898, 10.181263064134232], [76.21442269215959, 10.193635853667189], [76.3122907108843, 10.181263064134232], [76.41474629298673, 10.293992924323405], [76.69611684682027, 10.263748327687285], [76.80927674347072, 10.285744397968099], [76.8918528842697, 10.259624064509632], [76.89796963543999, 10.254125046939429], [76.89949882323256, 10.252750292546878]]]}}, {"type": "Feature", "properties": {"district": "Alappuzha", "dt_code": "598", "st_nm": "Kerala", "st_code": "32", "year": "2011_c"}, "geometry": {"type": "Polygon", "coordinates": [[[76.28017776724026, 9.789458062257225], [76.29699883295856, 9.88844037852089], [76.37345822258725, 9.836199711603955], [76.39180847609813, 9.547501289168267], [76.46673867793425, 9.561248833093776], [76.51414349950402, 9.40040256916532], [76.51720187508917, 9.35228616542604], [76.64106608628762, 9.339913375893081], [76.69000009564998, 9.176317603179525], [76.63342014732476, 9.139199234580651], [76.55848994548866, 9.108954637944532], [76.47897218027482, 9.12270218187004], [76.34899121790608, 9.386655025239811], [76.31993664984716, 9.482887832718376], [76.28017776724026, 9.789458062257225]]]}}, {"type": "Feature", "properties": {"district": "Kottayam", "dt_code": "597", "st_nm": "Kerala", "st_code": "32", "year": "2011_c"}, "geometry": {"type": "Polygon", "coordinates": [[[76.62883258394704, 9.854071518707118], [76.80774755567815, 9.788083307864675], [76.88726532089198, 9.716596079452028], [76.8857361330994, 9.53925276281296], [76.9728998372761, 9.466390780007764], [76.92396582791375, 9.41552486748338], [76.85362318945536, 9.456767499259907], [76.64259527408021, 9.478763569540721], [76.51414349950402, 9.40040256916532], [76.46673867793425, 9.561248833093776], [76.39180847609813, 9.547501289168267], [76.37345822258725, 9.836199711603955], [76.4575635511788, 9.847197746744364], [76.57989857458469, 9.821077413285895], [76.62883258394704, 9.854071518707118]]]}}, {"type": "Feature", "properties": {"district": "Pathanamthitta", "dt_code": "599", "st_nm": "Kerala", "st_code": "32", "year": "2011_c"}, "geometry": {"type": "Polygon", "coordinates": [[[77.28179577137597, 9.298670744116555], [77.2680330812428, 9.15294677850616], [77.20380719395472, 9.070461514953106], [77.10746836302258, 9.09383233962647], [76.93008257908404, 9.173568094394422], [76.84138968711477, 9.09245758523392], [76.69152928344256, 9.089708076448819], [76.63342014732476, 9.139199234580651], [76.69000009564998, 9.176317603179525], [76.64106608628762, 9.339913375893081], [76.51720187508917, 9.35228616542604], [76.51414349950402, 9.40040256916532], [76.64259527408021, 9.478763569540721], [76.85362318945536, 9.456767499259907], [76.92396582791375, 9.41552486748338], [76.9728998372761, 9.466390780007764], [77.06159272924538, 9.44714421851205], [77.15487318459236, 9.470515043185417], [77.20992394512501, 9.448518972904601], [77.28179577137597, 9.298670744116555]]]}}, {"type": "Feature", "properties": {"district": "Kollam", "dt_code": "600", "st_nm": "Kerala", "st_code": "32", "year": "2011_c"}, "geometry": {"type": "Polygon", "coordinates": [[[77.20380719395472, 9.070461514953106], [77.14875643342207, 9.009972321680866], [77.1931028794067, 8.92611230373526], [77.25579957890221, 8.87937065438853], [77.19921963057699, 8.770765057377009], [77.05088841469735, 8.84637654896731], [77.0248922222236, 8.774889320554662], [76.93467014246175, 8.759767022236602], [76.81539349464101, 8.858749338500267], [76.76034273410838, 8.791386373265272], [76.68235415668711, 8.776264074947214], [76.54778563094064, 8.902741479061897], [76.47897218027482, 9.12270218187004], [76.55848994548866, 9.108954637944532], [76.63342014732476, 9.139199234580651], [76.69152928344256, 9.089708076448819], [76.84138968711477, 9.09245758523392], [76.93008257908404, 9.173568094394422], [77.10746836302258, 9.09383233962647], [77.20380719395472, 9.070461514953106]]]}}, {"type": "Feature", "properties": {"district": "Thiruvananthapuram", "dt_code": "601", "st_nm": "Kerala", "st_code": "32", "year": "2011_c"}, "geometry": {"type": "Polygon", "coordinates": [[[77.09829323626714, 8.292350528769298], [76.95913714714294, 8.421577441669083], [76.69917522240543, 8.739145706348339], [76.68235415668711, 8.776264074947214], [76.76034273410838, 8.791386373265272], [76.81539349464101, 8.858749338500267], [76.93467014246175, 8.759767022236602], [77.0248922222236, 8.774889320554662], [77.05088841469735, 8.84637654896731], [77.19921963057699, 8.770765057377009], [77.1701650625181, 8.741895215133441], [77.26956226903538, 8.578299442419883], [77.26191633007251, 8.506812214007237], [77.09829323626714, 8.292350528769298]]]}}, {"type": "Feature", "properties": {"district": "Kannur", "dt_code": "589", "st_nm": "Kerala", "st_code": "32", "year": "2011_c"}, "geometry": {"type": "Polygon", "coordinates": [[[75.1653998664541, 12.089422160994877], [75.20362956126844, 12.191153986043643], [75.4146574766436, 12.290136302307308], [75.48500011510198, 12.290136302307308], [75.5767513826564, 12.15678512622987], [75.63638970656677, 12.148536599874566], [75.79389604920185, 12.056428055573654], [75.87035543883053, 11.951946721739787], [75.93611051391119, 11.94094868659938], [75.92693538715575, 11.841966370335715], [75.80918792712758, 11.855713914261225], [75.79389604920185, 11.789725703418782], [75.66544427462567, 11.758106352390111], [75.5538135657678, 11.701741422295523], [75.53699250004948, 11.705865685473176], [75.53240493667177, 11.705865685473176], [75.3856029085847, 11.857088668653775], [75.3565483405258, 11.859838177438878], [75.25103438283821, 12.008311651834374], [75.20057118568329, 12.006936897441824], [75.1653998664541, 12.089422160994877]], [[75.55534275356037, 11.722362738183786], [75.5415800634272, 11.738859790894399], [75.53699250004948, 11.719613229398686], [75.55534275356037, 11.722362738183786]]]}}], "metadata": {"source": "udit-001/india-maps-data (Census 2011)", "url": "https://github.com/udit-001/india-maps-data", "license": "ODbL (Open Database License)", "feature_count": 15}}