{"type": "FeatureCollection", "features": [{"type": "Feature", "properties": {"district": "Leh", "dt_code": "003", "st_nm": "Ladakh", "st_code": "38", "year": "2011_c"}, "geometry": {"type": "Polygon", "coordinates": [[[78.3981028599547, 32.52514620626397], [78.31246834357059, 32.573262610003255], [78.40574879891757, 32.62000425934998], [78.38739854540668, 32.757479698605074], [78.21918788822359, 32.66399639991161], [78.1427284985949, 32.68186820701477], [78.09838205261028, 32.631002294490386], [78.0158059118113, 32.62000425934998], [77.91793789308659, 32.690116733370076], [77.9347589588049, 32.7258603475764], [77.81089474760644, 32.907327927393126], [77.74055210914806, 32.969191875057916], [77.60292520781643, 32.943071541599444], [77.46835668206995, 32.85783676926129], [77.40565998257443, 32.882582348327205], [77.33837571970119, 32.81659413748476], [77.2741498324131, 32.8743338219719], [77.31849627839773, 32.894955137860165], [77.27720820799826, 32.99531220851638], [77.33990490749376, 33.08467124403219], [77.40871835815958, 33.08467124403219], [77.4194226727076, 33.197401104221356], [77.47753180882539, 33.27438735020421], [77.49282368675112, 33.388491964785935], [77.4423604895962, 33.49159854422726], [77.30014602488686, 33.4847247722645], [77.20839475733244, 33.637322509837645], [77.05394679028251, 33.707434983857745], [76.94078689363205, 33.7170582646056], [76.88879450868455, 33.78167172105549], [76.75881354631579, 33.80504254572886], [76.64565364966535, 33.906774370777626], [76.5737818234144, 33.86415698460854], [76.51567268729659, 33.94526749376905], [76.57989857458469, 34.04562456442527], [76.68847090785741, 34.079993424239035], [76.6716498421391, 34.220218372279234], [76.7236422270866, 34.324699706113094], [76.62577420836189, 34.37694037303003], [76.55696075769607, 34.48829547882666], [76.5615483210738, 34.57078074237971], [76.47285542910453, 34.63401944443705], [76.42086304415703, 34.720628971167756], [76.1333757391532, 34.66288928668062], [75.97281102093297, 34.73437651509327], [75.89329325571913, 34.544660408921246], [75.78930848582414, 34.49929351396706], [75.599689199545, 34.50204302275216], [75.50793793199058, 34.456676127797984], [75.4666498615911, 34.38381414499278], [75.38407372079212, 34.36181807471198], [75.37489859403668, 34.38793840817044], [75.31984783350403, 34.43468005751717], [75.3565483405258, 34.529538110603184], [75.23880088049764, 34.62852042686684], [75.13175773501747, 34.646392233970005], [75.0201270261596, 34.62577091808174], [74.92531738302004, 34.66288928668062], [74.73263972115576, 34.67113781303593], [74.60112957099443, 34.73712602387837], [74.5628998761801, 34.76874537490704], [74.31975901716089, 34.786617182010204], [74.41303947250788, 34.79898997154316], [74.45738591849252, 34.85260539285264], [74.56748743955782, 34.8732267087409], [74.58736688086127, 35.00932739360344], [74.48644048655142, 35.10968446425966], [74.38092652886384, 35.05744379734273], [74.25247475428765, 35.036822481454465], [74.14696079660007, 35.0973116747267], [73.79524760430814, 35.24441039472965], [73.73102171702006, 35.21691530687863], [73.70043796116857, 35.35714025491882], [73.79371841651557, 35.460246834360134], [73.78454328976014, 35.52486029081003], [73.63468288608792, 35.57160194015676], [73.40683390499444, 35.56335341380146], [73.13616766570892, 35.71870066015971], [73.15298873142723, 35.841053801096734], [73.08876284413914, 35.88229643287326], [72.92819812591891, 35.84517806427439], [72.90067274565259, 35.88092167848072], [72.68964483027743, 35.83280527474143], [72.53366767543491, 35.916665292687036], [72.59483518713786, 36.026645644091104], [72.53060929984977, 36.07338729343784], [72.59483518713786, 36.26172864521732], [72.7783377222467, 36.30984504895659], [72.8823224921417, 36.38683129493944], [72.87926411655656, 36.44319622503403], [72.99089482541443, 36.45694376895954], [73.11170066102774, 36.60954150653269], [73.1254633511609, 36.686527752515545], [73.31355344964746, 36.70577431401125], [73.44047603643106, 36.74426743700268], [73.70043796116857, 36.68377824373044], [73.80748110664874, 36.71539759475911], [73.86253186718139, 36.78688482317176], [73.72337577805719, 36.83362647251849], [73.68973364662057, 36.911987472893884], [73.87782374510712, 36.89411566579072], [74.05520952904565, 36.80613138466747], [74.14237323322236, 36.83912549008869], [74.16836942569611, 36.90236419214603], [74.26012069325053, 36.88586713943542], [74.42833135043362, 36.988973718876736], [74.53078693253605, 36.986224210091635], [74.5858376930687, 37.04396389457877], [74.70817271647459, 37.07695799999999], [74.73416890894833, 37.02059306990541], [74.83968286663593, 37.02196782429796], [74.92072981964232, 36.90511370093113], [75.01706865057446, 36.97522617495123], [75.09505722799571, 36.94223206953001], [75.20821712464615, 37.035715368223464], [75.34278565039264, 37.05221242093408], [75.35043158935551, 36.98072519252143], [75.42230341560646, 36.96010387663317], [75.47276661276139, 36.810255647845125], [75.61498107747074, 36.76076448971329], [75.74802041542465, 36.58754543625187], [75.92234782377804, 36.50231066391372], [76.07679579082797, 36.47344082167015], [76.2541815747665, 36.34696341755547], [76.35052040569865, 36.359336207088425], [76.43156735870504, 36.30709554017149], [76.4805013680674, 36.21086273269293], [76.59977801588815, 36.165495837738746], [76.64259527408021, 36.18336764484191], [76.71905466370889, 36.08301057418569], [76.80010161671528, 36.04726695997937], [76.72211303929403, 35.95240890689336], [76.8108059312633, 35.843803309881835], [76.93467014246175, 35.7833141166096], [77.11511430198544, 35.79706166053511], [77.16557749914037, 35.73382295847777], [77.4301269872556, 35.654087203709814], [77.46376911869223, 35.57297669454931], [77.43471455063333, 35.51661176445472], [77.61210033457186, 35.468495360715444], [77.72220185563717, 35.475369132678196], [77.81701149877674, 35.51248750127707], [77.89958763957571, 35.467120606322894], [77.96534271465637, 35.57160194015676], [78.04027291649248, 35.58672423847482], [78.13661174742461, 35.538607834735544], [78.19777925912756, 35.669209502027876], [78.2711802731711, 35.72145016894481], [78.38434016982154, 35.73519771287032], [78.42256986463588, 35.784688871002146], [78.52043788336059, 35.76269280072134], [78.66418153586251, 35.85755085380735], [78.82168787849758, 35.854801345022246], [78.95931477982921, 35.89191971362112], [79.02048229153216, 35.84792757305949], [79.13058381259746, 35.83555478352653], [79.19328051209298, 35.88642069605092], [79.21468914118901, 35.97852924035183], [79.37678304720181, 35.99502629306244], [79.42112949318644, 35.89604397679877], [79.86918151641052, 35.781939362217045], [79.9976332909867, 35.83692953791909], [80.10620562425942, 35.680207537168286], [80.28970815936826, 35.607345554363086], [80.32640866639002, 35.469870115107994], [80.22395308428759, 35.219664815663734], [80.18113582609553, 35.166049394354246], [80.17348988713266, 35.00245362164069], [80.07103430503022, 34.82785981378673], [80.06797592944508, 34.713755199204996], [79.94258253045405, 34.68076109378378], [79.8584772018625, 34.68900962013909], [79.77437187327095, 34.6271456724743], [79.79272212678183, 34.484171215649], [79.59239852595469, 34.50066826835961], [79.50676400957057, 34.474547934901146], [79.59086933816212, 34.282082319944024], [79.50523482177799, 34.20509607396117], [79.49300131943741, 34.13498359994107], [79.35384523031321, 34.03600128367741], [79.19633888767812, 34.05112358199547], [79.1336421881826, 34.02637800292955], [79.02048229153216, 34.05112358199547], [78.90426401929656, 33.97551209040517], [78.99907366243613, 33.80366779133631], [79.04494929621333, 33.76517466834488], [79.10611680791628, 33.61670119394938], [78.98836934788811, 33.61120217637918], [78.91343914605201, 33.57408380778031], [78.93178939956289, 33.43248410534757], [78.98836934788811, 33.3335017890839], [79.10917518350143, 33.29225915730737], [79.23915614587018, 33.29775817487757], [79.4532424368305, 33.2578902974936], [79.37525385940924, 33.08467124403219], [79.42112949318644, 32.96094334870261], [79.56640233348094, 32.78634954084865], [79.62604065739131, 32.73960789150191], [79.4471256856602, 32.53201997822673], [79.31867391108402, 32.59250917149897], [79.19328051209298, 32.4825288200949], [79.13517137597518, 32.47702980252469], [79.11376274687915, 32.38354650383123], [79.03271579387275, 32.38629601261633], [78.98072340892524, 32.33817960887705], [78.85685919772678, 32.439911433925815], [78.77581224472038, 32.55814031168519], [78.76052036679465, 32.65437311916376], [78.66112316027736, 32.65437311916376], [78.45774118386507, 32.58013638196601], [78.3981028599547, 32.52514620626397]]]}}, {"type": "Feature", "properties": {"district": "Kargil", "dt_code": "004", "st_nm": "Ladakh", "st_code": "38", "year": "2011_c"}, "geometry": {"type": "Polygon", "coordinates": [[[75.38407372079212, 34.36181807471198], [75.4666498615911, 34.38381414499278], [75.50793793199058, 34.456676127797984], [75.599689199545, 34.50204302275216], [75.78930848582414, 34.49929351396706], [75.89329325571913, 34.544660408921246], [75.97281102093297, 34.73437651509327], [76.1333757391532, 34.66288928668062], [76.42086304415703, 34.720628971167756], [76.47285542910453, 34.63401944443705], [76.5615483210738, 34.57078074237971], [76.55696075769607, 34.48829547882666], [76.62577420836189, 34.37694037303003], [76.7236422270866, 34.324699706113094], [76.6716498421391, 34.220218372279234], [76.68847090785741, 34.079993424239035], [76.57989857458469, 34.04562456442527], [76.51567268729659, 33.94526749376905], [76.5737818234144, 33.86415698460854], [76.64565364966535, 33.906774370777626], [76.75881354631579, 33.80504254572886], [76.88879450868455, 33.78167172105549], [76.94078689363205, 33.7170582646056], [77.05394679028251, 33.707434983857745], [77.20839475733244, 33.637322509837645], [77.30014602488686, 33.4847247722645], [77.4423604895962, 33.49159854422726], [77.49282368675112, 33.388491964785935], [77.47753180882539, 33.27438735020421], [77.4194226727076, 33.197401104221356], [77.40871835815958, 33.08467124403219], [77.33990490749376, 33.08467124403219], [77.27720820799826, 32.99531220851638], [77.31849627839773, 32.894955137860165], [77.2741498324131, 32.8743338219719], [77.15028562121464, 32.97744040141322], [77.00960034429787, 32.98843843655362], [76.93314095466918, 33.028306313937605], [76.8857361330994, 33.12178961263106], [76.8169226824336, 33.16028273562249], [76.77257623644896, 33.251016525530844], [76.50190999716344, 33.516344123293166], [76.30923233529916, 33.571334298995204], [76.27100264048481, 33.642821527407854], [76.26488588931451, 33.74180384367152], [76.17007624617496, 33.79541926498101], [76.04774122276908, 33.92877044105844], [76.02174503029532, 33.99750816068598], [75.86423868766023, 33.978261599190276], [75.6868529037217, 34.15972917900699], [75.59510163616729, 34.19822230199841], [75.49723361744257, 34.23396591620474], [75.41312828885103, 34.28345707433657], [75.38407372079212, 34.36181807471198]]]}}], "metadata": {"source": "udit-001/india-maps-data (Census 2011)", "url": "https://github.com/udit-001/india-maps-data", "license": "ODbL (Open Database License)", "feature_count": 3}}