{"type": "FeatureCollection", "features": [{"type": "Feature", "properties": {"district": "Lakshadweep", "dt_code": "587", "st_nm": "Lakshadweep", "st_code": "31", "year": "2011_c"}, "geometry": {"type": "Polygon", "coordinates": [[[73.05359152490995, 8.273103967273585], [73.04288721036193, 8.263480686525728], [73.01842020568075, 8.275853476058687], [73.05359152490995, 8.273103967273585]]]}}, {"type": "Feature", "id": "Lakshadweep", "properties": {"district": "Lakshadweep", "dt_code": "587", "st_nm": "Lakshadweep", "st_code": "31", "year": "2011_c"}, "geometry": {"type": "Polygon", "coordinates": [[[73.05359152490995, 8.273103967273585], [73.04288721036193, 8.263480686525728], [73.01842020568075, 8.275853476058687], [73.05359152490995, 8.273103967273585]]]}}], "metadata": {"source": "udit-001/india-maps-data (Census 2011)", "url": "https://github.com/udit-001/india-maps-data", "license": "ODbL (Open Database License)", "feature_count": 2}}