{"type": "FeatureCollection", "features": [{"type": "Feature", "properties": {"district": "Gondia", "dt_code": "507", "st_nm": "Maharashtra", "st_code": "27", "year": "2011_c"}, "geometry": {"type": "Polygon", "coordinates": [[[80.66130079296364, 21.333270696507114], [80.61389597139386, 21.226039853888146], [80.46403556772165, 21.17517394136376], [80.43956856304047, 21.096812940988357], [80.46403556772165, 20.92909290509715], [80.54661170852062, 20.93459192266735], [80.56190358644636, 20.823236816870732], [80.39063455367811, 20.80673976416012], [80.33252541756032, 20.820487308085628], [80.30805841287913, 20.72837876378472], [80.24230333779848, 20.65551678097952], [80.05727161489706, 20.711881711074106], [79.98234141306096, 20.677512851260335], [79.99457491540154, 20.74900007967298], [79.86306476524022, 20.781994185094206], [79.9395241548689, 20.956587992948165], [80.07103430503022, 20.956587992948165], [80.06338836606736, 21.201294274822228], [79.93646577928375, 21.254909696131712], [79.82483507042588, 21.272781503234874], [79.79578050236698, 21.37588808267619], [79.87988583095853, 21.426753995200574], [79.91811552577286, 21.52436155707169], [80.06644674165251, 21.55460615370781], [80.12149750218515, 21.610971083802397], [80.26829953027223, 21.61784485576515], [80.37534267575238, 21.52436155707169], [80.42274749732216, 21.440501539126082], [80.52826145500974, 21.395134644171904], [80.62154191035673, 21.320897906974153], [80.66130079296364, 21.333270696507114]]]}}, {"type": "Feature", "properties": {"district": "Bhandara", "dt_code": "506", "st_nm": "Maharashtra", "st_code": "27", "year": "2011_c"}, "geometry": {"type": "Polygon", "coordinates": [[[79.91811552577286, 21.52436155707169], [79.87988583095853, 21.426753995200574], [79.79578050236698, 21.37588808267619], [79.82483507042588, 21.272781503234874], [79.93646577928375, 21.254909696131712], [80.06338836606736, 21.201294274822228], [80.07103430503022, 20.956587992948165], [79.9395241548689, 20.956587992948165], [79.86306476524022, 20.781994185094206], [79.99457491540154, 20.74900007967298], [79.98234141306096, 20.677512851260335], [79.93340740369861, 20.67338858808268], [79.74990486858977, 20.689885640793293], [79.6612119766205, 20.66651481611993], [79.51899751191115, 20.714631219859207], [79.52970182645917, 20.775120413131447], [79.65509522545021, 20.964836519303475], [79.59851527712499, 21.072067361922443], [79.49453050722998, 21.138055572764884], [79.5511104555552, 21.171049678186108], [79.57557746023637, 21.276905766412526], [79.4761802537191, 21.428128749593128], [79.4761802537191, 21.49136745165047], [79.53887695321461, 21.540858609782298], [79.73920055404176, 21.602722557447088], [79.91811552577286, 21.52436155707169]]]}}, {"type": "Feature", "properties": {"district": "Jalgaon", "dt_code": "499", "st_nm": "Maharashtra", "st_code": "27", "year": "2011_c"}, "geometry": {"type": "Polygon", "coordinates": [[[75.98657371106613, 21.36901431071344], [76.09514604433885, 21.37176381949854], [76.15937193162694, 21.254909696131712], [76.1670178705898, 21.0789411338852], [76.38263334934268, 21.076191625100094], [76.39792522726843, 21.032199484538467], [76.34593284232092, 20.951088975377964], [76.16395949500466, 21.036323747716118], [76.07832497862054, 20.908471589208887], [76.11349629784974, 20.891974536498275], [75.98504452327356, 20.761372869205942], [76.00645315236959, 20.647268254624215], [75.93152295053348, 20.57440627181902], [75.82447980505333, 20.555159710323306], [75.75413716659493, 20.61289939481044], [75.53546331225691, 20.60602562284769], [75.52781737329404, 20.555159710323306], [75.39630722313271, 20.520790850509535], [75.38866128416984, 20.57715578060412], [75.25715113400851, 20.57578102621157], [75.22656737815704, 20.494670517051066], [75.1592831152838, 20.476798709947904], [75.10576154254373, 20.412185253498013], [75.12564098384718, 20.35032130583322], [74.99413083368586, 20.336573761907715], [74.93449250977548, 20.27058555106527], [74.8641498713171, 20.33519900751516], [74.80145317182158, 20.445179358919233], [74.8121574863696, 20.632145956306154], [74.93296332198291, 20.656891535372072], [74.98648489472299, 20.738002044532575], [74.9620178900418, 20.90159781724613], [74.91308388067945, 20.9277181507046], [74.91002550509431, 21.030824730145916], [74.8580331201468, 21.059694572389486], [74.89473362716856, 21.149053607905294], [74.96354707783438, 21.194420502859472], [75.03694809187792, 21.19167099407437], [75.13175773501747, 21.278280520805076], [75.12105342046947, 21.34289397725497], [75.21127550023131, 21.411631696882516], [75.38254453299955, 21.380012345853842], [75.60886432630045, 21.389635626601702], [75.98657371106613, 21.36901431071344]]]}}, {"type": "Feature", "properties": {"district": "Wardha", "dt_code": "504", "st_nm": "Maharashtra", "st_code": "27", "year": "2011_c"}, "geometry": {"type": "Polygon", "coordinates": [[[78.25130083186764, 21.330521187722013], [78.33081859708146, 21.24941067856151], [78.44550768152449, 21.23703788902855], [78.59995564857442, 21.109185730521318], [78.65194803352192, 21.033574238931017], [78.72687823535803, 21.00470439668745], [78.73299498652833, 20.946964712200312], [78.82780462966788, 20.893349290890825], [78.94249371411091, 20.768246641168695], [79.05106604738363, 20.738002044532575], [79.14281731493804, 20.678887605652886], [79.22080589235931, 20.582654798174325], [79.13211300039004, 20.457552148452194], [79.0525952351762, 20.465800674807497], [78.81710031511987, 20.397062955179955], [78.79875006160898, 20.29945539330884], [78.73911173769862, 20.293956375738635], [78.64583128235162, 20.41905902546077], [78.56172595376007, 20.439680341349032], [78.50820438102001, 20.524915113687186], [78.4103363622953, 20.512542324154225], [78.26200514641565, 20.578530534996673], [78.27423864875624, 20.692635149578393], [78.31246834357059, 20.736627290140024], [78.25741758303793, 20.886475518928073], [78.1427284985949, 20.953838484163064], [78.14425768638748, 21.139430327157434], [78.05250641883306, 21.254909696131712], [78.07850261130682, 21.355266766787928], [78.25130083186764, 21.330521187722013]]]}}, {"type": "Feature", "properties": {"district": "Buldhana", "dt_code": "500", "st_nm": "Maharashtra", "st_code": "27", "year": "2011_c"}, "geometry": {"type": "Polygon", "coordinates": [[[76.38263334934268, 21.076191625100094], [76.47744299248225, 21.147678853512744], [76.48967649482285, 21.19167099407437], [76.62271583277675, 21.184797222111616], [76.66247471538367, 21.281030029590177], [76.7236422270866, 21.289278555945486], [76.78328055099698, 21.193045748466922], [76.77410542424153, 21.084440151455404], [76.79704324113014, 21.0033296422949], [76.76493029748609, 20.85623092229195], [76.77410542424153, 20.775120413131447], [76.73281735384205, 20.65551678097952], [76.78328055099698, 20.603276114062588], [76.76951786086381, 20.518041341724434], [76.70835034916087, 20.50016953462127], [76.74352166839006, 20.337948516300266], [76.81998105801874, 20.280208831813127], [76.7465800439752, 20.205972094615376], [76.75728435852322, 20.127611094239974], [76.66859146655395, 20.126236339847424], [76.65788715200594, 20.001133690125293], [76.60742395485101, 19.92414744414244], [76.63953689849505, 19.866407759655306], [76.53708131639263, 19.848535952552144], [76.49426405820056, 19.92002318096479], [76.40862954181644, 19.92002318096479], [76.29699883295856, 19.869157268440407], [76.098204419924, 19.85678447890745], [76.07985416641311, 19.91314940900204], [75.96363589417751, 19.998384181340192], [76.09514604433885, 20.095991743211307], [76.14102167811606, 20.30083014770139], [76.08597091758341, 20.36681835854383], [76.03092015705076, 20.30495441087904], [75.96669426976267, 20.369567867328932], [75.94069807728891, 20.50154428901382], [75.9758693965181, 20.531788885649938], [76.03550772042848, 20.555159710323306], [76.00645315236959, 20.647268254624215], [75.98504452327356, 20.761372869205942], [76.11349629784974, 20.891974536498275], [76.07832497862054, 20.908471589208887], [76.16395949500466, 21.036323747716118], [76.34593284232092, 20.951088975377964], [76.39792522726843, 21.032199484538467], [76.38263334934268, 21.076191625100094]]]}}, {"type": "Feature", "properties": {"district": "Akola", "dt_code": "501", "st_nm": "Maharashtra", "st_code": "27", "year": "2011_c"}, "geometry": {"type": "Polygon", "coordinates": [[[76.81998105801874, 20.280208831813127], [76.74352166839006, 20.337948516300266], [76.70835034916087, 20.50016953462127], [76.76951786086381, 20.518041341724434], [76.78328055099698, 20.603276114062588], [76.73281735384205, 20.65551678097952], [76.77410542424153, 20.775120413131447], [76.76493029748609, 20.85623092229195], [76.79704324113014, 21.0033296422949], [76.77410542424153, 21.084440151455404], [76.78328055099698, 21.193045748466922], [76.99889602974986, 21.195795257252023], [77.16710668693295, 21.242536906598755], [77.17628181368839, 21.072067361922443], [77.1288769921186, 20.86310469425471], [77.2863833347537, 20.846607641544097], [77.5295241937729, 20.849357150329197], [77.6105711467793, 20.799865992197365], [77.6105711467793, 20.718755483036862], [77.47906099661796, 20.662390552942277], [77.4591815553145, 20.617023657988096], [77.33990490749376, 20.57578102621157], [77.33990490749376, 20.48367248191066], [77.22980338642847, 20.474049201162803], [77.18239856485869, 20.398437709572505], [77.01418790767559, 20.412185253498013], [76.81998105801874, 20.280208831813127]]]}}, {"type": "Feature", "properties": {"district": "Nashik", "dt_code": "516", "st_nm": "Maharashtra", "st_code": "27", "year": "2011_c"}, "geometry": {"type": "Polygon", "coordinates": [[[74.8121574863696, 20.632145956306154], [74.80145317182158, 20.445179358919233], [74.8641498713171, 20.33519900751516], [74.93449250977548, 20.27058555106527], [74.89626281496115, 20.17985176115691], [74.8182742375399, 20.249964235177007], [74.71428946764489, 20.134484866202733], [74.73569809674092, 20.080869444893246], [74.66994302166025, 19.946143514423255], [74.31822982936832, 19.98463663741468], [74.27388338338369, 19.906275637039283], [74.36257627535295, 19.87190677722551], [74.37328058990097, 19.801794303205412], [74.16684023790353, 19.73030707479277], [74.11943541633374, 19.640948039276957], [74.02156739760903, 19.67394214469818], [73.9252285666769, 19.67256739030563], [73.83959405029277, 19.741305109933172], [73.77689735079726, 19.640948039276957], [73.70349633675373, 19.59695589871533], [73.61633263257704, 19.585957863574922], [73.48482248241571, 19.724808057222564], [73.45118035097909, 19.76467593460654], [73.40683390499444, 20.019005497228456], [73.30896588626973, 20.05612386582733], [73.24932756235937, 20.122112076669772], [73.2997907595143, 20.21009635779303], [73.4160090317499, 20.204597340222826], [73.4037755294093, 20.386064920039544], [73.46800141669739, 20.496045271443617], [73.47258898007512, 20.584029552566875], [73.40683390499444, 20.62389742995085], [73.47411816786769, 20.720130237429416], [73.61480344478446, 20.6252721843434], [73.6530331395988, 20.564782991071162], [73.74478440715322, 20.564782991071162], [73.8380648625002, 20.62114792116575], [73.87476536952197, 20.72975351817727], [73.91758262771404, 20.724254500607067], [73.94204963239521, 20.83973386958134], [74.02003820981646, 20.834234852011136], [74.15766511114809, 20.86172993986216], [74.38092652886384, 20.83973386958134], [74.43597728939649, 20.80261550098247], [74.53843287149891, 20.83698436079624], [74.66535545828253, 20.775120413131447], [74.65006358035679, 20.694009903970944], [74.8121574863696, 20.632145956306154]]]}}, {"type": "Feature", "properties": {"district": "Gadchiroli", "dt_code": "508", "st_nm": "Maharashtra", "st_code": "27", "year": "2011_c"}, "geometry": {"type": "Polygon", "coordinates": [[[79.98234141306096, 20.677512851260335], [80.05727161489706, 20.711881711074106], [80.24230333779848, 20.65551678097952], [80.30805841287913, 20.72837876378472], [80.33252541756032, 20.820487308085628], [80.39063455367811, 20.80673976416012], [80.56190358644636, 20.823236816870732], [80.58025383995724, 20.67338858808268], [80.52061551604687, 20.579905289389224], [80.61695434697901, 20.585404306959425], [80.59095815450526, 20.3929386920023], [80.62612947373445, 20.33244949873006], [80.39522211705584, 20.244465217606802], [80.4319226240776, 20.135859620595284], [80.50532363812113, 20.144108146950586], [80.54508252072804, 20.10011600638896], [80.52979064280231, 19.939269742460503], [80.46862313109936, 19.82653988227133], [80.54661170852062, 19.818291355916024], [80.56343277423893, 19.759176917036335], [80.67200510751165, 19.702811986941747], [80.71482236570372, 19.616202460211042], [80.8952665252274, 19.519969652732478], [80.85244926703534, 19.364622406374227], [80.75152287272549, 19.28763616039138], [80.61236678360129, 19.309632230672193], [80.5771954643721, 19.397616511795448], [80.48238582123253, 19.33712731852321], [80.39369292926327, 19.187279089735163], [80.33252541756032, 19.144661703566086], [80.32946704197516, 19.070424966368336], [80.27135790585737, 18.942572807861104], [80.34934648327862, 18.84771475477509], [80.27441628144251, 18.765229491222037], [80.2759454692351, 18.71986259626786], [80.11843912660001, 18.679994718883883], [80.01904192008273, 18.77072850879224], [79.91352796239515, 18.825718684494277], [79.96093278396494, 18.865586561878253], [79.9395241548689, 19.03468135216201], [79.8584772018625, 19.102044317397006], [79.92881984032088, 19.158409247491594], [79.97775384968324, 19.398991266188], [79.94411171824662, 19.47047849460065], [79.8645939530328, 19.510346371984625], [79.806484816915, 19.579084091612167], [79.78201781223382, 19.727557566007665], [79.73767136624919, 19.815541847130923], [79.80342644132985, 19.892528093113775], [79.78354700002639, 20.0093822164806], [79.8523604506922, 20.030003532368863], [79.91505715018772, 19.969514339096623], [79.98998735202383, 20.04512583068692], [79.96704953513523, 20.11798781349212], [79.98692897643868, 20.214220620970682], [79.94258253045405, 20.28983211256098], [79.97163709851294, 20.353070814618324], [79.92423227694316, 20.555159710323306], [79.93340740369861, 20.67338858808268], [79.98234141306096, 20.677512851260335]]]}}, {"type": "Feature", "properties": {"district": "Washim", "dt_code": "502", "st_nm": "Maharashtra", "st_code": "27", "year": "2011_c"}, "geometry": {"type": "Polygon", "coordinates": [[[76.63953689849505, 19.866407759655306], [76.60742395485101, 19.92414744414244], [76.65788715200594, 20.001133690125293], [76.66859146655395, 20.126236339847424], [76.75728435852322, 20.127611094239974], [76.7465800439752, 20.205972094615376], [76.81998105801874, 20.280208831813127], [77.01418790767559, 20.412185253498013], [77.18239856485869, 20.398437709572505], [77.22980338642847, 20.474049201162803], [77.33990490749376, 20.48367248191066], [77.33990490749376, 20.57578102621157], [77.4591815553145, 20.617023657988096], [77.47906099661796, 20.662390552942277], [77.6105711467793, 20.718755483036862], [77.65644678055651, 20.63901972826891], [77.65033002938621, 20.564782991071162], [77.67326784627481, 20.538662657612697], [77.57387063975753, 20.399812463965056], [77.6105711467793, 20.263711779102515], [77.66562190731194, 20.247214726391903], [77.67020947068967, 20.10149076078151], [77.57998739092783, 20.028628777976312], [77.52493663039517, 20.097366497603858], [77.37201785113781, 20.04650058507947], [77.28485414696112, 19.909025145824383], [77.21451150850274, 19.973638602274278], [77.10288079964485, 19.93239597049775], [77.03559653677162, 20.00800746208805], [76.77257623644896, 19.935145479282852], [76.74046329280492, 19.873281531618062], [76.63953689849505, 19.866407759655306]]]}}, {"type": "Feature", "properties": {"district": "Chandrapur", "dt_code": "509", "st_nm": "Maharashtra", "st_code": "27", "year": "2011_c"}, "geometry": {"type": "Polygon", "coordinates": [[[79.51899751191115, 20.714631219859207], [79.6612119766205, 20.66651481611993], [79.74990486858977, 20.689885640793293], [79.93340740369861, 20.67338858808268], [79.92423227694316, 20.555159710323306], [79.97163709851294, 20.353070814618324], [79.94258253045405, 20.28983211256098], [79.98692897643868, 20.214220620970682], [79.96704953513523, 20.11798781349212], [79.98998735202383, 20.04512583068692], [79.91505715018772, 19.969514339096623], [79.8523604506922, 20.030003532368863], [79.78354700002639, 20.0093822164806], [79.80342644132985, 19.892528093113775], [79.73767136624919, 19.815541847130923], [79.78201781223382, 19.727557566007665], [79.806484816915, 19.579084091612167], [79.74378811741948, 19.60932868824829], [79.47159269034137, 19.500723091236765], [79.36607873265379, 19.576334582827066], [79.25291883600335, 19.592831635537678], [79.19022213650783, 19.459480459460238], [79.09694168116084, 19.53234244226544], [78.93637696294061, 19.5502142493686], [78.95625640424407, 19.65607033759502], [78.85991757331193, 19.689064443016242], [78.84156731980104, 19.761926425821436], [78.90426401929656, 19.73718084675552], [78.9715482821698, 19.807293320775617], [79.07247467647966, 19.818291355916024], [79.10764599570885, 20.0093822164806], [78.95319802865892, 20.171603234801605], [78.92108508501488, 20.25408849835466], [78.8155711273273, 20.251338989569557], [78.79875006160898, 20.29945539330884], [78.81710031511987, 20.397062955179955], [79.0525952351762, 20.465800674807497], [79.13211300039004, 20.457552148452194], [79.22080589235931, 20.582654798174325], [79.32020309887659, 20.585404306959425], [79.35384523031321, 20.652767272194417], [79.43642137111217, 20.661015798549727], [79.51899751191115, 20.714631219859207]]]}}, {"type": "Feature", "properties": {"district": "Yavatmal", "dt_code": "510", "st_nm": "Maharashtra", "st_code": "27", "year": "2011_c"}, "geometry": {"type": "Polygon", "coordinates": [[[78.27423864875624, 20.692635149578393], [78.26200514641565, 20.578530534996673], [78.4103363622953, 20.512542324154225], [78.50820438102001, 20.524915113687186], [78.56172595376007, 20.439680341349032], [78.64583128235162, 20.41905902546077], [78.73911173769862, 20.293956375738635], [78.79875006160898, 20.29945539330884], [78.8155711273273, 20.251338989569557], [78.92108508501488, 20.25408849835466], [78.95319802865892, 20.171603234801605], [79.10764599570885, 20.0093822164806], [79.07247467647966, 19.818291355916024], [78.9715482821698, 19.807293320775617], [78.90426401929656, 19.73718084675552], [78.84156731980104, 19.761926425821436], [78.57548864389324, 19.818291355916024], [78.43174499139133, 19.814167092738373], [78.3812817942364, 19.880155303580814], [78.30635159240029, 19.911774654609488], [78.20542519809042, 19.898027110683977], [77.95310921231578, 19.909025145824383], [77.84912444242077, 19.79629528563521], [77.86288713255394, 19.745429373110827], [78.03109778973703, 19.691813951801343], [78.08920692585484, 19.636823776099305], [78.17942900561668, 19.650571320024817], [78.18860413237212, 19.558462775723903], [78.06779829675881, 19.458105705067688], [77.90723357853858, 19.53371719665799], [77.79866124526585, 19.449857178712385], [77.74972723590349, 19.508971617592074], [77.64880084159364, 19.557088021331353], [77.60598358340158, 19.647821811239712], [77.45765236752193, 19.682190671053483], [77.36131353658979, 19.85953398769255], [77.28485414696112, 19.909025145824383], [77.37201785113781, 20.04650058507947], [77.52493663039517, 20.097366497603858], [77.57998739092783, 20.028628777976312], [77.67020947068967, 20.10149076078151], [77.66562190731194, 20.247214726391903], [77.6105711467793, 20.263711779102515], [77.57387063975753, 20.399812463965056], [77.67326784627481, 20.538662657612697], [77.65033002938621, 20.564782991071162], [77.77878180396239, 20.540037412005248], [77.97298865361924, 20.588153815744526], [78.03721454090733, 20.665140061727378], [78.12896580846174, 20.647268254624215], [78.27423864875624, 20.692635149578393]]]}}, {"type": "Feature", "properties": {"district": "Jalna", "dt_code": "514", "st_nm": "Maharashtra", "st_code": "27", "year": "2011_c"}, "geometry": {"type": "Polygon", "coordinates": [[[75.9758693965181, 20.531788885649938], [75.94069807728891, 20.50154428901382], [75.96669426976267, 20.369567867328932], [76.03092015705076, 20.30495441087904], [76.08597091758341, 20.36681835854383], [76.14102167811606, 20.30083014770139], [76.09514604433885, 20.095991743211307], [75.96363589417751, 19.998384181340192], [76.07985416641311, 19.91314940900204], [76.098204419924, 19.85678447890745], [76.29699883295856, 19.869157268440407], [76.40862954181644, 19.92002318096479], [76.49426405820056, 19.92002318096479], [76.53708131639263, 19.848535952552144], [76.51261431171145, 19.825165127878776], [76.48508893144512, 19.79767004002776], [76.48814730703026, 19.67669165348328], [76.44991761221593, 19.66156935516522], [76.44227167325306, 19.54059096862074], [76.37498741037982, 19.53784145983564], [76.36428309583181, 19.47047849460065], [76.28782370620313, 19.433360126001773], [76.26335670152194, 19.333003055345557], [76.2083059409893, 19.273888616465868], [76.1043211710943, 19.308257476279643], [75.94375645287407, 19.29176042356903], [75.91164350923002, 19.392117494225246], [75.75107879100979, 19.35774863441147], [75.6058059507153, 19.38524372226249], [75.65473996007765, 19.569460810864314], [75.59816001175243, 19.59970540750043], [75.63180214318905, 19.668443127127976], [75.62415620422618, 19.770174952176745], [75.65473996007765, 19.907650391431833], [75.64403564552964, 20.006632707695495], [75.59204326058213, 20.006632707695495], [75.64403564552964, 20.185350778727113], [75.76484148114295, 20.452053130881986], [75.83824249518648, 20.457552148452194], [75.88105975337855, 20.56065872789351], [75.9758693965181, 20.531788885649938]]]}}, {"type": "Feature", "properties": {"district": "Ahmednagar", "dt_code": "522", "st_nm": "Maharashtra", "st_code": "27", "year": "2011_c"}, "geometry": {"type": "Polygon", "coordinates": [[[73.61633263257704, 19.585957863574922], [73.70349633675373, 19.59695589871533], [73.77689735079726, 19.640948039276957], [73.83959405029277, 19.741305109933172], [73.9252285666769, 19.67256739030563], [74.02156739760903, 19.67394214469818], [74.11943541633374, 19.640948039276957], [74.16684023790353, 19.73030707479277], [74.37328058990097, 19.801794303205412], [74.36257627535295, 19.87190677722551], [74.27388338338369, 19.906275637039283], [74.31822982936832, 19.98463663741468], [74.66994302166025, 19.946143514423255], [74.591954444239, 19.78117298731715], [74.71734784323003, 19.7797982329246], [74.84885799339136, 19.646447056847162], [74.88402931262056, 19.65607033759502], [75.1531663641135, 19.588707372360027], [75.25562194621594, 19.522719161517582], [75.32902296025948, 19.50484735441442], [75.36572346728124, 19.397616511795448], [75.47582498834655, 19.42648635403902], [75.5308757488792, 19.375620441514634], [75.52017143433117, 19.27801287964352], [75.40395316209558, 19.198277124875567], [75.44982879587279, 19.082797755901296], [75.30914351895602, 19.097920054219355], [75.28467651427484, 19.03468135216201], [75.18680849555012, 19.0937957910417], [75.1653998664541, 19.037430860947115], [75.07059022331454, 19.055302668050274], [74.94213844873835, 19.133663668425676], [74.91461306847202, 19.037430860947115], [74.82439098871018, 18.932949527113244], [75.04000646746306, 18.763854736829487], [75.15622473969866, 18.641501595892457], [75.20821712464615, 18.739109157763572], [75.27703057531197, 18.729485877015712], [75.32902296025948, 18.805097368606013], [75.38101534520698, 18.76935375439969], [75.58439732161926, 18.69649177159449], [75.46206229821338, 18.605757981686132], [75.4146574766436, 18.531521244488385], [75.31220189454116, 18.520523209347978], [75.24185925608278, 18.53976977084369], [75.10576154254373, 18.490278612711855], [75.09046966461798, 18.43116417383217], [74.91461306847202, 18.378923506915235], [74.83203692767304, 18.334931366353608], [74.80909911078444, 18.381673015700336], [74.5460788104618, 18.508150419815017], [74.57819175410583, 18.549393051591544], [74.47114860862568, 18.641501595892457], [74.4757361720034, 18.686868490846635], [74.38398490444898, 18.803722614213463], [74.1744861768664, 19.03193184337691], [74.23412450077677, 19.12266563328527], [74.21883262285104, 19.20240138805322], [74.03074252436448, 19.250517791792504], [73.99862958072043, 19.359123388804022], [73.93593288122491, 19.33850207291576], [73.77995572638241, 19.386618476655045], [73.69279202220571, 19.434734880394323], [73.71420065130175, 19.484226038526156], [73.62244938374732, 19.54196572301329], [73.61633263257704, 19.585957863574922]]]}}, {"type": "Feature", "properties": {"district": "Hingoli", "dt_code": "512", "st_nm": "Maharashtra", "st_code": "27", "year": "2011_c"}, "geometry": {"type": "Polygon", "coordinates": [[[76.53708131639263, 19.848535952552144], [76.63953689849505, 19.866407759655306], [76.74046329280492, 19.873281531618062], [76.77257623644896, 19.935145479282852], [77.03559653677162, 20.00800746208805], [77.10288079964485, 19.93239597049775], [77.21451150850274, 19.973638602274278], [77.28485414696112, 19.909025145824383], [77.36131353658979, 19.85953398769255], [77.45765236752193, 19.682190671053483], [77.46988586986252, 19.492474564881462], [77.37966379010068, 19.33850207291576], [77.31237952722745, 19.35499912562637], [77.17934018927355, 19.22852172151169], [77.1579315601775, 19.084172510293847], [77.08453054613398, 19.10891808935976], [76.97595821286124, 19.317880757027496], [76.88879450868455, 19.35499912562637], [76.84903562607764, 19.508971617592074], [76.91173232557315, 19.642322793669507], [76.79092648995984, 19.67119263591308], [76.68541253227227, 19.757802162643785], [76.51261431171145, 19.825165127878776], [76.53708131639263, 19.848535952552144]]]}}, {"type": "Feature", "properties": {"district": "Nanded", "dt_code": "511", "st_nm": "Maharashtra", "st_code": "27", "year": "2011_c"}, "geometry": {"type": "Polygon", "coordinates": [[[77.45765236752193, 19.682190671053483], [77.60598358340158, 19.647821811239712], [77.64880084159364, 19.557088021331353], [77.74972723590349, 19.508971617592074], [77.79866124526585, 19.449857178712385], [77.90723357853858, 19.53371719665799], [78.06779829675881, 19.458105705067688], [78.18860413237212, 19.558462775723903], [78.17942900561668, 19.650571320024817], [78.08920692585484, 19.636823776099305], [78.03109778973703, 19.691813951801343], [77.86288713255394, 19.745429373110827], [77.84912444242077, 19.79629528563521], [77.95310921231578, 19.909025145824383], [78.20542519809042, 19.898027110683977], [78.30635159240029, 19.911774654609488], [78.36446072851808, 19.78117298731715], [78.34305209942205, 19.713810022082157], [78.27576783654881, 19.691813951801343], [78.30635159240029, 19.606579179463186], [78.30940996798543, 19.48147652974105], [78.21154194926072, 19.42786110843157], [78.19319169574985, 19.316506002634945], [78.17484144223896, 19.238145002259543], [78.04180210428505, 19.271139107680767], [77.94393408556034, 19.342626336093414], [77.86288713255394, 19.304133213101988], [77.8598287569688, 19.180405317772408], [77.79713205747328, 19.073174475153436], [77.84300769125048, 18.90820394804733], [77.94852164893805, 18.84359049159744], [77.83994931566534, 18.805097368606013], [77.78795693071783, 18.682744227668984], [77.72984779460003, 18.66624717495837], [77.73902292135548, 18.5562668235543], [77.59680845664613, 18.549393051591544], [77.58457495430554, 18.446286472150227], [77.52493663039517, 18.37204973495248], [77.55093282286893, 18.292313980184527], [77.4652983064848, 18.262069383548408], [77.40871835815958, 18.301937260932384], [77.4133059215373, 18.392671050840743], [77.31696709060516, 18.442162208972576], [77.26497470565766, 18.422915647476863], [77.2970876493017, 18.546643542806443], [77.2680330812428, 18.612631753648888], [77.15334399679979, 18.64700061346266], [77.15181480900722, 18.700616034772146], [77.04630085131963, 18.682744227668984], [77.05394679028251, 18.76935375439969], [76.9897209029944, 18.828468193279377], [76.9560787715578, 18.932949527113244], [77.02336303443103, 18.931574772720694], [77.08453054613398, 19.10891808935976], [77.1579315601775, 19.084172510293847], [77.17934018927355, 19.22852172151169], [77.31237952722745, 19.35499912562637], [77.37966379010068, 19.33850207291576], [77.46988586986252, 19.492474564881462], [77.45765236752193, 19.682190671053483]]]}}, {"type": "Feature", "properties": {"district": "Parbhani", "dt_code": "513", "st_nm": "Maharashtra", "st_code": "27", "year": "2011_c"}, "geometry": {"type": "Polygon", "coordinates": [[[76.2083059409893, 19.273888616465868], [76.26335670152194, 19.333003055345557], [76.28782370620313, 19.433360126001773], [76.36428309583181, 19.47047849460065], [76.37498741037982, 19.53784145983564], [76.44227167325306, 19.54059096862074], [76.44991761221593, 19.66156935516522], [76.48814730703026, 19.67669165348328], [76.48508893144512, 19.79767004002776], [76.51261431171145, 19.825165127878776], [76.68541253227227, 19.757802162643785], [76.79092648995984, 19.67119263591308], [76.91173232557315, 19.642322793669507], [76.84903562607764, 19.508971617592074], [76.88879450868455, 19.35499912562637], [76.97595821286124, 19.317880757027496], [77.08453054613398, 19.10891808935976], [77.02336303443103, 18.931574772720694], [76.9560787715578, 18.932949527113244], [76.9897209029944, 18.828468193279377], [76.87044425517367, 18.831217702064478], [76.72211303929403, 18.750107192903975], [76.58601532575497, 18.872460333841005], [76.58601532575497, 18.942572807861104], [76.47744299248225, 18.953570843001508], [76.36122472024665, 19.15703449309904], [76.36428309583181, 19.23264598468934], [76.2083059409893, 19.273888616465868]]]}}, {"type": "Feature", "properties": {"district": "Pune", "dt_code": "521", "st_nm": "Maharashtra", "st_code": "27", "year": "2011_c"}, "geometry": {"type": "Polygon", "coordinates": [[[73.77995572638241, 19.386618476655045], [73.93593288122491, 19.33850207291576], [73.99862958072043, 19.359123388804022], [74.03074252436448, 19.250517791792504], [74.21883262285104, 19.20240138805322], [74.23412450077677, 19.12266563328527], [74.1744861768664, 19.03193184337691], [74.38398490444898, 18.803722614213463], [74.4757361720034, 18.686868490846635], [74.47114860862568, 18.641501595892457], [74.57819175410583, 18.549393051591544], [74.5460788104618, 18.508150419815017], [74.80909911078444, 18.381673015700336], [74.83203692767304, 18.334931366353608], [74.84274124222107, 18.245572330837796], [74.94825519990864, 18.26481889233351], [75.02165621395218, 18.18920740074321], [75.11187829371403, 18.197455927098517], [75.09352804020314, 18.06822901419873], [75.04918159421851, 18.021487364852], [75.11187829371403, 17.939002101298946], [75.05223996980365, 17.904633241485175], [74.8641498713171, 17.952749645224458], [74.70970190426716, 18.029735891207306], [74.65465114373451, 18.06822901419873], [74.46044429407766, 18.046232943917918], [74.35340114859751, 18.0970988564423], [74.29987957585743, 18.06685425980618], [74.11943541633374, 18.132842470648626], [73.90534912537345, 18.15896280410709], [73.85794430380366, 18.03111064559986], [73.65762070297652, 18.029735891207306], [73.59339481568843, 18.108096891582708], [73.6530331395988, 18.172710348032602], [73.54140243074093, 18.20707920784637], [73.5368148673632, 18.242822822052695], [73.4205965951276, 18.303312015324934], [73.39918796603158, 18.40091957719605], [73.40836309278703, 18.499901893459715], [73.3227285764029, 18.557641577946853], [73.38848365148357, 18.653874385425414], [73.35484152004695, 18.72123735066041], [73.36860421018011, 18.795474087858157], [73.42977172188306, 18.873835088233555], [73.46035547773452, 18.964568878141918], [73.53222730398548, 19.03055708898436], [73.5261105528152, 19.129539405248025], [73.53375649177806, 19.177655808987303], [73.63009532271019, 19.203776142445776], [73.77995572638241, 19.386618476655045]]]}}, {"type": "Feature", "properties": {"district": "Beed", "dt_code": "523", "st_nm": "Maharashtra", "st_code": "27", "year": "2011_c"}, "geometry": {"type": "Polygon", "coordinates": [[[75.6058059507153, 19.38524372226249], [75.75107879100979, 19.35774863441147], [75.91164350923002, 19.392117494225246], [75.94375645287407, 19.29176042356903], [76.1043211710943, 19.308257476279643], [76.2083059409893, 19.273888616465868], [76.36428309583181, 19.23264598468934], [76.36122472024665, 19.15703449309904], [76.47744299248225, 18.953570843001508], [76.58601532575497, 18.942572807861104], [76.58601532575497, 18.872460333841005], [76.72211303929403, 18.750107192903975], [76.73434654163462, 18.699241280379596], [76.59366126471785, 18.673120946921127], [76.49579324599314, 18.612631753648888], [76.27406101606996, 18.559016332339404], [76.10126279550914, 18.58788617458297], [76.05691634952451, 18.571389121872357], [75.93916888949634, 18.641501595892457], [75.58439732161926, 18.69649177159449], [75.38101534520698, 18.76935375439969], [75.32902296025948, 18.805097368606013], [75.27703057531197, 18.729485877015712], [75.20821712464615, 18.739109157763572], [75.15622473969866, 18.641501595892457], [75.04000646746306, 18.763854736829487], [74.82439098871018, 18.932949527113244], [74.91461306847202, 19.037430860947115], [74.94213844873835, 19.133663668425676], [75.07059022331454, 19.055302668050274], [75.1653998664541, 19.037430860947115], [75.18680849555012, 19.0937957910417], [75.28467651427484, 19.03468135216201], [75.30914351895602, 19.097920054219355], [75.44982879587279, 19.082797755901296], [75.40395316209558, 19.198277124875567], [75.52017143433117, 19.27801287964352], [75.5308757488792, 19.375620441514634], [75.47582498834655, 19.42648635403902], [75.6058059507153, 19.38524372226249]]]}}, {"type": "Feature", "properties": {"district": "Mumbai", "dt_code": "519", "st_nm": "Maharashtra", "st_code": "27", "year": "2011_c"}, "geometry": {"type": "Polygon", "coordinates": [[[72.89455599448229, 18.981065930852527], [72.9113770602006, 18.948071825431306], [72.8364468583645, 18.864211807485702], [72.80280472692787, 18.90545443926223], [72.83950523394964, 19.048428896087522], [72.78598366120957, 19.129539405248025], [72.78445447341699, 19.264265335718015], [72.90526030903031, 19.247768283007403], [72.98019051086641, 19.15428498431394], [72.95572350618524, 18.987939702815282], [72.89455599448229, 18.981065930852527]]]}}, {"type": "Feature", "properties": {"district": "Latur", "dt_code": "524", "st_nm": "Maharashtra", "st_code": "27", "year": "2011_c"}, "geometry": {"type": "Polygon", "coordinates": [[[76.9897209029944, 18.828468193279377], [77.05394679028251, 18.76935375439969], [77.04630085131963, 18.682744227668984], [77.15181480900722, 18.700616034772146], [77.15334399679979, 18.64700061346266], [77.2680330812428, 18.612631753648888], [77.2970876493017, 18.546643542806443], [77.26497470565766, 18.422915647476863], [77.24662445214678, 18.37067498055993], [77.06465110483052, 18.150714277751785], [76.95149120818007, 18.18783264635066], [76.9209074523286, 18.117720172330564], [76.95302039597264, 18.040733926347713], [76.90561557440286, 18.009114575319042], [76.91937826453602, 17.915631276625582], [76.77563461203411, 17.877138153634156], [76.74046329280492, 17.89913422391497], [76.67470821772424, 17.918380785410683], [76.67929578110197, 17.995367031393535], [76.59824882809556, 18.03111064559986], [76.42545060753474, 18.03386015438496], [76.37957497375754, 18.087475575694445], [76.27864857944769, 18.10947164597526], [76.31687827426202, 18.329432348783403], [76.26794426489967, 18.421540893084313], [76.27406101606996, 18.559016332339404], [76.49579324599314, 18.612631753648888], [76.59366126471785, 18.673120946921127], [76.73434654163462, 18.699241280379596], [76.72211303929403, 18.750107192903975], [76.87044425517367, 18.831217702064478], [76.9897209029944, 18.828468193279377]]]}}, {"type": "Feature", "properties": {"district": "Osmanabad", "dt_code": "525", "st_nm": "Maharashtra", "st_code": "27", "year": "2011_c"}, "geometry": {"type": "Polygon", "coordinates": [[[75.31220189454116, 18.520523209347978], [75.4146574766436, 18.531521244488385], [75.46206229821338, 18.605757981686132], [75.58439732161926, 18.69649177159449], [75.93916888949634, 18.641501595892457], [76.05691634952451, 18.571389121872357], [76.10126279550914, 18.58788617458297], [76.27406101606996, 18.559016332339404], [76.26794426489967, 18.421540893084313], [76.31687827426202, 18.329432348783403], [76.27864857944769, 18.10947164597526], [76.37957497375754, 18.087475575694445], [76.42545060753474, 18.03386015438496], [76.59824882809556, 18.03111064559986], [76.67929578110197, 17.995367031393535], [76.67470821772424, 17.918380785410683], [76.74046329280492, 17.89913422391497], [76.79092648995984, 17.826272241109773], [76.71446710033116, 17.780905346155592], [76.68541253227227, 17.681923029891927], [76.65635796421337, 17.71766664409825], [76.52331862625945, 17.76028403026733], [76.48967649482285, 17.659926959611113], [76.4285089831199, 17.643429906900504], [76.26947345269224, 17.727289924846108], [76.16548868279723, 17.69979483699509], [76.12878817577547, 17.767157802230084], [76.00339477678443, 17.750660749519476], [76.01868665471017, 17.827646995502324], [75.87494300220825, 17.845518802605486], [75.83977168297906, 17.980244733075473], [75.90858513364488, 18.003615557748837], [75.98045695989583, 17.97199620672017], [76.01868665471017, 18.042108680740263], [75.93763970170377, 18.125968698685867], [75.94681482845921, 18.230450032519737], [75.89635163130428, 18.358302191026972], [75.70520315723257, 18.395420559625848], [75.56910544369353, 18.235949050089943], [75.52934656108661, 18.134217225041176], [75.4375952935322, 18.20432969906127], [75.38866128416984, 18.3266828399983], [75.30302676778572, 18.435288437009824], [75.31220189454116, 18.520523209347978]]]}}, {"type": "Feature", "properties": {"district": "Solapur", "dt_code": "526", "st_nm": "Maharashtra", "st_code": "27", "year": "2011_c"}, "geometry": {"type": "Polygon", "coordinates": [[[74.83203692767304, 18.334931366353608], [74.91461306847202, 18.378923506915235], [75.09046966461798, 18.43116417383217], [75.10576154254373, 18.490278612711855], [75.24185925608278, 18.53976977084369], [75.31220189454116, 18.520523209347978], [75.30302676778572, 18.435288437009824], [75.38866128416984, 18.3266828399983], [75.4375952935322, 18.20432969906127], [75.52934656108661, 18.134217225041176], [75.56910544369353, 18.235949050089943], [75.70520315723257, 18.395420559625848], [75.89635163130428, 18.358302191026972], [75.94681482845921, 18.230450032519737], [75.93763970170377, 18.125968698685867], [76.01868665471017, 18.042108680740263], [75.98045695989583, 17.97199620672017], [75.90858513364488, 18.003615557748837], [75.83977168297906, 17.980244733075473], [75.87494300220825, 17.845518802605486], [76.01868665471017, 17.827646995502324], [76.00339477678443, 17.750660749519476], [76.12878817577547, 17.767157802230084], [76.16548868279723, 17.69979483699509], [76.26947345269224, 17.727289924846108], [76.4285089831199, 17.643429906900504], [76.33217015218776, 17.596688257553772], [76.33064096439519, 17.47021085343909], [76.37192903479468, 17.435841993625317], [76.38263334934268, 17.314863607080838], [76.22971457008532, 17.365729519605225], [76.07526660303539, 17.33685967736165], [75.93152295053348, 17.323112133436144], [75.89482244351171, 17.401473133811546], [75.81377549050531, 17.372603291567977], [75.63333133098162, 17.477084625401844], [75.57369300707126, 17.383601326708384], [75.60427676292272, 17.305240326332985], [75.51711305874602, 17.24062686988309], [75.4207742278139, 17.26537244894901], [75.23880088049764, 17.215881290817173], [75.07976535006998, 17.246125887453296], [74.92072981964232, 17.166390132685343], [74.88555850041313, 17.221380308387378], [74.95895951445667, 17.292867536800024], [75.03541890408535, 17.41934494091471], [74.93755088536064, 17.510078730823068], [74.9849557069304, 17.54444759063684], [74.90696712950916, 17.626932854189896], [74.86873743469482, 17.725915170453558], [74.68829327517113, 17.80427617082896], [74.63630089022362, 17.873013890456505], [74.70970190426716, 18.029735891207306], [74.8641498713171, 17.952749645224458], [75.05223996980365, 17.904633241485175], [75.11187829371403, 17.939002101298946], [75.04918159421851, 18.021487364852], [75.09352804020314, 18.06822901419873], [75.11187829371403, 18.197455927098517], [75.02165621395218, 18.18920740074321], [74.94825519990864, 18.26481889233351], [74.84274124222107, 18.245572330837796], [74.83203692767304, 18.334931366353608]]]}}, {"type": "Feature", "properties": {"district": "Satara", "dt_code": "527", "st_nm": "Maharashtra", "st_code": "27", "year": "2011_c"}, "geometry": {"type": "Polygon", "coordinates": [[[73.65762070297652, 18.029735891207306], [73.85794430380366, 18.03111064559986], [73.90534912537345, 18.15896280410709], [74.11943541633374, 18.132842470648626], [74.29987957585743, 18.06685425980618], [74.35340114859751, 18.0970988564423], [74.46044429407766, 18.046232943917918], [74.65465114373451, 18.06822901419873], [74.70970190426716, 18.029735891207306], [74.63630089022362, 17.873013890456505], [74.68829327517113, 17.80427617082896], [74.86873743469482, 17.725915170453558], [74.90696712950916, 17.626932854189896], [74.85956230793937, 17.51145348521562], [74.8060407351993, 17.45371380072848], [74.69441002634143, 17.479834134186945], [74.68523489958598, 17.39459936184879], [74.5277285569509, 17.41934494091471], [74.49714480109944, 17.383601326708384], [74.2845876979317, 17.42071969530726], [74.2555331298728, 17.292867536800024], [74.2845876979317, 17.20488325567677], [74.24635800311736, 17.14164455361943], [74.03074252436448, 17.090778641095042], [73.94052044460264, 17.13339602726412], [73.83347729912249, 17.226879325957583], [73.6943212099983, 17.261248185771354], [73.66679582973197, 17.39184985306369], [73.6943212099983, 17.486707906149704], [73.74478440715322, 17.555445625777246], [73.68667527103543, 17.68604729306958], [73.56892781100726, 17.724540416061007], [73.60256994244386, 17.794652890081103], [73.5719861865924, 17.875763399241606], [73.65762070297652, 18.029735891207306]]]}}, {"type": "Feature", "properties": {"district": "Ratnagiri", "dt_code": "528", "st_nm": "Maharashtra", "st_code": "27", "year": "2011_c"}, "geometry": {"type": "Polygon", "coordinates": [[[73.5719861865924, 17.875763399241606], [73.60256994244386, 17.794652890081103], [73.56892781100726, 17.724540416061007], [73.68667527103543, 17.68604729306958], [73.74478440715322, 17.555445625777246], [73.6943212099983, 17.486707906149704], [73.66679582973197, 17.39184985306369], [73.6943212099983, 17.261248185771354], [73.70655471233887, 17.170514395862995], [73.80595191885617, 17.08390486913229], [73.83194811132991, 17.0247904302526], [73.79524760430814, 16.928557622774036], [73.70961308792403, 16.82957530651037], [73.81206867002646, 16.76908611323813], [73.85182755263337, 16.648107726693652], [73.76772222404182, 16.602740831739474], [73.62092019595475, 16.58211951585121], [73.59951156685872, 16.543626392859785], [73.46800141669739, 16.494135234727953], [73.34719558108408, 16.529878848934278], [73.3517831444618, 16.61511362127243], [73.30590751068459, 16.730592990246706], [73.31814101302518, 16.804829727444456], [73.2768529426257, 16.89143925417516], [73.29673238392915, 16.984922552868625], [73.28908644496629, 17.115524220160957], [73.22333136988561, 17.26537244894901], [73.24473999898164, 17.321737379043594], [73.1835724872787, 17.384976081100938], [73.17745573610841, 17.582940713628265], [73.04441639815451, 17.981619487468024], [73.1147590366129, 17.980244733075473], [73.17286817273069, 18.058605733450875], [73.2875572571737, 18.070978522983832], [73.37319177355783, 17.92525455737344], [73.50623111151174, 17.85101782017569], [73.5719861865924, 17.875763399241606]]]}}, {"type": "Feature", "properties": {"district": "Sangli", "dt_code": "531", "st_nm": "Maharashtra", "st_code": "27", "year": "2011_c"}, "geometry": {"type": "Polygon", "coordinates": [[[74.90696712950916, 17.626932854189896], [74.9849557069304, 17.54444759063684], [74.93755088536064, 17.510078730823068], [75.03541890408535, 17.41934494091471], [74.95895951445667, 17.292867536800024], [74.88555850041313, 17.221380308387378], [74.92072981964232, 17.166390132685343], [75.07976535006998, 17.246125887453296], [75.23880088049764, 17.215881290817173], [75.4207742278139, 17.26537244894901], [75.51711305874602, 17.24062686988309], [75.60427676292272, 17.305240326332985], [75.65473996007765, 17.27362097530431], [75.62568539201875, 17.173263904648095], [75.67309021358854, 17.115524220160957], [75.66544427462567, 16.97942353529842], [75.52934656108661, 16.969800254550563], [75.46512067379852, 16.989046816046276], [75.34125646260006, 16.956052710625055], [75.28008895089712, 16.956052710625055], [75.26479707297138, 16.862569411931595], [75.18222093217241, 16.843322850435882], [75.08894047682541, 16.9519284474474], [74.90237956613144, 16.862569411931595], [74.91920063184975, 16.773210376415786], [74.85038718118393, 16.773210376415786], [74.695939214134, 16.715470691928648], [74.62712576346819, 16.788332674733844], [74.47420698421082, 16.868068429501797], [74.4069227213376, 16.846072359220983], [74.29223363689457, 16.896938271745366], [74.06591384359368, 16.90243728931557], [74.02309658540162, 16.984922552868625], [73.84876917704823, 17.15126783436728], [73.70655471233887, 17.170514395862995], [73.6943212099983, 17.261248185771354], [73.83347729912249, 17.226879325957583], [73.94052044460264, 17.13339602726412], [74.03074252436448, 17.090778641095042], [74.24635800311736, 17.14164455361943], [74.2845876979317, 17.20488325567677], [74.2555331298728, 17.292867536800024], [74.2845876979317, 17.42071969530726], [74.49714480109944, 17.383601326708384], [74.5277285569509, 17.41934494091471], [74.68523489958598, 17.39459936184879], [74.69441002634143, 17.479834134186945], [74.8060407351993, 17.45371380072848], [74.85956230793937, 17.51145348521562], [74.90696712950916, 17.626932854189896]]]}}, {"type": "Feature", "properties": {"district": "Kolhapur", "dt_code": "530", "st_nm": "Maharashtra", "st_code": "27", "year": "2011_c"}, "geometry": {"type": "Polygon", "coordinates": [[[73.85182755263337, 16.648107726693652], [73.81206867002646, 16.76908611323813], [73.70961308792403, 16.82957530651037], [73.79524760430814, 16.928557622774036], [73.83194811132991, 17.0247904302526], [73.80595191885617, 17.08390486913229], [73.70655471233887, 17.170514395862995], [73.84876917704823, 17.15126783436728], [74.02309658540162, 16.984922552868625], [74.06591384359368, 16.90243728931557], [74.29223363689457, 16.896938271745366], [74.4069227213376, 16.846072359220983], [74.47420698421082, 16.868068429501797], [74.62712576346819, 16.788332674733844], [74.695939214134, 16.715470691928648], [74.63018413905334, 16.58349427024376], [74.57054581514296, 16.554624428000192], [74.54454962266921, 16.635734937160695], [74.31517145378317, 16.554624428000192], [74.33199251950148, 16.45426735734398], [74.31670064157575, 16.32641519883674], [74.37328058990097, 16.26180174238685], [74.48032373538112, 16.249428952853894], [74.48032373538112, 16.147697127805127], [74.3717514021084, 16.07895940817758], [74.46350266966282, 16.039091530793606], [74.38704328003413, 15.904365600323619], [74.34575520963465, 15.764140652283427], [74.2387120641545, 15.744894090787714], [74.20965749609559, 15.780637704994037], [74.10873110178574, 15.821880336770564], [74.07355978255654, 15.948357740885248], [74.09496841165257, 16.007472179764935], [73.99862958072043, 16.039091530793606], [73.99251282955014, 16.092706952103093], [73.90840750095859, 16.13669909266472], [73.94052044460264, 16.24392993528369], [73.89005724744771, 16.25630272481665], [73.83194811132991, 16.344287005939904], [73.88699887186256, 16.448768339773775], [73.83041892353734, 16.549125410429987], [73.85182755263337, 16.648107726693652]]]}}, {"type": "Feature", "properties": {"district": "Sindhudurg", "dt_code": "529", "st_nm": "Maharashtra", "st_code": "27", "year": "2011_c"}, "geometry": {"type": "Polygon", "coordinates": [[[73.34719558108408, 16.529878848934278], [73.46800141669739, 16.494135234727953], [73.59951156685872, 16.543626392859785], [73.62092019595475, 16.58211951585121], [73.76772222404182, 16.602740831739474], [73.85182755263337, 16.648107726693652], [73.83041892353734, 16.549125410429987], [73.88699887186256, 16.448768339773775], [73.83194811132991, 16.344287005939904], [73.89005724744771, 16.25630272481665], [73.94052044460264, 16.24392993528369], [73.90840750095859, 16.13669909266472], [73.99251282955014, 16.092706952103093], [73.99862958072043, 16.039091530793606], [74.09496841165257, 16.007472179764935], [74.07355978255654, 15.948357740885248], [74.10873110178574, 15.821880336770564], [74.20965749609559, 15.780637704994037], [74.1224937919189, 15.720148511721797], [74.11790622854117, 15.651410792094254], [73.99098364175757, 15.611542914710277], [73.93899125681007, 15.742144582002613], [73.87476536952197, 15.750393108357917], [73.68514608324284, 15.728397038077103], [73.58880725231072, 15.909864617893822], [73.51081867488945, 15.93735970574484], [73.41142146837217, 16.27279977752726], [73.36860421018011, 16.363533567435617], [73.34719558108408, 16.529878848934278]]]}}, {"type": "Feature", "properties": {"district": "Thane", "dt_code": "517", "st_nm": "Maharashtra", "st_code": "27", "year": "2011_c"}, "geometry": {"type": "Polygon", "coordinates": [[[73.48482248241571, 19.724808057222564], [73.61633263257704, 19.585957863574922], [73.62244938374732, 19.54196572301329], [73.71420065130175, 19.484226038526156], [73.69279202220571, 19.434734880394323], [73.77995572638241, 19.386618476655045], [73.63009532271019, 19.203776142445776], [73.53375649177806, 19.177655808987303], [73.5261105528152, 19.129539405248025], [73.35331233225438, 19.130914159640575], [73.25085675015194, 19.06080168562048], [73.17592654831583, 19.10891808935976], [73.04747477373965, 19.097920054219355], [73.04441639815451, 19.018184299451402], [72.95572350618524, 18.987939702815282], [72.98019051086641, 19.15428498431394], [72.90526030903031, 19.247768283007403], [72.78445447341699, 19.264265335718015], [72.79821716355015, 19.304133213101988], [72.89914355786001, 19.28763616039138], [72.95725269397781, 19.40036602058055], [73.05664990049509, 19.47872702095595], [73.21109786754502, 19.561212284509004], [73.28602806938113, 19.693188706193894], [73.48482248241571, 19.724808057222564]]]}}, {"type": "Feature", "properties": {"district": "Palghar", "dt_code": "732", "st_nm": "Maharashtra", "st_code": "27", "year": "update2014"}, "geometry": {"type": "Polygon", "coordinates": [[[73.21109786754502, 20.120737322277222], [73.24932756235937, 20.122112076669772], [73.30896588626973, 20.05612386582733], [73.40683390499444, 20.019005497228456], [73.45118035097909, 19.76467593460654], [73.48482248241571, 19.724808057222564], [73.28602806938113, 19.693188706193894], [73.21109786754502, 19.561212284509004], [73.05664990049509, 19.47872702095595], [72.95725269397781, 19.40036602058055], [72.89914355786001, 19.28763616039138], [72.79821716355015, 19.304133213101988], [72.71869939833633, 19.53921621422819], [72.71564102275119, 19.646447056847162], [72.65447351104824, 19.836163163019187], [72.66364863780368, 19.9337707248903], [72.73246208846949, 19.972263847881727], [72.7079950837883, 20.073995672930494], [72.77527934666155, 20.13173535741763], [72.87314736538626, 20.22659341050364], [72.96184025735553, 20.208721603400477], [72.96489863294067, 20.127611094239974], [73.1376968535015, 20.086368462463447], [73.21109786754502, 20.120737322277222]]]}}, {"type": "Feature", "properties": {"district": "Nandurbar", "dt_code": "497", "st_nm": "Maharashtra", "st_code": "27", "year": "2011_c"}, "geometry": {"type": "Polygon", "coordinates": [[[73.84876917704823, 20.999205379117246], [73.80748110664874, 21.008828659865102], [73.80136435547844, 21.029449975753366], [73.73713846819035, 21.0789411338852], [73.66679582973197, 21.154552625475496], [73.8151270456116, 21.17379918697121], [73.82277298457447, 21.270031994449774], [73.94204963239521, 21.30027659108589], [73.95887069811351, 21.395134644171904], [74.04603440229022, 21.446000556696287], [74.20965749609559, 21.462497609406896], [74.32128820495346, 21.49824122361322], [74.27541257117626, 21.56147992567056], [74.16378186231839, 21.568353697633317], [73.98180851500213, 21.522986802679135], [73.98180851500213, 21.521612048286585], [73.83500648691506, 21.520237293894034], [73.81359785781903, 21.643965189223614], [73.88088212069226, 21.714077663243714], [73.82430217236704, 21.760819312590442], [73.81665623340417, 21.840555067358395], [73.93899125681007, 21.87354917277962], [74.14696079660007, 21.950535418762467], [74.28152932234656, 21.93403836605186], [74.43291891381133, 22.03027117353042], [74.4527983551148, 21.961533453902874], [74.52467018136576, 21.91204229577104], [74.5047907400623, 21.72645045277667], [74.58277931748356, 21.664586505111878], [74.77545697934782, 21.61509534698005], [74.75251916245922, 21.478994662117508], [74.68829327517113, 21.410256942489966], [74.50173236447715, 21.415755960060167], [74.48185292317369, 21.3085251174412], [74.33810927067178, 21.228789362673247], [74.24635800311736, 21.24803592416896], [74.11943541633374, 21.213667064355185], [73.9481663835655, 21.08306539706285], [73.9481663835655, 21.032199484538467], [73.84876917704823, 20.999205379117246]]]}}, {"type": "Feature", "properties": {"district": "Amravati", "dt_code": "503", "st_nm": "Maharashtra", "st_code": "27", "year": "2011_c"}, "geometry": {"type": "Polygon", "coordinates": [[[76.66247471538367, 21.281030029590177], [76.62118664498416, 21.331895942114564], [76.78328055099698, 21.46387236379945], [76.78175136320439, 21.55873041688546], [76.85515237724793, 21.613720592587498], [76.90255719881772, 21.597223539876886], [76.99889602974986, 21.6920815929629], [77.00654196871272, 21.67833404903739], [77.02336303443103, 21.687957329785245], [77.04018410014933, 21.6975806105331], [77.06159272924538, 21.712702908851163], [77.20992394512501, 21.689332084177796], [77.2802665835834, 21.75806980380534], [77.47906099661796, 21.7704425933383], [77.54328688390606, 21.704454382495854], [77.5753998275501, 21.52711106585679], [77.45459399193679, 21.55323139931526], [77.48823612337341, 21.37451332828364], [77.56163713741694, 21.396509398564454], [77.801719620851, 21.408882188097415], [77.88429576164997, 21.384136609031497], [78.02956860194446, 21.42125497763037], [78.17637063003153, 21.49961597800577], [78.22377545160131, 21.551856644922708], [78.34305209942205, 21.58897501352158], [78.41951148905073, 21.57110320641842], [78.4332741791839, 21.49686646922067], [78.44703686931706, 21.40338317052721], [78.36446072851808, 21.393759889779354], [78.25130083186764, 21.330521187722013], [78.07850261130682, 21.355266766787928], [78.05250641883306, 21.254909696131712], [78.14425768638748, 21.139430327157434], [78.1427284985949, 20.953838484163064], [78.25741758303793, 20.886475518928073], [78.31246834357059, 20.736627290140024], [78.27423864875624, 20.692635149578393], [78.12896580846174, 20.647268254624215], [78.03721454090733, 20.665140061727378], [77.97298865361924, 20.588153815744526], [77.77878180396239, 20.540037412005248], [77.65033002938621, 20.564782991071162], [77.65644678055651, 20.63901972826891], [77.6105711467793, 20.718755483036862], [77.6105711467793, 20.799865992197365], [77.5295241937729, 20.849357150329197], [77.2863833347537, 20.846607641544097], [77.1288769921186, 20.86310469425471], [77.17628181368839, 21.072067361922443], [77.16710668693295, 21.242536906598755], [76.99889602974986, 21.195795257252023], [76.78328055099698, 21.193045748466922], [76.7236422270866, 21.289278555945486], [76.66247471538367, 21.281030029590177]]]}}, {"type": "Feature", "properties": {"district": "Dhule", "dt_code": "498", "st_nm": "Maharashtra", "st_code": "27", "year": "2011_c"}, "geometry": {"type": "Polygon", "coordinates": [[[75.21127550023131, 21.411631696882516], [75.12105342046947, 21.34289397725497], [75.13175773501747, 21.278280520805076], [75.03694809187792, 21.19167099407437], [74.96354707783438, 21.194420502859472], [74.89473362716856, 21.149053607905294], [74.8580331201468, 21.059694572389486], [74.91002550509431, 21.030824730145916], [74.91308388067945, 20.9277181507046], [74.9620178900418, 20.90159781724613], [74.98648489472299, 20.738002044532575], [74.93296332198291, 20.656891535372072], [74.8121574863696, 20.632145956306154], [74.65006358035679, 20.694009903970944], [74.66535545828253, 20.775120413131447], [74.53843287149891, 20.83698436079624], [74.43597728939649, 20.80261550098247], [74.38092652886384, 20.83973386958134], [74.15766511114809, 20.86172993986216], [74.02003820981646, 20.834234852011136], [73.94204963239521, 20.83973386958134], [73.88852805965513, 20.9332171682748], [73.84876917704823, 20.997830624724692], [73.84876917704823, 20.999205379117246], [73.9481663835655, 21.032199484538467], [73.9481663835655, 21.08306539706285], [74.11943541633374, 21.213667064355185], [74.24635800311736, 21.24803592416896], [74.33810927067178, 21.228789362673247], [74.48185292317369, 21.3085251174412], [74.50173236447715, 21.415755960060167], [74.68829327517113, 21.410256942489966], [74.75251916245922, 21.478994662117508], [74.77545697934782, 21.61509534698005], [74.86262068352453, 21.63434190847576], [75.05223996980365, 21.566978943240766], [75.1072907303363, 21.462497609406896], [75.21127550023131, 21.411631696882516]]]}}, {"type": "Feature", "properties": {"district": "Nagpur", "dt_code": "505", "st_nm": "Maharashtra", "st_code": "27", "year": "2011_c"}, "geometry": {"type": "Polygon", "coordinates": [[[79.53887695321461, 21.540858609782298], [79.4761802537191, 21.49136745165047], [79.4761802537191, 21.428128749593128], [79.57557746023637, 21.276905766412526], [79.5511104555552, 21.171049678186108], [79.49453050722998, 21.138055572764884], [79.59851527712499, 21.072067361922443], [79.65509522545021, 20.964836519303475], [79.52970182645917, 20.775120413131447], [79.51899751191115, 20.714631219859207], [79.43642137111217, 20.661015798549727], [79.35384523031321, 20.652767272194417], [79.32020309887659, 20.585404306959425], [79.22080589235931, 20.582654798174325], [79.14281731493804, 20.678887605652886], [79.05106604738363, 20.738002044532575], [78.94249371411091, 20.768246641168695], [78.82780462966788, 20.893349290890825], [78.73299498652833, 20.946964712200312], [78.72687823535803, 21.00470439668745], [78.65194803352192, 21.033574238931017], [78.59995564857442, 21.109185730521318], [78.44550768152449, 21.23703788902855], [78.33081859708146, 21.24941067856151], [78.25130083186764, 21.330521187722013], [78.36446072851808, 21.393759889779354], [78.44703686931706, 21.40338317052721], [78.4332741791839, 21.49686646922067], [78.51126275660515, 21.52848582024934], [78.58466377064869, 21.487243188472814], [78.89967645591885, 21.50099073239832], [78.91649752163715, 21.590349767914134], [78.97460665775495, 21.61784485576515], [79.07706223985738, 21.605472066232192], [79.22386426794445, 21.64808945240127], [79.23456858249247, 21.718201926421365], [79.39207492512755, 21.674209785859738], [79.49605969502255, 21.674209785859738], [79.50982238515572, 21.595848785484336], [79.53887695321461, 21.540858609782298]]]}}, {"type": "Feature", "properties": {"district": "Aurangabad", "dt_code": "515", "st_nm": "Maharashtra", "st_code": "27", "year": "2011_c"}, "geometry": {"type": "Polygon", "coordinates": [[[74.93449250977548, 20.27058555106527], [74.99413083368586, 20.336573761907715], [75.12564098384718, 20.35032130583322], [75.10576154254373, 20.412185253498013], [75.1592831152838, 20.476798709947904], [75.22656737815704, 20.494670517051066], [75.25715113400851, 20.57578102621157], [75.38866128416984, 20.57715578060412], [75.39630722313271, 20.520790850509535], [75.52781737329404, 20.555159710323306], [75.53546331225691, 20.60602562284769], [75.75413716659493, 20.61289939481044], [75.82447980505333, 20.555159710323306], [75.93152295053348, 20.57440627181902], [76.00645315236959, 20.647268254624215], [76.03550772042848, 20.555159710323306], [75.9758693965181, 20.531788885649938], [75.88105975337855, 20.56065872789351], [75.83824249518648, 20.457552148452194], [75.76484148114295, 20.452053130881986], [75.64403564552964, 20.185350778727113], [75.59204326058213, 20.006632707695495], [75.64403564552964, 20.006632707695495], [75.65473996007765, 19.907650391431833], [75.62415620422618, 19.770174952176745], [75.63180214318905, 19.668443127127976], [75.59816001175243, 19.59970540750043], [75.65473996007765, 19.569460810864314], [75.6058059507153, 19.38524372226249], [75.47582498834655, 19.42648635403902], [75.36572346728124, 19.397616511795448], [75.32902296025948, 19.50484735441442], [75.25562194621594, 19.522719161517582], [75.1531663641135, 19.588707372360027], [74.88402931262056, 19.65607033759502], [74.84885799339136, 19.646447056847162], [74.71734784323003, 19.7797982329246], [74.591954444239, 19.78117298731715], [74.66994302166025, 19.946143514423255], [74.73569809674092, 20.080869444893246], [74.71428946764489, 20.134484866202733], [74.8182742375399, 20.249964235177007], [74.89626281496115, 20.17985176115691], [74.93449250977548, 20.27058555106527]]]}}, {"type": "Feature", "properties": {"district": "Raigad", "dt_code": "520", "st_nm": "Maharashtra", "st_code": "27", "year": "2011_c"}, "geometry": {"type": "Polygon", "coordinates": [[[73.5261105528152, 19.129539405248025], [73.53222730398548, 19.03055708898436], [73.46035547773452, 18.964568878141918], [73.42977172188306, 18.873835088233555], [73.36860421018011, 18.795474087858157], [73.35484152004695, 18.72123735066041], [73.38848365148357, 18.653874385425414], [73.3227285764029, 18.557641577946853], [73.40836309278703, 18.499901893459715], [73.39918796603158, 18.40091957719605], [73.4205965951276, 18.303312015324934], [73.5368148673632, 18.242822822052695], [73.54140243074093, 18.20707920784637], [73.6530331395988, 18.172710348032602], [73.59339481568843, 18.108096891582708], [73.65762070297652, 18.029735891207306], [73.5719861865924, 17.875763399241606], [73.50623111151174, 17.85101782017569], [73.37319177355783, 17.92525455737344], [73.2875572571737, 18.070978522983832], [73.17286817273069, 18.058605733450875], [73.1147590366129, 17.980244733075473], [73.04441639815451, 17.981619487468024], [72.97254457190354, 18.124593944293316], [72.9694861963184, 18.242822822052695], [73.02912452022876, 18.26481889233351], [72.91443543578575, 18.354177927849317], [72.89455599448229, 18.46278352486084], [72.93431487708921, 18.54114452523624], [72.85632629966796, 18.699241280379596], [72.86855980200853, 18.79959835103581], [72.8364468583645, 18.864211807485702], [72.9113770602006, 18.948071825431306], [72.89455599448229, 18.981065930852527], [72.95572350618524, 18.987939702815282], [73.04441639815451, 19.018184299451402], [73.04747477373965, 19.097920054219355], [73.17592654831583, 19.10891808935976], [73.25085675015194, 19.06080168562048], [73.35331233225438, 19.130914159640575], [73.5261105528152, 19.129539405248025]]]}}], "metadata": {"source": "udit-001/india-maps-data (Census 2011)", "url": "https://github.com/udit-001/india-maps-data", "license": "ODbL (Open Database License)", "feature_count": 36}}