{"type": "FeatureCollection", "features": [{"type": "Feature", "properties": {"district": "Ribhoi", "dt_code": "297", "st_nm": "Meghalaya", "st_code": "17", "year": "2011_c"}, "geometry": {"type": "Polygon", "coordinates": [[[92.17302649545775, 26.07617335080771], [92.27395288976761, 26.065175315667304], [92.16385136870231, 25.970317262581293], [92.20208106351666, 25.90707856052395], [92.15161786636173, 25.81634477061559], [92.15161786636173, 25.671995559397747], [92.13173842505827, 25.640376208369076], [91.83354680550642, 25.644500471546728], [91.82895924212869, 25.673370313790297], [91.7876711717292, 25.790224437157125], [91.58734757090207, 25.81222050743794], [91.45889579632588, 25.788849682764575], [91.33503158512741, 25.841090349681508], [91.44513310619271, 25.839715595288958], [91.5797016319392, 26.033555964638634], [91.72191609664854, 25.96619299940364], [91.72344528444111, 26.034930719031184], [91.82590086654355, 26.118790736976788], [91.86718893694304, 26.04180449099394], [92.13326761285084, 26.04455399977904], [92.17302649545775, 26.07617335080771]]]}}, {"type": "Feature", "properties": {"district": "West Khasi Hills", "dt_code": "296", "st_nm": "Meghalaya", "st_code": "17", "year": "2011_c"}, "geometry": {"type": "Polygon", "coordinates": [[[91.00778539751667, 25.824593296970896], [91.14694148664086, 25.850713630429365], [91.22187168847697, 25.72286147192213], [91.33503158512741, 25.841090349681508], [91.45889579632588, 25.788849682764575], [91.58734757090207, 25.81222050743794], [91.7876711717292, 25.790224437157125], [91.82895924212869, 25.673370313790297], [91.7999046740698, 25.610131611732957], [91.54147193712485, 25.51114929546929], [91.54605950050258, 25.482279453225722], [91.51700493244368, 25.456159119767257], [91.30903539265367, 25.4437863302343], [91.1683501157369, 25.465782400515113], [91.13776635988542, 25.39979418967267], [91.02460646323497, 25.33793024200788], [90.92368006892512, 25.351677785933386], [90.83957474033357, 25.30768564537176], [90.74782347277915, 25.379172873784405], [90.7906407309712, 25.50702503229164], [90.76158616291232, 25.552391927245818], [90.87474605956277, 25.607382102947856], [90.98331839283549, 25.743482787810393], [90.942030322436, 25.7544808229508], [91.00778539751667, 25.824593296970896]]]}}, {"type": "Feature", "properties": {"district": "East Jaintia Hills", "dt_code": "714", "st_nm": "Meghalaya", "st_code": "17", "year": "update2014"}, "geometry": {"type": "Polygon", "coordinates": [[[92.56908613373432, 25.465782400515113], [92.65319146232586, 25.434163049486443], [92.79234755145006, 25.282940066305844], [92.74341354208771, 25.207328574715543], [92.66389577687389, 25.177083978079423], [92.62107851868183, 25.115220030414633], [92.54003156567542, 25.09872297770402], [92.48039324176506, 25.108346258451878], [92.4253424812324, 25.02998525807648], [92.1990226879315, 25.12484331116249], [92.2051394391018, 25.226575136211256], [92.17455568325033, 25.35442729471849], [92.26936532638989, 25.395669926495017], [92.3733500962849, 25.405293207242874], [92.56908613373432, 25.465782400515113]]]}}, {"type": "Feature", "properties": {"district": "East Khasi Hills", "dt_code": "298", "st_nm": "Meghalaya", "st_code": "17", "year": "2011_c"}, "geometry": {"type": "Polygon", "coordinates": [[[91.82895924212869, 25.673370313790297], [91.83354680550642, 25.644500471546728], [92.13173842505827, 25.640376208369076], [92.0950379180365, 25.45066010219705], [92.11185898375481, 25.30631089097921], [91.98799477255635, 25.28156531191329], [92.01704934061524, 25.18945676761238], [91.74638310132971, 25.17158496050922], [91.64239833143472, 25.12484331116249], [91.6026394488278, 25.174334469294323], [91.4925379277625, 25.134466591910346], [91.37937803111205, 25.177083978079423], [91.35491102643087, 25.23344890817401], [91.54758868829515, 25.287064329483496], [91.52465087140655, 25.348928277148286], [91.54605950050258, 25.482279453225722], [91.54147193712485, 25.51114929546929], [91.7999046740698, 25.610131611732957], [91.82895924212869, 25.673370313790297]]]}}, {"type": "Feature", "properties": {"district": "South Garo Hills", "dt_code": "295", "st_nm": "Meghalaya", "st_code": "17", "year": "2011_c"}, "geometry": {"type": "Polygon", "coordinates": [[[90.76158616291232, 25.552391927245818], [90.7906407309712, 25.50702503229164], [90.74782347277915, 25.379172873784405], [90.83957474033357, 25.30768564537176], [90.95885138815432, 25.24719645209952], [90.96955570270232, 25.172959714901772], [90.85486661825931, 25.15921217097626], [90.7799364164232, 25.18395775004218], [90.6927727122465, 25.15921217097626], [90.51079936493025, 25.168835451724117], [90.44504428984958, 25.144089872658203], [90.33188439319913, 25.192206276397485], [90.23401637447442, 25.203204311537892], [90.26154175474075, 25.321433189297267], [90.30894657631053, 25.365425329858898], [90.31965089085854, 25.464407646122563], [90.44198591426444, 25.46028338294491], [90.64383870288415, 25.41629124238328], [90.76158616291232, 25.552391927245818]]]}}, {"type": "Feature", "properties": {"district": "West Garo Hills", "dt_code": "293", "st_nm": "Meghalaya", "st_code": "17", "year": "2011_c"}, "geometry": {"type": "Polygon", "coordinates": [[[90.12238566561655, 25.959319227440886], [90.18661155290464, 25.944196929122825], [90.43433997530157, 25.990938578469557], [90.38234759035406, 25.868585437532527], [90.40069784386495, 25.758605086128455], [90.41293134620554, 25.65824801547224], [90.38999352931692, 25.546892909675616], [90.31965089085854, 25.464407646122563], [90.30894657631053, 25.365425329858898], [90.26154175474075, 25.321433189297267], [90.23401637447442, 25.203204311537892], [90.11168135106854, 25.223825627426155], [89.97405444973691, 25.299437119016453], [90.03522196143985, 25.344804013970634], [90.15144023367544, 25.375048610606754], [90.1713196749789, 25.544143400890512], [90.01993008351411, 25.607382102947856], [89.8991242479008, 25.726985735099785], [90.05968896612103, 25.913952332486705], [90.12238566561655, 25.959319227440886]]]}}, {"type": "Feature", "properties": {"district": "East Garo Hills", "dt_code": "294", "st_nm": "Meghalaya", "st_code": "17", "year": "2011_c"}, "geometry": {"type": "Polygon", "coordinates": [[[90.942030322436, 25.7544808229508], [90.98331839283549, 25.743482787810393], [90.87474605956277, 25.607382102947856], [90.76158616291232, 25.552391927245818], [90.64383870288415, 25.41629124238328], [90.44198591426444, 25.46028338294491], [90.31965089085854, 25.464407646122563], [90.38999352931692, 25.546892909675616], [90.41293134620554, 25.65824801547224], [90.40069784386495, 25.758605086128455], [90.50009505038223, 25.71873720874448], [90.54291230857429, 25.78197591080182], [90.6239592615807, 25.736609015847637], [90.67901002211335, 25.78335066519437], [90.83192880137071, 25.819094279400694], [90.942030322436, 25.7544808229508]]]}}, {"type": "Feature", "properties": {"district": "West Jaintia Hills", "dt_code": "299", "st_nm": "Meghalaya", "st_code": "17", "year": "2011_c"}, "geometry": {"type": "Polygon", "coordinates": [[[92.13173842505827, 25.640376208369076], [92.15161786636173, 25.671995559397747], [92.22501888040526, 25.715987699959374], [92.44369273474328, 25.72011196313703], [92.50486024644623, 25.617005383695712], [92.58437801166005, 25.551017172853268], [92.66083740128873, 25.57163848874153], [92.56908613373432, 25.465782400515113], [92.3733500962849, 25.405293207242874], [92.26936532638989, 25.395669926495017], [92.17455568325033, 25.35442729471849], [92.2051394391018, 25.226575136211256], [92.1990226879315, 25.12484331116249], [92.08127522790333, 25.18395775004218], [92.01704934061524, 25.18945676761238], [91.98799477255635, 25.28156531191329], [92.11185898375481, 25.30631089097921], [92.0950379180365, 25.45066010219705], [92.13173842505827, 25.640376208369076]]]}}, {"type": "Feature", "properties": {"district": "South West Khasi Hills", "dt_code": "713", "st_nm": "Meghalaya", "st_code": "17", "year": "update2014"}, "geometry": {"type": "Polygon", "coordinates": [[[90.83957474033357, 25.30768564537176], [90.92368006892512, 25.351677785933386], [91.02460646323497, 25.33793024200788], [91.13776635988542, 25.39979418967267], [91.1683501157369, 25.465782400515113], [91.30903539265367, 25.4437863302343], [91.51700493244368, 25.456159119767257], [91.54605950050258, 25.482279453225722], [91.52465087140655, 25.348928277148286], [91.54758868829515, 25.287064329483496], [91.35491102643087, 25.23344890817401], [91.25245544432845, 25.197705293967687], [91.0811864115602, 25.20182955714534], [90.96955570270232, 25.172959714901772], [90.95885138815432, 25.24719645209952], [90.83957474033357, 25.30768564537176]]]}}, {"type": "Feature", "properties": {"district": "North Garo Hills", "dt_code": "712", "st_nm": "Meghalaya", "st_code": "17", "year": "update2014"}, "geometry": {"type": "Polygon", "coordinates": [[[91.02613565102754, 25.886457244635686], [91.00778539751667, 25.824593296970896], [90.942030322436, 25.7544808229508], [90.83192880137071, 25.819094279400694], [90.67901002211335, 25.78335066519437], [90.6239592615807, 25.736609015847637], [90.54291230857429, 25.78197591080182], [90.50009505038223, 25.71873720874448], [90.40069784386495, 25.758605086128455], [90.38234759035406, 25.868585437532527], [90.43433997530157, 25.990938578469557], [90.63160520054356, 25.91945135005691], [90.71723971692768, 25.95519496426323], [90.9481470736063, 25.948321192300476], [91.02613565102754, 25.886457244635686]]]}}, {"type": "Feature", "properties": {"district": "South West Garo Hills", "dt_code": "711", "st_nm": "Meghalaya", "st_code": "17", "year": "update2014"}, "geometry": {"type": "Polygon", "coordinates": [[[90.01993008351411, 25.607382102947856], [90.1713196749789, 25.544143400890512], [90.15144023367544, 25.375048610606754], [90.03522196143985, 25.344804013970634], [89.97405444973691, 25.299437119016453], [89.83489836061271, 25.296687610231352], [89.81501891930925, 25.388796154532262], [89.87159886763448, 25.47678043565552], [89.87771561880477, 25.549642418460717], [90.01993008351411, 25.607382102947856]]]}}], "metadata": {"source": "udit-001/india-maps-data (Census 2011)", "url": "https://github.com/udit-001/india-maps-data", "license": "ODbL (Open Database License)", "feature_count": 12}}