{"type": "FeatureCollection", "features": [{"type": "Feature", "properties": {"district": "Kamjong", "dt_code": "770", "st_nm": "Manipur", "st_code": "14", "year": "2016_c"}, "geometry": {"type": "Polygon", "coordinates": [[[94.17320412814404, 24.631306484236717], [94.1869668182772, 24.716541256574875], [94.13956199670741, 24.870513748540574], [94.16708737697374, 24.92687867863516], [94.3322396585717, 24.985993117514848], [94.53103407160626, 25.03410952125413], [94.65336909501215, 25.115220030414633], [94.73594523581112, 25.113845276022083], [94.743591174774, 25.03685903003923], [94.68701122644876, 24.889760310036287], [94.63196046591611, 24.838894397511904], [94.62890209033097, 24.75640913395885], [94.54479676173942, 24.71104223900467], [94.5340924471914, 24.642304519377124], [94.37505691676375, 24.49383104498163], [94.28177646141675, 24.601061887600597], [94.17320412814404, 24.631306484236717]]]}}, {"type": "Feature", "properties": {"district": "Senapati", "dt_code": "272", "st_nm": "Manipur", "st_code": "14", "year": "2011_c"}, "geometry": {"type": "Polygon", "coordinates": [[[93.8046698701338, 25.46303289173001], [93.76491098752687, 25.53864438332031], [93.93618002029513, 25.559265699208574], [94.00652265875351, 25.56751422556388], [94.10744905306336, 25.522147330609698], [94.19002519386234, 25.548267664068167], [94.20837544737323, 25.496026997151233], [94.32153534402367, 25.502900769113985], [94.41634498716323, 25.53589487453521], [94.4882168134142, 25.60463259416275], [94.37964448014147, 25.408042716027975], [94.3781152923489, 25.35717680350359], [94.21449219854352, 25.175709223686873], [94.07227773383417, 25.170210206116668], [93.99734753199806, 25.192206276397485], [93.97135133952432, 25.2925633470537], [93.98817240524262, 25.375048610606754], [93.92088814236939, 25.395669926495017], [93.8046698701338, 25.46303289173001]]]}}, {"type": "Feature", "properties": {"district": "Tamenglong", "dt_code": "273", "st_nm": "Manipur", "st_code": "14", "year": "2011_c"}, "geometry": {"type": "Polygon", "coordinates": [[[93.24651632584442, 24.97224557358934], [93.34438434456914, 25.12346855676994], [93.38108485159091, 25.240322680136764], [93.46977774356017, 25.30631089097921], [93.50189068720422, 25.243072188921868], [93.60587545709922, 25.199080048360237], [93.66704296880216, 25.31043515415686], [93.8046698701338, 25.46303289173001], [93.92088814236939, 25.395669926495017], [93.9025378888585, 25.271942031165437], [93.77255692648976, 25.15371315340606], [93.81690337247439, 25.023111486113724], [93.75879423635658, 24.907632117139446], [93.75726504856401, 24.792152748165172], [93.40708104406465, 24.825146853586393], [93.27862926948848, 24.658801572087736], [93.21440338220037, 24.69729469507916], [93.17464449959347, 24.797651765735377], [93.248045513637, 24.9145058891022], [93.24651632584442, 24.97224557358934]]]}}, {"type": "Feature", "properties": {"district": "Imphal West", "dt_code": "277", "st_nm": "Manipur", "st_code": "14", "year": "2011_c"}, "geometry": {"type": "Polygon", "coordinates": [[[93.9147713911991, 24.91038162592455], [93.94535514705056, 24.830645871156598], [93.94229677146542, 24.719290765359975], [93.88877519872534, 24.61618418591866], [93.91324220340653, 24.55432023825387], [93.86889575742188, 24.52682515040285], [93.80619905792636, 24.61755894031121], [93.7694985509046, 24.734413063678033], [93.80619905792636, 24.86501473097037], [93.87807088417733, 24.9873678719074], [93.9147713911991, 24.91038162592455]]]}}, {"type": "Feature", "properties": {"district": "Kakching", "dt_code": "768", "st_nm": "Manipur", "st_code": "14", "year": "2016_c"}, "geometry": {"type": "Polygon", "coordinates": [[[93.86889575742188, 24.52682515040285], [93.91324220340653, 24.55432023825387], [94.02334372447181, 24.519951378440094], [94.03863560239756, 24.448464150027448], [93.98358484186491, 24.485582518626323], [93.89183357431048, 24.350856588156333], [93.9025378888585, 24.254623780677772], [93.86277900625159, 24.20788213133104], [93.87042494521447, 24.272495587780934], [93.86736656962931, 24.288992640491543], [93.86583738183674, 24.293116903669198], [93.83831200157042, 24.426468079746634], [93.86889575742188, 24.52682515040285]]]}}, {"type": "Feature", "properties": {"district": "Bishnupur", "dt_code": "275", "st_nm": "Manipur", "st_code": "14", "year": "2011_c"}, "geometry": {"type": "Polygon", "coordinates": [[[93.7694985509046, 24.734413063678033], [93.80619905792636, 24.61755894031121], [93.86889575742188, 24.52682515040285], [93.83831200157042, 24.426468079746634], [93.86583738183674, 24.293116903669198], [93.81231580909666, 24.39209921993286], [93.69762672465365, 24.425093325354084], [93.72973966829768, 24.485582518626323], [93.73432723167541, 24.61755894031121], [93.73738560726056, 24.62443271227396], [93.7694985509046, 24.734413063678033]]]}}, {"type": "Feature", "properties": {"district": "Chandel", "dt_code": "280", "st_nm": "Manipur", "st_code": "14", "year": "2011_c"}, "geometry": {"type": "Polygon", "coordinates": [[[93.86277900625159, 24.20788213133104], [93.9025378888585, 24.254623780677772], [93.89183357431048, 24.350856588156333], [93.98358484186491, 24.485582518626323], [94.03863560239756, 24.448464150027448], [94.14720793567028, 24.382475939185007], [94.15332468684058, 24.301365430024504], [94.21143382295837, 24.245000499929915], [94.19614194503264, 24.133645394133293], [94.25272189335786, 24.11439883263758], [94.23743001543212, 24.036037832262178], [94.17014575255888, 23.92880698964321], [94.15638306242572, 23.847696480482707], [94.01722697330152, 23.92743223525066], [93.89336276210307, 23.953552568709124], [93.80772824571895, 23.926057480858105], [93.7404439828457, 24.005793235626058], [93.78020286545262, 24.136394902918394], [93.86277900625159, 24.20788213133104]]]}}, {"type": "Feature", "properties": {"district": "Churachandpur", "dt_code": "274", "st_nm": "Manipur", "st_code": "14", "year": "2011_c"}, "geometry": {"type": "Polygon", "coordinates": [[[93.87042494521447, 24.272495587780934], [93.86277900625159, 24.20788213133104], [93.78020286545262, 24.136394902918394], [93.7404439828457, 24.005793235626058], [93.6242257106101, 24.011292253196263], [93.50494906278936, 23.942554533568718], [93.4162561708201, 24.071781446468503], [93.37802647600576, 24.08827849917911], [93.39484754172406, 24.185886061050226], [93.47895287031562, 24.249124763107567], [93.4911863726562, 24.365978886474394], [93.36579297366517, 24.383850693577557], [93.38873079055378, 24.568067782179376], [93.44836911446414, 24.540572694328358], [93.56764576228488, 24.59281336124529], [93.73432723167541, 24.61755894031121], [93.72973966829768, 24.485582518626323], [93.69762672465365, 24.425093325354084], [93.81231580909666, 24.39209921993286], [93.86583738183674, 24.293116903669198], [93.86736656962931, 24.288992640491543], [93.87042494521447, 24.272495587780934]]]}}, {"type": "Feature", "properties": {"district": "Imphal East", "dt_code": "278", "st_nm": "Manipur", "st_code": "14", "year": "2011_c"}, "geometry": {"type": "Polygon", "coordinates": [[[93.94229677146542, 24.719290765359975], [93.94535514705056, 24.830645871156598], [93.9147713911991, 24.91038162592455], [94.02793128784954, 24.963997047234034], [94.11968255540395, 24.920004906672407], [94.06769017045646, 24.74541109881844], [94.07992367279704, 24.689046168723856], [93.97288052731689, 24.66567534405049], [93.94229677146542, 24.719290765359975]]]}}, {"type": "Feature", "properties": {"district": "Jiribam", "dt_code": "766", "st_nm": "Manipur", "st_code": "14", "year": "2016_c"}, "geometry": {"type": "Polygon", "coordinates": [[[93.17464449959347, 24.797651765735377], [93.21440338220037, 24.69729469507916], [93.21746175778553, 24.59418811563784], [93.17770287517861, 24.536448431150706], [93.08748079541677, 24.572192045357028], [93.0859516076242, 24.70966748461212], [93.1088894245128, 24.811399309660885], [93.17464449959347, 24.797651765735377]]]}}, {"type": "Feature", "properties": {"district": "Kangpokpi", "dt_code": "767", "st_nm": "Manipur", "st_code": "14", "year": "2016_c"}, "geometry": {"type": "Polygon", "coordinates": [[[94.16708737697374, 24.92687867863516], [94.13956199670741, 24.870513748540574], [94.1869668182772, 24.716541256574875], [94.17320412814404, 24.631306484236717], [94.11968255540395, 24.625807466666515], [94.07992367279704, 24.689046168723856], [94.06769017045646, 24.74541109881844], [94.11968255540395, 24.920004906672407], [94.02793128784954, 24.963997047234034], [93.9147713911991, 24.91038162592455], [93.87807088417733, 24.9873678719074], [93.80619905792636, 24.86501473097037], [93.7694985509046, 24.734413063678033], [93.73738560726056, 24.62443271227396], [93.72668129271254, 24.746785853210994], [93.75726504856401, 24.792152748165172], [93.75879423635658, 24.907632117139446], [93.81690337247439, 25.023111486113724], [93.77255692648976, 25.15371315340606], [93.9025378888585, 25.271942031165437], [93.92088814236939, 25.395669926495017], [93.98817240524262, 25.375048610606754], [93.97135133952432, 25.2925633470537], [93.99734753199806, 25.192206276397485], [94.07227773383417, 25.170210206116668], [94.21449219854352, 25.175709223686873], [94.13191605774455, 25.117969539199734], [94.16708737697374, 24.92687867863516]]]}}, {"type": "Feature", "properties": {"district": "Thoubal", "dt_code": "276", "st_nm": "Manipur", "st_code": "14", "year": "2011_c"}, "geometry": {"type": "Polygon", "coordinates": [[[93.91324220340653, 24.55432023825387], [93.88877519872534, 24.61618418591866], [93.94229677146542, 24.719290765359975], [93.97288052731689, 24.66567534405049], [94.07992367279704, 24.689046168723856], [94.11968255540395, 24.625807466666515], [94.07839448500447, 24.54332220311346], [94.02334372447181, 24.519951378440094], [93.91324220340653, 24.55432023825387]]]}}, {"type": "Feature", "properties": {"district": "Tengnoupal", "dt_code": "769", "st_nm": "Manipur", "st_code": "14", "year": "2016_c"}, "geometry": {"type": "Polygon", "coordinates": [[[94.17320412814404, 24.631306484236717], [94.28177646141675, 24.601061887600597], [94.37505691676375, 24.49383104498163], [94.40716986040779, 24.43746611488704], [94.29095158817219, 24.232627710396958], [94.25272189335786, 24.11439883263758], [94.19614194503264, 24.133645394133293], [94.21143382295837, 24.245000499929915], [94.15332468684058, 24.301365430024504], [94.14720793567028, 24.382475939185007], [94.03863560239756, 24.448464150027448], [94.02334372447181, 24.519951378440094], [94.07839448500447, 24.54332220311346], [94.11968255540395, 24.625807466666515], [94.17320412814404, 24.631306484236717]]]}}, {"type": "Feature", "properties": {"district": "Ukhrul", "dt_code": "279", "st_nm": "Manipur", "st_code": "14", "year": "2011_c"}, "geometry": {"type": "Polygon", "coordinates": [[[94.65336909501215, 25.115220030414633], [94.53103407160626, 25.03410952125413], [94.3322396585717, 24.985993117514848], [94.16708737697374, 24.92687867863516], [94.13191605774455, 25.117969539199734], [94.21449219854352, 25.175709223686873], [94.3781152923489, 25.35717680350359], [94.37964448014147, 25.408042716027975], [94.4882168134142, 25.60463259416275], [94.55091351290972, 25.579887015096837], [94.55397188849486, 25.504275523506536], [94.67477772410817, 25.44516108462685], [94.57538051759089, 25.2142023466783], [94.65336909501215, 25.115220030414633]]]}}, {"type": "Feature", "properties": {"district": "Noney", "dt_code": "771", "st_nm": "Manipur", "st_code": "14", "year": "2016_c"}, "geometry": {"type": "Polygon", "coordinates": [[[93.21440338220037, 24.69729469507916], [93.27862926948848, 24.658801572087736], [93.40708104406465, 24.825146853586393], [93.75726504856401, 24.792152748165172], [93.72668129271254, 24.746785853210994], [93.73738560726056, 24.62443271227396], [93.73432723167541, 24.61755894031121], [93.56764576228488, 24.59281336124529], [93.44836911446414, 24.540572694328358], [93.38873079055378, 24.568067782179376], [93.28168764507362, 24.568067782179376], [93.17770287517861, 24.536448431150706], [93.21746175778553, 24.59418811563784], [93.21440338220037, 24.69729469507916]]]}}, {"type": "Feature", "properties": {"district": "Pherzawl", "dt_code": "772", "st_nm": "Manipur", "st_code": "14", "year": "2016_c"}, "geometry": {"type": "Polygon", "coordinates": [[[93.2067574432375, 24.047035867402585], [92.97585008655889, 24.11577358703013], [93.02325490812868, 24.23400246478951], [93.00949221799551, 24.412720535821126], [93.04925110060243, 24.544696957506012], [93.08748079541677, 24.572192045357028], [93.17770287517861, 24.536448431150706], [93.28168764507362, 24.568067782179376], [93.38873079055378, 24.568067782179376], [93.36579297366517, 24.383850693577557], [93.4911863726562, 24.365978886474394], [93.47895287031562, 24.249124763107567], [93.39484754172406, 24.185886061050226], [93.37802647600576, 24.08827849917911], [93.25263307701472, 24.02091553394412], [93.2067574432375, 24.047035867402585]]]}}], "metadata": {"source": "udit-001/india-maps-data (Census 2011)", "url": "https://github.com/udit-001/india-maps-data", "license": "ODbL (Open Database License)", "feature_count": 17}}