{"type": "FeatureCollection", "features": [{"type": "Feature", "properties": {"district": "Burhanpur", "dt_code": "467", "st_nm": "Madhya Pradesh", "st_code": "23", "year": "2011_c"}, "geometry": {"type": "Polygon", "coordinates": [[[76.78175136320439, 21.55873041688546], [76.78328055099698, 21.46387236379945], [76.62118664498416, 21.331895942114564], [76.66247471538367, 21.281030029590177], [76.62271583277675, 21.184797222111616], [76.48967649482285, 21.19167099407437], [76.47744299248225, 21.147678853512744], [76.38263334934268, 21.076191625100094], [76.1670178705898, 21.0789411338852], [76.15937193162694, 21.254909696131712], [76.09514604433885, 21.37176381949854], [75.98657371106613, 21.36901431071344], [76.00951152795473, 21.469371381369655], [75.95140239183694, 21.547732381745053], [76.07679579082797, 21.57247796081097], [76.17619299734525, 21.542233364174848], [76.3765165981724, 21.598598294269436], [76.51261431171145, 21.56147992567056], [76.61201151822873, 21.57385271520352], [76.78175136320439, 21.55873041688546]]]}}, {"type": "Feature", "properties": {"district": "Seoni", "dt_code": "456", "st_nm": "Madhya Pradesh", "st_code": "23", "year": "2011_c"}, "geometry": {"type": "Polygon", "coordinates": [[[79.96399115955008, 22.852374300275855], [80.06491755385994, 22.761640510367496], [80.28053303261281, 22.78363658064831], [80.28970815936826, 22.725896896161174], [80.1536104458292, 22.59941949204649], [80.03586298580103, 22.607668018401796], [80.0496256759342, 22.456445035221197], [80.10008887308913, 22.335466648676718], [80.09855968529655, 22.24610761316091], [80.03280461021589, 22.181494156711018], [80.06644674165251, 22.07701282287715], [79.93340740369861, 22.06876429652184], [79.92270308915059, 21.973906243435835], [79.86153557744764, 21.965657717080525], [79.76978430989323, 21.808935716329724], [79.6902665446794, 21.80068718997442], [79.67344547896109, 21.69620585614055], [79.50982238515572, 21.595848785484336], [79.49605969502255, 21.674209785859738], [79.39207492512755, 21.674209785859738], [79.23456858249247, 21.718201926421365], [79.34008254018005, 21.95465968194012], [79.39972086409041, 21.9972770681092], [79.39360411292012, 22.103133156335616], [79.35384523031321, 22.130628244186635], [79.28809015523254, 22.327218122321412], [79.34467010355776, 22.483940123072216], [79.32784903783946, 22.615916544757102], [79.411954366431, 22.721772632983523], [79.48841375605969, 22.730021159338825], [79.57710664802896, 22.833127738780142], [79.62909903297646, 22.94998186214697], [79.7483756807972, 22.9211120199034], [79.78507618781896, 22.846875282705653], [79.96399115955008, 22.852374300275855]]]}}, {"type": "Feature", "properties": {"district": "Alirajpur", "dt_code": "465", "st_nm": "Madhya Pradesh", "st_code": "23", "year": "2011_c"}, "geometry": {"type": "Polygon", "coordinates": [[[74.74181484791121, 22.559551614662514], [74.69135165075627, 22.36846075409794], [74.64853439256422, 22.273602701011928], [74.52619936915833, 22.236484332413056], [74.47114860862568, 22.112756437083473], [74.50173236447715, 22.045393471848477], [74.43291891381133, 22.03027117353042], [74.28152932234656, 21.93403836605186], [74.14696079660007, 21.950535418762467], [74.09496841165257, 22.01652362960491], [74.12402297971147, 22.097634138765414], [74.1224937919189, 22.211738753347138], [74.05368034125308, 22.298348280077846], [74.06897221917882, 22.35608796456498], [74.18977805479214, 22.32034435035866], [74.21577424726588, 22.44132273690314], [74.11943541633374, 22.419326666622325], [74.05826790463081, 22.549928333914657], [74.15001917218522, 22.52105849167109], [74.26317906883567, 22.64341163260812], [74.37939734107127, 22.63516310625281], [74.44209404056679, 22.58292243933588], [74.6087755099573, 22.558176860269963], [74.74181484791121, 22.559551614662514]]]}}, {"type": "Feature", "properties": {"district": "Chhindwara", "dt_code": "455", "st_nm": "Madhya Pradesh", "st_code": "23", "year": "2011_c"}, "geometry": {"type": "Polygon", "coordinates": [[[79.32784903783946, 22.615916544757102], [79.34467010355776, 22.483940123072216], [79.28809015523254, 22.327218122321412], [79.35384523031321, 22.130628244186635], [79.39360411292012, 22.103133156335616], [79.39972086409041, 21.9972770681092], [79.34008254018005, 21.95465968194012], [79.23456858249247, 21.718201926421365], [79.22386426794445, 21.64808945240127], [79.07706223985738, 21.605472066232192], [78.97460665775495, 21.61784485576515], [78.91649752163715, 21.590349767914134], [78.89967645591885, 21.50099073239832], [78.58466377064869, 21.487243188472814], [78.51126275660515, 21.52848582024934], [78.4332741791839, 21.49686646922067], [78.41951148905073, 21.57110320641842], [78.34305209942205, 21.58897501352158], [78.39351529657698, 21.671460277074637], [78.45927037165765, 21.718201926421365], [78.46691631062052, 21.81305997950738], [78.5494924514195, 21.87354917277962], [78.5143211321903, 21.93678787483696], [78.2772970243414, 22.09076036680266], [78.24518408069734, 22.32034435035866], [78.26965108537851, 22.401454859519163], [78.3812817942364, 22.420701421014876], [78.46997468620566, 22.375334526060694], [78.5601967659675, 22.419326666622325], [78.54796326362691, 22.53618078998915], [78.49750006647199, 22.592545720083734], [78.52196707115317, 22.665407702888935], [78.61218915091501, 22.648910650178323], [78.69017772833627, 22.70527558027291], [78.72381985977287, 22.64478638700067], [78.91802670942972, 22.672281474851687], [79.01130716477672, 22.64341163260812], [79.04189092062819, 22.758891001582395], [79.24068533366275, 22.802883142144022], [79.24374370924791, 22.71902312419842], [79.32784903783946, 22.615916544757102]]]}}, {"type": "Feature", "properties": {"district": "Harda", "dt_code": "448", "st_nm": "Madhya Pradesh", "st_code": "23", "year": "2011_c"}, "geometry": {"type": "Polygon", "coordinates": [[[77.3903681046487, 22.222736788487545], [77.47294424544768, 22.163622349607856], [77.4591815553145, 22.083886594839903], [77.50505718909172, 22.03027117353042], [77.27720820799826, 21.964282962687975], [77.22062825967302, 21.906543278200836], [77.13805211887404, 21.994527559324098], [76.97595821286124, 22.0027760856794], [76.88726532089198, 21.983529524183687], [76.8398604993222, 22.06051577016654], [76.82609780918904, 22.156748577645104], [76.87350263075882, 22.284600736152335], [76.78175136320439, 22.343715175032024], [76.79398486554499, 22.426200438585077], [76.91937826453602, 22.488064386249867], [77.07841379496368, 22.50868570213813], [77.13040617991118, 22.555427351484862], [77.22062825967302, 22.56917489541037], [77.28179577137597, 22.463318807183953], [77.3903681046487, 22.222736788487545]]]}}, {"type": "Feature", "properties": {"district": "Khargone", "dt_code": "440", "st_nm": "Madhya Pradesh", "st_code": "23", "year": "2011_c"}, "geometry": {"type": "Polygon", "coordinates": [[[76.07679579082797, 21.57247796081097], [75.95140239183694, 21.547732381745053], [76.00951152795473, 21.469371381369655], [75.98657371106613, 21.36901431071344], [75.60886432630045, 21.389635626601702], [75.5828681338267, 21.474870398939856], [75.49876280523515, 21.487243188472814], [75.46512067379852, 21.55598090810036], [75.50182118082029, 21.613720592587498], [75.391719659755, 21.68108355782249], [75.2923224532377, 21.63434190847576], [75.2173922514016, 21.694831101748], [75.2755013875194, 21.73882324230963], [75.35043158935551, 21.982154769791137], [75.41312828885103, 22.05914101577399], [75.31678945791889, 22.133377752971736], [75.49111686627228, 22.15399906886], [75.53546331225691, 22.23373482362795], [75.5186422465386, 22.32584336792886], [75.56145950473066, 22.376709280453245], [75.61498107747074, 22.338216157461822], [75.76025391776523, 22.362961736527737], [75.83365493180877, 22.408328631481915], [75.994219650029, 22.41382764905212], [76.08291254199827, 22.5375555443817], [76.10126279550914, 22.470192579146705], [76.21289350436702, 22.41795191222977], [76.21136431657445, 22.327218122321412], [76.08291254199827, 22.18561841988867], [76.1379633025309, 22.110006928298368], [76.22512700670761, 22.071513805306946], [76.14255086590863, 21.976655752220935], [76.16854705838239, 21.885921962312572], [76.10126279550914, 21.854302611283906], [76.10737954667944, 21.69070683857035], [76.0691498518651, 21.663211750719327], [76.07679579082797, 21.57247796081097]]]}}, {"type": "Feature", "properties": {"district": "Khandwa", "dt_code": "466", "st_nm": "Madhya Pradesh", "st_code": "23", "year": "2011_c"}, "geometry": {"type": "Polygon", "coordinates": [[[76.78175136320439, 21.55873041688546], [76.61201151822873, 21.57385271520352], [76.51261431171145, 21.56147992567056], [76.3765165981724, 21.598598294269436], [76.17619299734525, 21.542233364174848], [76.07679579082797, 21.57247796081097], [76.0691498518651, 21.663211750719327], [76.10737954667944, 21.69070683857035], [76.10126279550914, 21.854302611283906], [76.16854705838239, 21.885921962312572], [76.14255086590863, 21.976655752220935], [76.22512700670761, 22.071513805306946], [76.1379633025309, 22.110006928298368], [76.08291254199827, 22.18561841988867], [76.21136431657445, 22.327218122321412], [76.32605340101746, 22.298348280077846], [76.49732243378571, 22.411078140267016], [76.60436557926586, 22.405579122696814], [76.68235415668711, 22.296973525685292], [76.78175136320439, 22.343715175032024], [76.87350263075882, 22.284600736152335], [76.82609780918904, 22.156748577645104], [76.8398604993222, 22.06051577016654], [76.88726532089198, 21.983529524183687], [76.97595821286124, 22.0027760856794], [77.13805211887404, 21.994527559324098], [77.22062825967302, 21.906543278200836], [77.16557749914037, 21.868050155209414], [77.15028562121464, 21.771817347730853], [77.06159272924538, 21.712702908851163], [77.04018410014933, 21.6975806105331], [77.02336303443103, 21.687957329785245], [77.00654196871272, 21.67833404903739], [76.99889602974986, 21.6920815929629], [76.90255719881772, 21.597223539876886], [76.85515237724793, 21.613720592587498], [76.78175136320439, 21.55873041688546]]]}}, {"type": "Feature", "properties": {"district": "Balaghat", "dt_code": "457", "st_nm": "Madhya Pradesh", "st_code": "23", "year": "2011_c"}, "geometry": {"type": "Polygon", "coordinates": [[[80.66130079296364, 21.333270696507114], [80.62154191035673, 21.320897906974153], [80.52826145500974, 21.395134644171904], [80.42274749732216, 21.440501539126082], [80.37534267575238, 21.52436155707169], [80.26829953027223, 21.61784485576515], [80.12149750218515, 21.610971083802397], [80.06644674165251, 21.55460615370781], [79.91811552577286, 21.52436155707169], [79.73920055404176, 21.602722557447088], [79.53887695321461, 21.540858609782298], [79.50982238515572, 21.595848785484336], [79.67344547896109, 21.69620585614055], [79.6902665446794, 21.80068718997442], [79.76978430989323, 21.808935716329724], [79.86153557744764, 21.965657717080525], [79.92270308915059, 21.973906243435835], [79.93340740369861, 22.06876429652184], [80.06644674165251, 22.07701282287715], [80.03280461021589, 22.181494156711018], [80.09855968529655, 22.24610761316091], [80.10008887308913, 22.335466648676718], [80.33558379314546, 22.298348280077846], [80.39980968043355, 22.303847297648048], [80.58025383995724, 22.226861051665196], [80.70564723894827, 22.20211547259928], [80.7041180511557, 22.270853192226824], [80.8662119571685, 22.37945878923835], [80.91514596653086, 22.279101718582133], [81.00689723408527, 22.283225981759784], [81.04512692889962, 22.240608595590707], [81.00383885850013, 22.05914101577399], [80.90750002756799, 22.110006928298368], [80.83256982573188, 21.896919997452983], [80.84633251586504, 21.835056049788193], [80.81727794780615, 21.762194066982993], [80.7561104361032, 21.762194066982993], [80.71482236570372, 21.661836996326777], [80.73776018259233, 21.473495644547306], [80.66130079296364, 21.333270696507114]]]}}, {"type": "Feature", "properties": {"district": "Barwani", "dt_code": "441", "st_nm": "Madhya Pradesh", "st_code": "23", "year": "2011_c"}, "geometry": {"type": "Polygon", "coordinates": [[[75.60886432630045, 21.389635626601702], [75.38254453299955, 21.380012345853842], [75.21127550023131, 21.411631696882516], [75.1072907303363, 21.462497609406896], [75.05223996980365, 21.566978943240766], [74.86262068352453, 21.63434190847576], [74.77545697934782, 21.61509534698005], [74.58277931748356, 21.664586505111878], [74.5047907400623, 21.72645045277667], [74.52467018136576, 21.91204229577104], [74.4527983551148, 21.961533453902874], [74.43291891381133, 22.03027117353042], [74.50173236447715, 22.045393471848477], [74.5628998761801, 22.023397401567664], [74.6791181484157, 22.035770191100625], [74.77851535493298, 22.0783875772697], [75.1883376833427, 22.104507910728167], [75.31678945791889, 22.133377752971736], [75.41312828885103, 22.05914101577399], [75.35043158935551, 21.982154769791137], [75.2755013875194, 21.73882324230963], [75.2173922514016, 21.694831101748], [75.2923224532377, 21.63434190847576], [75.391719659755, 21.68108355782249], [75.50182118082029, 21.613720592587498], [75.46512067379852, 21.55598090810036], [75.49876280523515, 21.487243188472814], [75.5828681338267, 21.474870398939856], [75.60886432630045, 21.389635626601702]]]}}, {"type": "Feature", "properties": {"district": "Betul", "dt_code": "447", "st_nm": "Madhya Pradesh", "st_code": "23", "year": "2011_c"}, "geometry": {"type": "Polygon", "coordinates": [[[78.26965108537851, 22.401454859519163], [78.24518408069734, 22.32034435035866], [78.2772970243414, 22.09076036680266], [78.5143211321903, 21.93678787483696], [78.5494924514195, 21.87354917277962], [78.46691631062052, 21.81305997950738], [78.45927037165765, 21.718201926421365], [78.39351529657698, 21.671460277074637], [78.34305209942205, 21.58897501352158], [78.22377545160131, 21.551856644922708], [78.17637063003153, 21.49961597800577], [78.02956860194446, 21.42125497763037], [77.88429576164997, 21.384136609031497], [77.801719620851, 21.408882188097415], [77.56163713741694, 21.396509398564454], [77.48823612337341, 21.37451332828364], [77.45459399193679, 21.55323139931526], [77.5753998275501, 21.52711106585679], [77.54328688390606, 21.704454382495854], [77.47906099661796, 21.7704425933383], [77.2802665835834, 21.75806980380534], [77.20992394512501, 21.689332084177796], [77.06159272924538, 21.712702908851163], [77.15028562121464, 21.771817347730853], [77.16557749914037, 21.868050155209414], [77.22062825967302, 21.906543278200836], [77.27720820799826, 21.964282962687975], [77.50505718909172, 22.03027117353042], [77.4591815553145, 22.083886594839903], [77.47294424544768, 22.163622349607856], [77.3903681046487, 22.222736788487545], [77.45306480414422, 22.217237770917343], [77.54787444728377, 22.351963701387326], [77.68397216082283, 22.32171910475121], [77.85524119359107, 22.36846075409794], [78.03262697752962, 22.329967631106513], [78.18707494457955, 22.398705350734062], [78.26965108537851, 22.401454859519163]]]}}, {"type": "Feature", "properties": {"district": "Morena", "dt_code": "419", "st_nm": "Madhya Pradesh", "st_code": "23", "year": "2011_c"}, "geometry": {"type": "Polygon", "coordinates": [[[78.22224626380874, 26.832288266710705], [78.35834397734779, 26.86940663530958], [78.39504448436955, 26.817165968392644], [78.54490488804177, 26.76355054708316], [78.49444169088684, 26.6700672483897], [78.36751910410322, 26.571084932126034], [78.21612951263845, 26.529842300349507], [78.29258890226713, 26.404739650627377], [78.25741758303793, 26.329128159037076], [78.15037443755777, 26.341500948570033], [78.02803941415189, 26.308506843148812], [78.01121834843357, 26.27276322894249], [77.81548231098415, 26.25489142183933], [77.7436104847332, 26.161408123145865], [77.72831860680746, 26.04592875417159], [77.6686802828971, 25.96756775379619], [77.69620566316341, 25.901579542953748], [77.64268409042334, 25.898830034168647], [77.64880084159364, 25.962068736225987], [77.4255394238779, 26.122915000154443], [77.31390871502002, 26.142161561650155], [77.25274120331707, 26.087171385948118], [77.11970186536317, 26.213648790062802], [77.27109145682796, 26.267264211372286], [77.37507622672297, 26.3648717732434], [77.43777292621847, 26.403364896234823], [77.53869932052834, 26.41161342259013], [77.74513967252577, 26.538090826704813], [77.82312824994703, 26.55046361623777], [77.90417520295343, 26.659069213249293], [78.00051403388557, 26.694812827455614], [78.08920692585484, 26.6755662659599], [78.11214474274344, 26.79516989811183], [78.22224626380874, 26.832288266710705]]]}}, {"type": "Feature", "properties": {"district": "Bhind", "dt_code": "420", "st_nm": "Madhya Pradesh", "st_code": "23", "year": "2011_c"}, "geometry": {"type": "Polygon", "coordinates": [[[78.54490488804177, 26.76355054708316], [78.78039980809811, 26.769049564653365], [78.87215107565252, 26.69756233624072], [79.006719601399, 26.67144200278225], [78.9898985356807, 26.57933345848134], [79.13517137597518, 26.4404832648337], [79.13822975156033, 26.338751439784932], [78.9944860990584, 26.19715173735219], [79.01130716477672, 26.083047122770466], [78.9486104652812, 26.02805694706843], [78.93790615073318, 25.95244545547813], [78.88591376578569, 25.912577578094155], [78.80486681277928, 25.944196929122825], [78.77275386913524, 26.018433666320572], [78.8446256953862, 26.111916965014036], [78.78957493485355, 26.22327207081066], [78.69629447950656, 26.217773053240453], [78.62748102884075, 26.157283859968214], [78.41186555008787, 26.296134053615855], [78.29105971447456, 26.34837472053279], [78.25741758303793, 26.329128159037076], [78.29258890226713, 26.404739650627377], [78.21612951263845, 26.529842300349507], [78.36751910410322, 26.571084932126034], [78.49444169088684, 26.6700672483897], [78.54490488804177, 26.76355054708316]]]}}, {"type": "Feature", "properties": {"district": "Gwalior", "dt_code": "421", "st_nm": "Madhya Pradesh", "st_code": "23", "year": "2011_c"}, "geometry": {"type": "Polygon", "coordinates": [[[77.69620566316341, 25.901579542953748], [77.6686802828971, 25.96756775379619], [77.72831860680746, 26.04592875417159], [77.7436104847332, 26.161408123145865], [77.81548231098415, 26.25489142183933], [78.01121834843357, 26.27276322894249], [78.02803941415189, 26.308506843148812], [78.15037443755777, 26.341500948570033], [78.25741758303793, 26.329128159037076], [78.29105971447456, 26.34837472053279], [78.41186555008787, 26.296134053615855], [78.62748102884075, 26.157283859968214], [78.58466377064869, 26.006060876787615], [78.48220818854625, 25.962068736225987], [78.47303306179082, 25.909828069309054], [78.33081859708146, 25.832841823326202], [78.29564727785227, 25.78610017397947], [78.21460032484588, 25.73798377024019], [78.05403560662565, 25.709113927996622], [77.91640870529402, 25.7544808229508], [77.69620566316341, 25.901579542953748]]]}}, {"type": "Feature", "properties": {"district": "Sheopur", "dt_code": "418", "st_nm": "Madhya Pradesh", "st_code": "23", "year": "2011_c"}, "geometry": {"type": "Polygon", "coordinates": [[[76.85209400166279, 26.032181210246083], [76.90102801102515, 26.092670403518323], [76.99889602974986, 26.129788772117195], [77.11970186536317, 26.213648790062802], [77.25274120331707, 26.087171385948118], [77.31390871502002, 26.142161561650155], [77.4255394238779, 26.122915000154443], [77.64880084159364, 25.962068736225987], [77.64268409042334, 25.898830034168647], [77.52187825481002, 25.850713630429365], [77.42401023608531, 25.89195626220589], [77.40871835815958, 25.81222050743794], [77.32920059294575, 25.790224437157125], [77.27720820799826, 25.72011196313703], [77.30014602488686, 25.534520120142655], [77.17934018927355, 25.51114929546929], [77.0830013583414, 25.33655548761533], [76.94537445700978, 25.284314820698395], [76.8566815650405, 25.332431224437673], [76.76187192190095, 25.320058434904716], [76.67012065434653, 25.348928277148286], [76.59366126471785, 25.408042716027975], [76.51567268729659, 25.527646348179903], [76.50343918495601, 25.670620805005196], [76.54625644314807, 25.838340840896407], [76.64259527408021, 25.9084533149165], [76.71599628812373, 25.901579542953748], [76.78786811437469, 25.944196929122825], [76.85209400166279, 26.032181210246083]]]}}, {"type": "Feature", "properties": {"district": "Shivpuri", "dt_code": "423", "st_nm": "Madhya Pradesh", "st_code": "23", "year": "2011_c"}, "geometry": {"type": "Polygon", "coordinates": [[[77.64268409042334, 25.898830034168647], [77.69620566316341, 25.901579542953748], [77.91640870529402, 25.7544808229508], [78.05403560662565, 25.709113927996622], [78.21460032484588, 25.73798377024019], [78.29564727785227, 25.78610017397947], [78.24824245628248, 25.72148671752958], [78.37669423085867, 25.65824801547224], [78.45162443269479, 25.57163848874153], [78.41951148905073, 25.531770611357555], [78.4164531134656, 25.47678043565552], [78.39504448436955, 25.4437863302343], [78.35528560176265, 25.452034856589602], [78.33999372383691, 25.43278829509389], [78.33999372383691, 25.41629124238328], [78.34458128721462, 25.328306961260022], [78.39045692099184, 25.205953820322993], [78.33999372383691, 25.222450873033605], [78.29258890226713, 25.12896757434014], [78.37363585527352, 25.09872297770402], [78.33693534825176, 25.084975433778514], [78.33540616045919, 25.0684783810679], [78.34611047500721, 25.012113450973317], [78.1717830666538, 24.876012766110776], [78.19013332016469, 24.841643906297005], [78.11214474274344, 24.8361448887268], [77.97145946582667, 24.884261292466082], [78.01733509960387, 24.95574852087873], [77.8307741889099, 25.00111541583291], [77.73902292135548, 24.856766204615063], [77.67632622185997, 24.86363997657782], [77.59527926885356, 24.92687867863516], [77.56469551300209, 24.871888502933125], [77.47906099661796, 24.876012766110776], [77.45153561635163, 24.928253433027713], [77.37048866334524, 24.92550392424261], [77.31237952722745, 25.080851170600862], [77.39342648023384, 25.119344293592285], [77.41177673374473, 25.223825627426155], [77.36743028776009, 25.410792224813076], [77.31390871502002, 25.43141354070134], [77.23439094980618, 25.379172873784405], [77.22368663525818, 25.318683680512166], [77.0830013583414, 25.33655548761533], [77.17934018927355, 25.51114929546929], [77.30014602488686, 25.534520120142655], [77.27720820799826, 25.72011196313703], [77.32920059294575, 25.790224437157125], [77.40871835815958, 25.81222050743794], [77.42401023608531, 25.89195626220589], [77.52187825481002, 25.850713630429365], [77.64268409042334, 25.898830034168647]]]}}, {"type": "Feature", "properties": {"district": "Tikamgarh", "dt_code": "424", "st_nm": "Madhya Pradesh", "st_code": "23", "year": "2011_c"}, "geometry": {"type": "Polygon", "coordinates": [[[78.87979701461539, 25.15783741658371], [78.93026021177032, 25.207328574715543], [79.06329954972422, 25.222450873033605], [79.13058381259746, 25.109721012844428], [79.24527289704048, 25.113845276022083], [79.32326147446173, 25.149588890228404], [79.34467010355776, 24.903507853961795], [79.30491122095086, 24.797651765735377], [79.30338203315827, 24.687671414331305], [79.21774751677415, 24.662925835265387], [79.19480969988555, 24.613434677133554], [79.09082492999055, 24.632681238629267], [79.0235406671173, 24.546071711898563], [78.98531097230297, 24.441590378064692], [78.91496833384458, 24.459462185167855], [78.95319802865892, 24.547446466291113], [78.88285539020053, 24.640929764984573], [78.7513452400392, 24.599687133208047], [78.78039980809811, 24.705543221434464], [78.76969549355009, 24.859515713400167], [78.6764150382031, 24.898008836391593], [78.63206859221846, 24.95712327527128], [78.63971453118134, 25.071227889853006], [78.8446256953862, 25.09734822331147], [78.87979701461539, 25.15783741658371]]]}}, {"type": "Feature", "properties": {"district": "Neemuch", "dt_code": "432", "st_nm": "Madhya Pradesh", "st_code": "23", "year": "2011_c"}, "geometry": {"type": "Polygon", "coordinates": [[[75.19139605892785, 25.03685903003923], [75.35196077714808, 25.01898722293607], [75.33666889922235, 24.952999012093628], [75.18375011996498, 24.748160607603545], [75.45594554704309, 24.68079764236855], [75.54922600239007, 24.702793712649363], [75.58133894603412, 24.642304519377124], [75.59051407278956, 24.519951378440094], [75.42994935456933, 24.356355605726538], [75.36572346728124, 24.31511297395001], [75.20515874906101, 24.308239201987256], [75.02471458953733, 24.370103149652046], [74.90849631730173, 24.212006394508695], [74.86720824690224, 24.243625745537365], [74.7540483502518, 24.242250991144815], [74.78157373051812, 24.338483798623376], [74.85497474456166, 24.423718570961533], [74.81521586195474, 24.46908546591571], [74.69746840192657, 24.48283300984122], [74.78616129389584, 24.58593958928254], [74.77239860376268, 24.661551080872837], [74.80451154740673, 24.735787818070584], [74.88861687599828, 24.634055993021818], [74.99260164589327, 24.693170431901507], [74.97730976796754, 24.764657660314153], [74.86109149573196, 24.799026520127928], [74.82592017650276, 24.899383590784144], [74.90237956613144, 24.929628187420263], [74.95895951445667, 24.858140959007617], [75.03847727967049, 24.845768169474656], [75.11646585709174, 24.877387520503326], [75.1134074815066, 24.966746556019135], [75.19139605892785, 25.03685903003923]]]}}, {"type": "Feature", "properties": {"district": "Rewa", "dt_code": "430", "st_nm": "Madhya Pradesh", "st_code": "23", "year": "2011_c"}, "geometry": {"type": "Polygon", "coordinates": [[[81.54058377369347, 25.18808201321983], [81.62621829007759, 25.16058692536881], [81.66750636047708, 25.06160460910515], [81.79289975946811, 25.00386492461801], [81.8922969659854, 24.98874262629995], [81.94276016314032, 24.845768169474656], [82.09414975460511, 24.81689832723109], [82.216484778011, 24.793527502557723], [82.2975317310174, 24.606560905170802], [82.3036484821877, 24.59418811563784], [82.18284264657439, 24.602436641993148], [81.86630077351164, 24.52407564161775], [81.79137057167554, 24.52957465918795], [81.50388326667169, 24.423718570961533], [81.30508885363713, 24.321986745912767], [81.29132616350397, 24.396223483110514], [81.1567576377575, 24.49795530815928], [81.1567576377575, 24.706917975827018], [81.09100256267682, 24.77428094106201], [81.12005713073572, 24.903507853961795], [81.15981601334263, 24.91313113470965], [81.26380078323764, 25.053356082749843], [81.2775634733708, 25.166085942939016], [81.39225255781382, 25.131717083125245], [81.49929570329398, 25.148214135835854], [81.54058377369347, 25.18808201321983]]]}}, {"type": "Feature", "properties": {"district": "Satna", "dt_code": "429", "st_nm": "Madhya Pradesh", "st_code": "23", "year": "2011_c"}, "geometry": {"type": "Polygon", "coordinates": [[[80.4777982578548, 24.97636983676699], [80.50073607474341, 25.040983293216886], [80.59248734229783, 25.09047445134872], [80.71482236570372, 25.0657288722828], [80.72399749245916, 25.117969539199734], [80.84480332807247, 25.18670725882728], [80.8784454595091, 25.0657288722828], [80.83104063793931, 25.03273476686158], [80.8600952059982, 24.928253433027713], [80.94572972238234, 24.966746556019135], [81.0344226143516, 24.952999012093628], [81.12005713073572, 24.903507853961795], [81.09100256267682, 24.77428094106201], [81.1567576377575, 24.706917975827018], [81.1567576377575, 24.49795530815928], [81.29132616350397, 24.396223483110514], [81.30508885363713, 24.321986745912767], [81.38919418222868, 24.26562181581818], [81.34790611182919, 24.187260815442777], [81.28215103674853, 24.190010324227877], [81.18581220581639, 24.11027456945993], [81.1338198208689, 24.135020148525843], [81.00230967070756, 24.08140472721636], [80.95796322472292, 24.064907674505747], [80.86927033275366, 24.078655218431255], [80.76528556285865, 23.99204569170055], [80.73776018259233, 24.130895885348192], [80.5542576474835, 24.048410621795135], [80.46862313109936, 23.990670937308], [80.35852161003407, 23.968674867027186], [80.63224622490475, 24.17488802590982], [80.55731602306864, 24.26699657021073], [80.4609771921365, 24.43746611488704], [80.47015231889193, 24.613434677133554], [80.37687186354495, 24.68079764236855], [80.43651018745533, 24.746785853210994], [80.60319165684584, 24.830645871156598], [80.57566627657951, 24.900758345176694], [80.49461932357312, 24.9117563803171], [80.4777982578548, 24.97636983676699]]]}}, {"type": "Feature", "properties": {"district": "Guna", "dt_code": "458", "st_nm": "Madhya Pradesh", "st_code": "23", "year": "2011_c"}, "geometry": {"type": "Polygon", "coordinates": [[[77.31237952722745, 25.080851170600862], [77.37048866334524, 24.92550392424261], [77.45153561635163, 24.928253433027713], [77.47906099661796, 24.876012766110776], [77.56469551300209, 24.871888502933125], [77.52034906701745, 24.826521607978943], [77.55704957403921, 24.761908151529052], [77.48211937220312, 24.632681238629267], [77.49741125012885, 24.473209729093366], [77.47600262103282, 24.43609136049449], [77.59986683223129, 24.37560216722225], [77.65185921717878, 24.31373821955746], [77.55399119845407, 24.246375254322466], [77.44694805297392, 24.23812672796716], [77.32155465398289, 24.287617886098992], [77.34602165866406, 24.181761797872575], [77.26038714227994, 24.067657183290848], [77.31237952722745, 24.00716799001861], [77.31849627839773, 23.890313866651784], [77.22674501084332, 23.890313866651784], [77.16557749914037, 23.94667879674637], [77.18239856485869, 24.078655218431255], [77.0248922222236, 24.08277948160891], [76.97137064948353, 24.044286358617484], [76.88114856972169, 24.130895885348192], [76.92243664012118, 24.212006394508695], [76.8627983162108, 24.272495587780934], [76.83221456035933, 24.35773036011909], [76.84444806269991, 24.43609136049449], [76.8169226824336, 24.533698922365602], [76.86126912841823, 24.548821220683664], [76.97748740065381, 24.460836939560405], [77.06923866820824, 24.55706974703897], [77.03406734897905, 24.70829273021957], [76.94690364480235, 24.75915864274395], [76.85515237724793, 24.74403634442589], [76.804689180093, 24.807275046483234], [76.9499620203875, 24.869138994148024], [76.86126912841823, 24.961247538448934], [76.87656100634396, 25.040983293216886], [77.00042521754243, 25.075352153030657], [77.08605973392655, 25.054730837142394], [77.17475262589582, 25.111095767236982], [77.26956226903538, 25.115220030414633], [77.31237952722745, 25.080851170600862]]]}}, {"type": "Feature", "properties": {"district": "Ashoknagar", "dt_code": "459", "st_nm": "Madhya Pradesh", "st_code": "23", "year": "2011_c"}, "geometry": {"type": "Polygon", "coordinates": [[[77.56469551300209, 24.871888502933125], [77.59527926885356, 24.92687867863516], [77.67632622185997, 24.86363997657782], [77.73902292135548, 24.856766204615063], [77.8307741889099, 25.00111541583291], [78.01733509960387, 24.95574852087873], [77.97145946582667, 24.884261292466082], [78.11214474274344, 24.8361448887268], [78.19013332016469, 24.841643906297005], [78.27576783654881, 24.662925835265387], [78.26812189758594, 24.449838904419998], [78.16413712769094, 24.396223483110514], [78.09226530143998, 24.320611991520213], [78.08309017468454, 24.258748043855423], [78.01427672401873, 24.23675197357461], [77.78489855513268, 24.31511297395001], [77.65185921717878, 24.31373821955746], [77.59986683223129, 24.37560216722225], [77.47600262103282, 24.43609136049449], [77.49741125012885, 24.473209729093366], [77.48211937220312, 24.632681238629267], [77.55704957403921, 24.761908151529052], [77.52034906701745, 24.826521607978943], [77.56469551300209, 24.871888502933125]]]}}, {"type": "Feature", "properties": {"district": "Mandsaur", "dt_code": "433", "st_nm": "Madhya Pradesh", "st_code": "23", "year": "2011_c"}, "geometry": {"type": "Polygon", "coordinates": [[[75.78472092244641, 24.761908151529052], [75.82447980505333, 24.667050098443042], [75.92081863598546, 24.54332220311346], [75.900939194682, 24.442965132457246], [75.78625011023898, 24.4525884132051], [75.72814097412119, 24.396223483110514], [75.81377549050531, 24.245000499929915], [75.75107879100979, 24.14326867488115], [75.83671330739391, 24.05665914815044], [75.70214478164743, 23.96592535824208], [75.52170062212375, 24.02503979712177], [75.46206229821338, 23.917808954502803], [75.33513971142978, 23.84082270851995], [75.25562194621594, 23.82295090141679], [75.05223996980365, 23.82570041020189], [74.94060926094578, 23.76521121692965], [74.90237956613144, 23.873816813941172], [74.9742513923824, 24.040162095439833], [74.87944174924283, 24.17351327151727], [74.90849631730173, 24.212006394508695], [75.02471458953733, 24.370103149652046], [75.20515874906101, 24.308239201987256], [75.36572346728124, 24.31511297395001], [75.42994935456933, 24.356355605726538], [75.59051407278956, 24.519951378440094], [75.58133894603412, 24.642304519377124], [75.54922600239007, 24.702793712649363], [75.60886432630045, 24.6821723967611], [75.78472092244641, 24.761908151529052]]]}}, {"type": "Feature", "properties": {"district": "Singrauli", "dt_code": "463", "st_nm": "Madhya Pradesh", "st_code": "23", "year": "2011_c"}, "geometry": {"type": "Polygon", "coordinates": [[[82.2975317310174, 24.606560905170802], [82.41833756663071, 24.59418811563784], [82.41833756663071, 24.65192780012498], [82.52385152431829, 24.6766733791909], [82.67065355240535, 24.69729469507916], [82.70735405942713, 24.636805501806922], [82.77310913450779, 24.642304519377124], [82.79757613918898, 24.576316308534683], [82.7440545664489, 24.49658055376673], [82.71347081059741, 24.379726430399902], [82.77005075892265, 24.370103149652046], [82.7440545664489, 24.165264745161963], [82.66453680123507, 24.128146376563087], [82.81286801711471, 23.96180109506443], [82.69359136929397, 23.919183708895353], [82.63548223317616, 23.83807319973485], [82.49785533184455, 23.784457778425363], [82.26083122399564, 23.82157614702424], [82.20883883904813, 23.85319549805291], [82.20119290008526, 23.949428305531473], [82.12167513487144, 23.9961699548782], [81.96875635561408, 24.012667007588814], [81.87853427585223, 24.126771622170537], [81.93970178755518, 24.23675197357461], [82.00086929925811, 24.23537721918206], [82.16602158085607, 24.35773036011909], [82.28988579205453, 24.50207957133693], [82.3036484821877, 24.59418811563784], [82.2975317310174, 24.606560905170802]]]}}, {"type": "Feature", "properties": {"district": "Sidhi", "dt_code": "462", "st_nm": "Madhya Pradesh", "st_code": "23", "year": "2011_c"}, "geometry": {"type": "Polygon", "coordinates": [[[81.30508885363713, 24.321986745912767], [81.50388326667169, 24.423718570961533], [81.79137057167554, 24.52957465918795], [81.86630077351164, 24.52407564161775], [82.18284264657439, 24.602436641993148], [82.3036484821877, 24.59418811563784], [82.28988579205453, 24.50207957133693], [82.16602158085607, 24.35773036011909], [82.00086929925811, 24.23537721918206], [81.93970178755518, 24.23675197357461], [81.87853427585223, 24.126771622170537], [81.96875635561408, 24.012667007588814], [82.12167513487144, 23.9961699548782], [82.20119290008526, 23.949428305531473], [82.20883883904813, 23.85319549805291], [82.08191625226452, 23.816077129454037], [82.00698605042841, 23.861444024408215], [81.92135153404429, 23.87106730515607], [81.80972082518642, 23.80782860309873], [81.72561549659487, 23.8394479541274], [81.66750636047708, 23.924682726465555], [81.60328047318899, 23.88481484908158], [81.54364214927861, 23.913684691325148], [81.53599621031574, 24.066282428898297], [81.47024113523509, 24.17488802590982], [81.48247463757566, 24.231252956004408], [81.38919418222868, 24.26562181581818], [81.30508885363713, 24.321986745912767]]]}}, {"type": "Feature", "properties": {"district": "Sagar", "dt_code": "427", "st_nm": "Madhya Pradesh", "st_code": "23", "year": "2011_c"}, "geometry": {"type": "Polygon", "coordinates": [[[78.26812189758594, 24.449838904419998], [78.36904829189581, 24.3742274128297], [78.32928940928889, 24.32748576348297], [78.38892773319927, 24.262872307033078], [78.50208762984971, 24.39072446554031], [78.58619295844126, 24.353606096941437], [78.70241123067686, 24.227128692826753], [78.80639600057185, 24.17901228908747], [78.9715482821698, 24.348107079371232], [78.99142772347327, 24.416844798998778], [79.07400386427224, 24.40722151825092], [79.18104700975239, 24.43334185170939], [79.25444802379593, 24.411345781428572], [79.23303939469989, 24.334359535445724], [79.09694168116084, 24.242250991144815], [79.05412442296878, 24.170763762732168], [79.14434650273063, 24.102026043104622], [79.18716376092269, 24.009917498803713], [79.0938833055757, 23.919183708895353], [79.15046325390092, 23.847696480482707], [79.23609777028504, 23.818826638239138], [79.3018528453657, 23.677226935806395], [79.28809015523254, 23.479262303279064], [79.18104700975239, 23.42564688196958], [79.23151020690732, 23.290920951499594], [79.19022213650783, 23.2235579862646], [79.09235411778312, 23.19468814402103], [78.809454376157, 23.235930775797556], [78.70852798184714, 23.354159653556934], [78.63053940442589, 23.361033425519686], [78.62901021663332, 23.451767215428045], [78.73758254990605, 23.531502970195998], [78.49902925426456, 23.585118391505485], [78.50667519322742, 23.63598430402987], [78.42868661580617, 23.719844321975472], [78.36446072851808, 23.648357093562826], [78.29258890226713, 23.675852181413845], [78.25130083186764, 23.756962690574348], [78.2941180900597, 23.909560428147497], [78.27882621213396, 24.02778930590687], [78.1840165689944, 24.009917498803713], [78.11673230612116, 24.045661113010034], [78.13508255963204, 24.121272604600335], [78.08309017468454, 24.258748043855423], [78.09226530143998, 24.320611991520213], [78.16413712769094, 24.396223483110514], [78.26812189758594, 24.449838904419998]]]}}, {"type": "Feature", "properties": {"district": "Damoh", "dt_code": "428", "st_nm": "Madhya Pradesh", "st_code": "23", "year": "2011_c"}, "geometry": {"type": "Polygon", "coordinates": [[[79.19022213650783, 23.2235579862646], [79.23151020690732, 23.290920951499594], [79.18104700975239, 23.42564688196958], [79.28809015523254, 23.479262303279064], [79.3018528453657, 23.677226935806395], [79.23609777028504, 23.818826638239138], [79.15046325390092, 23.847696480482707], [79.0938833055757, 23.919183708895353], [79.18716376092269, 24.009917498803713], [79.14434650273063, 24.102026043104622], [79.30032365757313, 24.180387043480025], [79.38289979837211, 24.195509341798083], [79.41348355422357, 24.350856588156333], [79.56640233348094, 24.427842834139184], [79.63674497193932, 24.382475939185007], [79.79578050236698, 24.3742274128297], [79.8584772018625, 24.2986159212394], [79.76672593430808, 24.041536849832383], [79.84471451172934, 24.02229028833667], [79.83248100938874, 23.942554533568718], [79.8645939530328, 23.828449918986994], [79.82789344601102, 23.695098742909558], [79.93646577928375, 23.681351198984046], [79.92881984032088, 23.597491181038443], [79.78813456340411, 23.446268197857844], [79.72390867611603, 23.42564688196958], [79.67497466675367, 23.337662600846322], [79.51593913632601, 23.268924881218776], [79.37219548382409, 23.16581830177746], [79.30644040874343, 23.231806512619904], [79.19022213650783, 23.2235579862646]]]}}, {"type": "Feature", "properties": {"district": "Shajapur", "dt_code": "436", "st_nm": "Madhya Pradesh", "st_code": "23", "year": "2011_c"}, "geometry": {"type": "Polygon", "coordinates": [[[77.04935922690478, 23.466889513746107], [77.01571709546816, 23.444893443465293], [76.9790165884464, 23.311542267387857], [76.90102801102515, 23.22768224944225], [76.85515237724793, 23.10807861729032], [76.77410542424153, 23.171317319347665], [76.54166887977034, 23.13007468757114], [76.51261431171145, 23.17956584570297], [76.36428309583181, 23.233181267012455], [76.16395949500466, 23.22493274065715], [76.1211422368126, 23.24417930215286], [76.18230974851555, 23.268924881218776], [76.21289350436702, 23.384404250193054], [76.21289350436702, 23.48888558402692], [76.15478436824922, 23.569996093187424], [76.33981609115062, 23.629110532067113], [76.4346257342902, 23.633234795244764], [76.45450517559365, 23.54387575972896], [76.52637700184461, 23.57549511075763], [76.66247471538367, 23.531502970195998], [76.69305847123513, 23.48613607524182], [76.80927674347072, 23.482011812064165], [76.91631988895088, 23.51363116309284], [77.04935922690478, 23.466889513746107]]]}}, {"type": "Feature", "properties": {"district": "Vidisha", "dt_code": "443", "st_nm": "Madhya Pradesh", "st_code": "23", "year": "2011_c"}, "geometry": {"type": "Polygon", "coordinates": [[[77.31849627839773, 23.890313866651784], [77.31237952722745, 24.00716799001861], [77.26038714227994, 24.067657183290848], [77.34602165866406, 24.181761797872575], [77.32155465398289, 24.287617886098992], [77.44694805297392, 24.23812672796716], [77.55399119845407, 24.246375254322466], [77.65185921717878, 24.31373821955746], [77.78489855513268, 24.31511297395001], [78.01427672401873, 24.23675197357461], [78.08309017468454, 24.258748043855423], [78.13508255963204, 24.121272604600335], [78.11673230612116, 24.045661113010034], [78.1840165689944, 24.009917498803713], [78.27882621213396, 24.02778930590687], [78.2941180900597, 23.909560428147497], [78.25130083186764, 23.756962690574348], [78.29258890226713, 23.675852181413845], [78.22224626380874, 23.527378707018347], [78.13508255963204, 23.51775542627049], [78.08461936247711, 23.450392461035495], [78.00051403388557, 23.466889513746107], [77.81089474760644, 23.4558914786057], [77.70690997771143, 23.564497075617222], [77.62433383691246, 23.465514759353557], [77.51729069143231, 23.506757391130083], [77.50658637688429, 23.568621338794873], [77.64727165380106, 23.712970550012717], [77.57387063975753, 23.766585971322204], [77.47447343324025, 23.756962690574348], [77.41483510932987, 23.799580076743425], [77.37660541451554, 23.88344009468903], [77.31849627839773, 23.890313866651784]]]}}, {"type": "Feature", "properties": {"district": "Rajgarh", "dt_code": "442", "st_nm": "Madhya Pradesh", "st_code": "23", "year": "2011_c"}, "geometry": {"type": "Polygon", "coordinates": [[[76.88114856972169, 24.130895885348192], [76.97137064948353, 24.044286358617484], [77.0248922222236, 24.08277948160891], [77.18239856485869, 24.078655218431255], [77.16557749914037, 23.94667879674637], [77.22674501084332, 23.890313866651784], [77.22368663525818, 23.813327620668932], [77.16710668693295, 23.67310267262874], [77.09523486068198, 23.49026033841947], [77.04935922690478, 23.466889513746107], [76.91631988895088, 23.51363116309284], [76.80927674347072, 23.482011812064165], [76.69305847123513, 23.48613607524182], [76.66247471538367, 23.531502970195998], [76.52637700184461, 23.57549511075763], [76.45450517559365, 23.54387575972896], [76.4346257342902, 23.633234795244764], [76.38110416155011, 23.81057811188383], [76.32911177660262, 23.864193533193315], [76.30311558412886, 23.96042634067188], [76.19148487527099, 24.08690374478656], [76.21289350436702, 24.20925688572359], [76.32146583763975, 24.245000499929915], [76.50496837274858, 24.20375786815339], [76.57072344782924, 24.20925688572359], [76.64412446187278, 24.26974607899583], [76.67623740551682, 24.19138507862043], [76.80163080450785, 24.11714834142268], [76.88114856972169, 24.130895885348192]]]}}, {"type": "Feature", "properties": {"district": "Shahdol", "dt_code": "460", "st_nm": "Madhya Pradesh", "st_code": "23", "year": "2011_c"}, "geometry": {"type": "Polygon", "coordinates": [[[81.00230967070756, 24.08140472721636], [81.1338198208689, 24.135020148525843], [81.18581220581639, 24.11027456945993], [81.28215103674853, 24.190010324227877], [81.34790611182919, 24.187260815442777], [81.38919418222868, 24.26562181581818], [81.48247463757566, 24.231252956004408], [81.47024113523509, 24.17488802590982], [81.53599621031574, 24.066282428898297], [81.54364214927861, 23.913684691325148], [81.60328047318899, 23.88481484908158], [81.61092641215185, 23.8366984453423], [81.69656092853597, 23.721219076368023], [81.613984787737, 23.663479391880884], [81.61092641215185, 23.512256408700285], [81.75772844023892, 23.54937477729916], [81.82042513973444, 23.51500591748539], [81.91676397066658, 23.534252478981102], [81.98557742133238, 23.414648846829174], [81.91370559508142, 23.30054423224745], [81.8403045810379, 23.296419969069795], [81.75619925244635, 23.213934705516742], [81.61245559994443, 23.19881240719868], [81.51764595680486, 23.081958283831856], [81.43812819159103, 23.057212704765938], [81.3188515437703, 23.10395435411267], [81.32802667052573, 23.147946494674297], [81.25156728089705, 23.21255995112419], [81.2836802245411, 23.220808477479498], [81.35249367520692, 23.354159653556934], [81.30814722922227, 23.42289737318448], [81.29744291467426, 23.558998058047017], [81.24850890531191, 23.58099412832783], [81.24850890531191, 23.722593830760573], [81.1796954546461, 23.796830567958324], [81.22251271283815, 23.85457025244546], [81.12923225749117, 23.971424375812287], [81.06959393358079, 23.96592535824208], [81.00230967070756, 24.08140472721636]]]}}, {"type": "Feature", "properties": {"district": "Katni", "dt_code": "450", "st_nm": "Madhya Pradesh", "st_code": "23", "year": "2011_c"}, "geometry": {"type": "Polygon", "coordinates": [[[80.35852161003407, 23.968674867027186], [80.46862313109936, 23.990670937308], [80.5542576474835, 24.048410621795135], [80.73776018259233, 24.130895885348192], [80.76528556285865, 23.99204569170055], [80.86927033275366, 24.078655218431255], [80.95796322472292, 24.064907674505747], [80.84633251586504, 23.96592535824208], [80.84480332807247, 23.906810919362393], [80.91820434211601, 23.78995679599557], [80.90597083977542, 23.677226935806395], [80.77140231402895, 23.67172791823619], [80.69035536102254, 23.73221711150843], [80.62460028594188, 23.593366917860788], [80.56190358644636, 23.567246584402323], [80.54355333293547, 23.39402753094091], [80.45791881655136, 23.344536372809078], [80.3279378541826, 23.314291776172958], [80.29735409833113, 23.339037355238872], [80.23618658662818, 23.57412035636508], [80.09091374633368, 23.593366917860788], [79.97010791072037, 23.57412035636508], [79.92881984032088, 23.597491181038443], [79.93646577928375, 23.681351198984046], [79.82789344601102, 23.695098742909558], [79.8645939530328, 23.828449918986994], [79.98692897643868, 23.894438129829435], [80.05268405151935, 23.99204569170055], [80.14596450686633, 23.937055515998512], [80.23159902325045, 23.94667879674637], [80.30652922508656, 23.909560428147497], [80.35852161003407, 23.968674867027186]]]}}, {"type": "Feature", "properties": {"district": "Umaria", "dt_code": "431", "st_nm": "Madhya Pradesh", "st_code": "23", "year": "2011_c"}, "geometry": {"type": "Polygon", "coordinates": [[[80.95796322472292, 24.064907674505747], [81.00230967070756, 24.08140472721636], [81.06959393358079, 23.96592535824208], [81.12923225749117, 23.971424375812287], [81.22251271283815, 23.85457025244546], [81.1796954546461, 23.796830567958324], [81.24850890531191, 23.722593830760573], [81.24850890531191, 23.58099412832783], [81.29744291467426, 23.558998058047017], [81.30814722922227, 23.42289737318448], [81.35249367520692, 23.354159653556934], [81.2836802245411, 23.220808477479498], [81.25156728089705, 23.21255995112419], [81.17663707906095, 23.31841603935061], [81.12617388190601, 23.20981044233909], [81.06806474578822, 23.19468814402103], [80.92126271770115, 23.284047179536838], [80.86468276937593, 23.233181267012455], [80.72552668025173, 23.260676354863474], [80.74999368493292, 23.329414074491016], [80.70105967557055, 23.374780969445197], [80.57566627657951, 23.351410144771833], [80.54355333293547, 23.39402753094091], [80.56190358644636, 23.567246584402323], [80.62460028594188, 23.593366917860788], [80.69035536102254, 23.73221711150843], [80.77140231402895, 23.67172791823619], [80.90597083977542, 23.677226935806395], [80.91820434211601, 23.78995679599557], [80.84480332807247, 23.906810919362393], [80.84633251586504, 23.96592535824208], [80.95796322472292, 24.064907674505747]]]}}, {"type": "Feature", "properties": {"district": "Ratlam", "dt_code": "434", "st_nm": "Madhya Pradesh", "st_code": "23", "year": "2011_c"}, "geometry": {"type": "Polygon", "coordinates": [[[75.46206229821338, 23.917808954502803], [75.5645178803158, 23.85594500683801], [75.5828681338267, 23.79545581356577], [75.68991127930684, 23.74733940982649], [75.62109782864103, 23.659355128703233], [75.52170062212375, 23.66622890066599], [75.47123742496882, 23.531502970195998], [75.39630722313271, 23.601615444216094], [75.28008895089712, 23.589242654683137], [75.19904199789072, 23.535627233373653], [75.16387067866152, 23.399526548511112], [75.26020950959366, 23.267550126826226], [75.22503819036447, 23.207060933553986], [75.24185925608278, 23.13557370514134], [75.23727169270506, 23.086082547009507], [75.10881991812887, 23.114952389253077], [75.00636433602644, 23.109453371682875], [74.78004454272555, 23.152070757851952], [74.73416890894833, 23.220808477479498], [74.52925774474348, 23.321165548135713], [74.57207500293553, 23.420147864399375], [74.77239860376268, 23.542501005336405], [74.84732880559879, 23.55212428608426], [74.92225900743489, 23.66622890066599], [74.94060926094578, 23.76521121692965], [75.05223996980365, 23.82570041020189], [75.25562194621594, 23.82295090141679], [75.33513971142978, 23.84082270851995], [75.46206229821338, 23.917808954502803]]]}}, {"type": "Feature", "properties": {"district": "Bhopal", "dt_code": "444", "st_nm": "Madhya Pradesh", "st_code": "23", "year": "2011_c"}, "geometry": {"type": "Polygon", "coordinates": [[[77.22674501084332, 23.890313866651784], [77.31849627839773, 23.890313866651784], [77.37660541451554, 23.88344009468903], [77.41483510932987, 23.799580076743425], [77.47447343324025, 23.756962690574348], [77.57387063975753, 23.766585971322204], [77.64727165380106, 23.712970550012717], [77.50658637688429, 23.568621338794873], [77.51729069143231, 23.506757391130083], [77.48976531116598, 23.416023601221724], [77.62586302470503, 23.315666530565508], [77.56163713741694, 23.13694845953389], [77.37966379010068, 23.072335003084], [77.27109145682796, 23.094331073364813], [77.2221574474656, 23.174066828132766], [77.21451150850274, 23.28542193392939], [77.1701650625181, 23.30191898664], [77.28791252254626, 23.42564688196958], [77.27720820799826, 23.600240689823544], [77.16710668693295, 23.67310267262874], [77.22368663525818, 23.813327620668932], [77.22674501084332, 23.890313866651784]]]}}, {"type": "Feature", "properties": {"district": "Ujjain", "dt_code": "435", "st_nm": "Madhya Pradesh", "st_code": "23", "year": "2011_c"}, "geometry": {"type": "Polygon", "coordinates": [[[75.68991127930684, 23.74733940982649], [75.72967016191376, 23.756962690574348], [75.88105975337855, 23.557623303654466], [76.00033640119929, 23.57412035636508], [76.11655467343488, 23.541126250943854], [76.15478436824922, 23.569996093187424], [76.21289350436702, 23.48888558402692], [76.21289350436702, 23.384404250193054], [76.18230974851555, 23.268924881218776], [76.1211422368126, 23.24417930215286], [76.09514604433885, 23.201561915983785], [76.08291254199827, 23.04758942401808], [75.994219650029, 23.263425863648575], [75.94681482845921, 23.156195021029603], [75.98045695989583, 23.03934089766278], [75.89788081909686, 23.003597283456454], [75.87494300220825, 23.03934089766278], [75.67156102579597, 23.01459531859686], [75.62568539201875, 23.081958283831856], [75.56604706810839, 23.086082547009507], [75.47429580055396, 22.98572547635329], [75.44065366911735, 22.867496598593917], [75.37184021845154, 22.868871352986467], [75.30608514337086, 22.932110055043808], [75.33513971142978, 23.03934089766278], [75.31984783350403, 23.10807861729032], [75.24185925608278, 23.13557370514134], [75.22503819036447, 23.207060933553986], [75.26020950959366, 23.267550126826226], [75.16387067866152, 23.399526548511112], [75.19904199789072, 23.535627233373653], [75.28008895089712, 23.589242654683137], [75.39630722313271, 23.601615444216094], [75.47123742496882, 23.531502970195998], [75.52170062212375, 23.66622890066599], [75.62109782864103, 23.659355128703233], [75.68991127930684, 23.74733940982649]]]}}, {"type": "Feature", "properties": {"district": "Raisen", "dt_code": "446", "st_nm": "Madhya Pradesh", "st_code": "23", "year": "2011_c"}, "geometry": {"type": "Polygon", "coordinates": [[[78.29258890226713, 23.675852181413845], [78.36446072851808, 23.648357093562826], [78.42868661580617, 23.719844321975472], [78.50667519322742, 23.63598430402987], [78.49902925426456, 23.585118391505485], [78.73758254990605, 23.531502970195998], [78.62901021663332, 23.451767215428045], [78.63053940442589, 23.361033425519686], [78.70852798184714, 23.354159653556934], [78.809454376157, 23.235930775797556], [78.78804574706098, 23.117701898038177], [78.73146579873575, 23.04483991523298], [78.46997468620566, 23.004972037849004], [78.44703686931706, 22.98297596756819], [78.32011428253345, 22.91698775672575], [78.21612951263845, 22.89361693205238], [78.02803941415189, 22.802883142144022], [77.96075515127865, 22.969228423642683], [77.85524119359107, 22.94860710775442], [77.69008891199312, 22.883993651304525], [77.63962571483819, 22.838626756350347], [77.53105338156547, 22.903240212800238], [77.4362437384259, 22.930735300651257], [77.33837571970119, 23.03934089766278], [77.37966379010068, 23.072335003084], [77.56163713741694, 23.13694845953389], [77.62586302470503, 23.315666530565508], [77.48976531116598, 23.416023601221724], [77.51729069143231, 23.506757391130083], [77.62433383691246, 23.465514759353557], [77.70690997771143, 23.564497075617222], [77.81089474760644, 23.4558914786057], [78.00051403388557, 23.466889513746107], [78.08461936247711, 23.450392461035495], [78.13508255963204, 23.51775542627049], [78.22224626380874, 23.527378707018347], [78.29258890226713, 23.675852181413845]]]}}, {"type": "Feature", "properties": {"district": "Sehore", "dt_code": "445", "st_nm": "Madhya Pradesh", "st_code": "23", "year": "2011_c"}, "geometry": {"type": "Polygon", "coordinates": [[[77.22062825967302, 22.56917489541037], [77.13040617991118, 22.555427351484862], [77.08758892171912, 22.620040807934753], [77.00654196871272, 22.81388117728443], [77.00348359312757, 22.878494633734324], [76.81539349464101, 22.86062282663116], [76.79551405333757, 22.83175298438759], [76.64565364966535, 22.804257896536573], [76.57531101120696, 22.771263791115352], [76.45450517559365, 22.92248677429595], [76.46826786572682, 23.066835985513794], [76.54166887977034, 23.13007468757114], [76.77410542424153, 23.171317319347665], [76.85515237724793, 23.10807861729032], [76.90102801102515, 23.22768224944225], [76.9790165884464, 23.311542267387857], [77.01571709546816, 23.444893443465293], [77.04935922690478, 23.466889513746107], [77.09523486068198, 23.49026033841947], [77.16710668693295, 23.67310267262874], [77.27720820799826, 23.600240689823544], [77.28791252254626, 23.42564688196958], [77.1701650625181, 23.30191898664], [77.21451150850274, 23.28542193392939], [77.2221574474656, 23.174066828132766], [77.27109145682796, 23.094331073364813], [77.37966379010068, 23.072335003084], [77.33837571970119, 23.03934089766278], [77.4362437384259, 22.930735300651257], [77.53105338156547, 22.903240212800238], [77.63962571483819, 22.838626756350347], [77.69008891199312, 22.883993651304525], [77.85524119359107, 22.94860710775442], [77.96075515127865, 22.969228423642683], [78.02803941415189, 22.802883142144022], [77.8475952546282, 22.87299561616412], [77.74208129694063, 22.760265755974945], [77.62280464911989, 22.743768703264337], [77.5753998275501, 22.67640573802934], [77.4652983064848, 22.647535895785772], [77.3322589685309, 22.56367587784017], [77.22062825967302, 22.56917489541037]]]}}, {"type": "Feature", "properties": {"district": "Jabalpur", "dt_code": "451", "st_nm": "Madhya Pradesh", "st_code": "23", "year": "2011_c"}, "geometry": {"type": "Polygon", "coordinates": [[[79.96399115955008, 22.852374300275855], [79.78507618781896, 22.846875282705653], [79.7483756807972, 22.9211120199034], [79.62909903297646, 22.94998186214697], [79.60769040388043, 23.098455336542468], [79.51440994853344, 23.142447477104096], [79.45783000020822, 23.098455336542468], [79.34619929135035, 23.10670386289777], [79.37219548382409, 23.16581830177746], [79.51593913632601, 23.268924881218776], [79.67497466675367, 23.337662600846322], [79.72390867611603, 23.42564688196958], [79.78813456340411, 23.446268197857844], [79.92881984032088, 23.597491181038443], [79.97010791072037, 23.57412035636508], [80.09091374633368, 23.593366917860788], [80.23618658662818, 23.57412035636508], [80.29735409833113, 23.339037355238872], [80.3279378541826, 23.314291776172958], [80.45791881655136, 23.344536372809078], [80.54355333293547, 23.39402753094091], [80.57566627657951, 23.351410144771833], [80.58178302774981, 23.284047179536838], [80.50379445032856, 23.202936670376335], [80.52979064280231, 23.083333038224406], [80.45944800434393, 23.142447477104096], [80.36005079782664, 23.139697968318995], [80.30194166170884, 23.098455336542468], [80.24842008896877, 23.152070757851952], [79.99304572760897, 23.028342862522372], [80.00527922994956, 22.97885170439054], [79.96399115955008, 22.852374300275855]]]}}, {"type": "Feature", "properties": {"district": "Dewas", "dt_code": "437", "st_nm": "Madhya Pradesh", "st_code": "23", "year": "2011_c"}, "geometry": {"type": "Polygon", "coordinates": [[[77.13040617991118, 22.555427351484862], [77.07841379496368, 22.50868570213813], [76.91937826453602, 22.488064386249867], [76.79398486554499, 22.426200438585077], [76.78175136320439, 22.343715175032024], [76.68235415668711, 22.296973525685292], [76.60436557926586, 22.405579122696814], [76.49732243378571, 22.411078140267016], [76.32605340101746, 22.298348280077846], [76.21136431657445, 22.327218122321412], [76.21289350436702, 22.41795191222977], [76.10126279550914, 22.470192579146705], [76.08291254199827, 22.5375555443817], [76.11961304902003, 22.604918509616695], [76.24653563580364, 22.64341163260812], [76.18995568747842, 22.69015328195485], [76.10279198330171, 22.701151317095256], [76.02327421808789, 22.85924807223861], [75.89788081909686, 23.003597283456454], [75.98045695989583, 23.03934089766278], [75.94681482845921, 23.156195021029603], [75.994219650029, 23.263425863648575], [76.08291254199827, 23.04758942401808], [76.09514604433885, 23.201561915983785], [76.1211422368126, 23.24417930215286], [76.16395949500466, 23.22493274065715], [76.36428309583181, 23.233181267012455], [76.51261431171145, 23.17956584570297], [76.54166887977034, 23.13007468757114], [76.46826786572682, 23.066835985513794], [76.45450517559365, 22.92248677429595], [76.57531101120696, 22.771263791115352], [76.64565364966535, 22.804257896536573], [76.79551405333757, 22.83175298438759], [76.81539349464101, 22.86062282663116], [77.00348359312757, 22.878494633734324], [77.00654196871272, 22.81388117728443], [77.08758892171912, 22.620040807934753], [77.13040617991118, 22.555427351484862]]]}}, {"type": "Feature", "properties": {"district": "Anuppur", "dt_code": "461", "st_nm": "Madhya Pradesh", "st_code": "23", "year": "2011_c"}, "geometry": {"type": "Polygon", "coordinates": [[[82.12320432266401, 23.10395435411267], [81.94276016314032, 23.079208775046755], [81.95040610210319, 22.98297596756819], [81.86171321013393, 22.88949266887473], [81.7760786937498, 22.87437037055667], [81.79442894726068, 22.76576477354515], [81.73173224776517, 22.67640573802934], [81.69197336515825, 22.78088707186321], [81.59410534643354, 22.75339198401219], [81.45342006951677, 22.7698890367228], [81.4289530648356, 22.835877247565247], [81.19957489594955, 22.912863493548095], [81.20416245932728, 23.003597283456454], [81.26380078323764, 23.07096024869145], [81.12617388190601, 23.20981044233909], [81.17663707906095, 23.31841603935061], [81.25156728089705, 23.21255995112419], [81.32802667052573, 23.147946494674297], [81.3188515437703, 23.10395435411267], [81.43812819159103, 23.057212704765938], [81.51764595680486, 23.081958283831856], [81.61245559994443, 23.19881240719868], [81.75619925244635, 23.213934705516742], [81.8403045810379, 23.296419969069795], [81.91370559508142, 23.30054423224745], [81.98557742133238, 23.414648846829174], [82.10332488136055, 23.39815179411856], [82.19966371229269, 23.314291776172958], [82.12320432266401, 23.10395435411267]]]}}, {"type": "Feature", "properties": {"district": "Jhabua", "dt_code": "464", "st_nm": "Madhya Pradesh", "st_code": "23", "year": "2011_c"}, "geometry": {"type": "Polygon", "coordinates": [[[74.74181484791121, 22.559551614662514], [74.6087755099573, 22.558176860269963], [74.44209404056679, 22.58292243933588], [74.37939734107127, 22.63516310625281], [74.40233515795987, 22.731395913731376], [74.46503185745539, 22.816630686069534], [74.46044429407766, 22.907364475977893], [74.39316003120443, 22.896366440837486], [74.31975901716089, 23.059962213551042], [74.38551409224156, 23.112202880467976], [74.50631992785488, 23.084707792616957], [74.73416890894833, 23.220808477479498], [74.78004454272555, 23.152070757851952], [75.00636433602644, 23.109453371682875], [75.0033059604413, 22.912863493548095], [74.89473362716856, 22.747892966441988], [74.76016510142209, 22.75201722961964], [74.77851535493298, 22.578798176158227], [74.74181484791121, 22.559551614662514]]]}}, {"type": "Feature", "properties": {"district": "Dindori", "dt_code": "453", "st_nm": "Madhya Pradesh", "st_code": "23", "year": "2011_c"}, "geometry": {"type": "Polygon", "coordinates": [[[81.4748286986128, 22.489439140642418], [81.32802667052573, 22.525182754848743], [81.24850890531191, 22.4591945440063], [81.19345814477926, 22.490813895034968], [81.12005713073572, 22.593920474476285], [81.01301398525557, 22.591170965691184], [80.86774114496107, 22.757516247189844], [80.87079952054623, 22.848250037098204], [80.73011424362946, 22.81113166849933], [80.52367389163201, 22.871620861771568], [80.5649619620315, 22.993974002708597], [80.52979064280231, 23.083333038224406], [80.50379445032856, 23.202936670376335], [80.58178302774981, 23.284047179536838], [80.57566627657951, 23.351410144771833], [80.70105967557055, 23.374780969445197], [80.74999368493292, 23.329414074491016], [80.72552668025173, 23.260676354863474], [80.86468276937593, 23.233181267012455], [80.92126271770115, 23.284047179536838], [81.06806474578822, 23.19468814402103], [81.12617388190601, 23.20981044233909], [81.26380078323764, 23.07096024869145], [81.20416245932728, 23.003597283456454], [81.19957489594955, 22.912863493548095], [81.4289530648356, 22.835877247565247], [81.45342006951677, 22.7698890367228], [81.59410534643354, 22.75339198401219], [81.69197336515825, 22.78088707186321], [81.73173224776517, 22.67640573802934], [81.72867387218002, 22.669531966066586], [81.64915610696619, 22.614541790364548], [81.62163072669986, 22.5375555443817], [81.4748286986128, 22.489439140642418]]]}}, {"type": "Feature", "properties": {"district": "Narsinghpur", "dt_code": "452", "st_nm": "Madhya Pradesh", "st_code": "23", "year": "2011_c"}, "geometry": {"type": "Polygon", "coordinates": [[[79.62909903297646, 22.94998186214697], [79.57710664802896, 22.833127738780142], [79.48841375605969, 22.730021159338825], [79.411954366431, 22.721772632983523], [79.32784903783946, 22.615916544757102], [79.24374370924791, 22.71902312419842], [79.24068533366275, 22.802883142144022], [79.04189092062819, 22.758891001582395], [79.01130716477672, 22.64341163260812], [78.91802670942972, 22.672281474851687], [78.72381985977287, 22.64478638700067], [78.69017772833627, 22.70527558027291], [78.6993528550917, 22.761640510367496], [78.57701783168582, 22.86199758102371], [78.57090108051553, 22.95548087971717], [78.44703686931706, 22.98297596756819], [78.46997468620566, 23.004972037849004], [78.73146579873575, 23.04483991523298], [78.78804574706098, 23.117701898038177], [78.809454376157, 23.235930775797556], [79.09235411778312, 23.19468814402103], [79.19022213650783, 23.2235579862646], [79.30644040874343, 23.231806512619904], [79.37219548382409, 23.16581830177746], [79.34619929135035, 23.10670386289777], [79.45783000020822, 23.098455336542468], [79.51440994853344, 23.142447477104096], [79.60769040388043, 23.098455336542468], [79.62909903297646, 22.94998186214697]]]}}, {"type": "Feature", "properties": {"district": "Dhar", "dt_code": "438", "st_nm": "Madhya Pradesh", "st_code": "23", "year": "2011_c"}, "geometry": {"type": "Polygon", "coordinates": [[[74.50173236447715, 22.045393471848477], [74.47114860862568, 22.112756437083473], [74.52619936915833, 22.236484332413056], [74.64853439256422, 22.273602701011928], [74.69135165075627, 22.36846075409794], [74.74181484791121, 22.559551614662514], [74.77851535493298, 22.578798176158227], [74.76016510142209, 22.75201722961964], [74.89473362716856, 22.747892966441988], [75.0033059604413, 22.912863493548095], [75.00636433602644, 23.109453371682875], [75.10881991812887, 23.114952389253077], [75.23727169270506, 23.086082547009507], [75.24185925608278, 23.13557370514134], [75.31984783350403, 23.10807861729032], [75.33513971142978, 23.03934089766278], [75.30608514337086, 22.932110055043808], [75.37184021845154, 22.868871352986467], [75.44065366911735, 22.867496598593917], [75.43912448132477, 22.774013299900453], [75.49111686627228, 22.76301526476005], [75.52934656108661, 22.62966408868261], [75.65473996007765, 22.637912615037916], [75.69602803047714, 22.595295228868835], [75.55687194135294, 22.515559474100886], [75.56145950473066, 22.376709280453245], [75.5186422465386, 22.32584336792886], [75.53546331225691, 22.23373482362795], [75.49111686627228, 22.15399906886], [75.31678945791889, 22.133377752971736], [75.1883376833427, 22.104507910728167], [74.77851535493298, 22.0783875772697], [74.6791181484157, 22.035770191100625], [74.5628998761801, 22.023397401567664], [74.50173236447715, 22.045393471848477]]]}}, {"type": "Feature", "properties": {"district": "Indore", "dt_code": "439", "st_nm": "Madhya Pradesh", "st_code": "23", "year": "2011_c"}, "geometry": {"type": "Polygon", "coordinates": [[[76.08291254199827, 22.5375555443817], [75.994219650029, 22.41382764905212], [75.83365493180877, 22.408328631481915], [75.76025391776523, 22.362961736527737], [75.61498107747074, 22.338216157461822], [75.56145950473066, 22.376709280453245], [75.55687194135294, 22.515559474100886], [75.69602803047714, 22.595295228868835], [75.65473996007765, 22.637912615037916], [75.52934656108661, 22.62966408868261], [75.49111686627228, 22.76301526476005], [75.43912448132477, 22.774013299900453], [75.44065366911735, 22.867496598593917], [75.47429580055396, 22.98572547635329], [75.56604706810839, 23.086082547009507], [75.62568539201875, 23.081958283831856], [75.67156102579597, 23.01459531859686], [75.87494300220825, 23.03934089766278], [75.89788081909686, 23.003597283456454], [76.02327421808789, 22.85924807223861], [76.10279198330171, 22.701151317095256], [76.18995568747842, 22.69015328195485], [76.24653563580364, 22.64341163260812], [76.11961304902003, 22.604918509616695], [76.08291254199827, 22.5375555443817]]]}}, {"type": "Feature", "properties": {"district": "Mandla", "dt_code": "454", "st_nm": "Madhya Pradesh", "st_code": "23", "year": "2011_c"}, "geometry": {"type": "Polygon", "coordinates": [[[80.10008887308913, 22.335466648676718], [80.0496256759342, 22.456445035221197], [80.03586298580103, 22.607668018401796], [80.1536104458292, 22.59941949204649], [80.28970815936826, 22.725896896161174], [80.28053303261281, 22.78363658064831], [80.06491755385994, 22.761640510367496], [79.96399115955008, 22.852374300275855], [80.00527922994956, 22.97885170439054], [79.99304572760897, 23.028342862522372], [80.24842008896877, 23.152070757851952], [80.30194166170884, 23.098455336542468], [80.36005079782664, 23.139697968318995], [80.45944800434393, 23.142447477104096], [80.52979064280231, 23.083333038224406], [80.5649619620315, 22.993974002708597], [80.52367389163201, 22.871620861771568], [80.73011424362946, 22.81113166849933], [80.87079952054623, 22.848250037098204], [80.86774114496107, 22.757516247189844], [81.01301398525557, 22.591170965691184], [81.12005713073572, 22.593920474476285], [81.19345814477926, 22.490813895034968], [81.11088200398028, 22.435823719332934], [81.11852794294315, 22.291474508115087], [81.04512692889962, 22.240608595590707], [81.00689723408527, 22.283225981759784], [80.91514596653086, 22.279101718582133], [80.8662119571685, 22.37945878923835], [80.7041180511557, 22.270853192226824], [80.70564723894827, 22.20211547259928], [80.58025383995724, 22.226861051665196], [80.39980968043355, 22.303847297648048], [80.33558379314546, 22.298348280077846], [80.10008887308913, 22.335466648676718]]]}}, {"type": "Feature", "properties": {"district": "Hoshangabad", "dt_code": "449", "st_nm": "Madhya Pradesh", "st_code": "23", "year": "2011_c"}, "geometry": {"type": "Polygon", "coordinates": [[[78.69017772833627, 22.70527558027291], [78.61218915091501, 22.648910650178323], [78.52196707115317, 22.665407702888935], [78.49750006647199, 22.592545720083734], [78.54796326362691, 22.53618078998915], [78.5601967659675, 22.419326666622325], [78.46997468620566, 22.375334526060694], [78.3812817942364, 22.420701421014876], [78.26965108537851, 22.401454859519163], [78.18707494457955, 22.398705350734062], [78.03262697752962, 22.329967631106513], [77.85524119359107, 22.36846075409794], [77.68397216082283, 22.32171910475121], [77.54787444728377, 22.351963701387326], [77.45306480414422, 22.217237770917343], [77.3903681046487, 22.222736788487545], [77.28179577137597, 22.463318807183953], [77.22062825967302, 22.56917489541037], [77.3322589685309, 22.56367587784017], [77.4652983064848, 22.647535895785772], [77.5753998275501, 22.67640573802934], [77.62280464911989, 22.743768703264337], [77.74208129694063, 22.760265755974945], [77.8475952546282, 22.87299561616412], [78.02803941415189, 22.802883142144022], [78.21612951263845, 22.89361693205238], [78.32011428253345, 22.91698775672575], [78.44703686931706, 22.98297596756819], [78.57090108051553, 22.95548087971717], [78.57701783168582, 22.86199758102371], [78.6993528550917, 22.761640510367496], [78.69017772833627, 22.70527558027291]]]}}, {"type": "Feature", "properties": {"district": "Agar Malwa", "dt_code": "724", "st_nm": "Madhya Pradesh", "st_code": "23", "year": "update2014"}, "geometry": {"type": "Polygon", "coordinates": [[[75.68991127930684, 23.74733940982649], [75.79389604920185, 23.86694304197842], [75.93763970170377, 23.89718763861454], [76.04162447159878, 24.066282428898297], [76.1272589879829, 24.08827849917911], [76.11808386122746, 24.194134587405532], [76.21289350436702, 24.20925688572359], [76.19148487527099, 24.08690374478656], [76.30311558412886, 23.96042634067188], [76.32911177660262, 23.864193533193315], [76.38110416155011, 23.81057811188383], [76.4346257342902, 23.633234795244764], [76.33981609115062, 23.629110532067113], [76.15478436824922, 23.569996093187424], [76.11655467343488, 23.541126250943854], [76.00033640119929, 23.57412035636508], [75.88105975337855, 23.557623303654466], [75.72967016191376, 23.756962690574348], [75.68991127930684, 23.74733940982649]]]}}, {"type": "Feature", "properties": {"district": "Datia", "dt_code": "422", "st_nm": "Madhya Pradesh", "st_code": "23", "year": "2011_c"}, "geometry": {"type": "MultiPolygon", "coordinates": [[[[78.39045692099184, 25.205953820322993], [78.44703686931706, 25.12209380237739], [78.37363585527352, 25.09872297770402], [78.29258890226713, 25.12896757434014], [78.33999372383691, 25.222450873033605], [78.39045692099184, 25.205953820322993]]], [[[78.62748102884075, 26.157283859968214], [78.69629447950656, 26.217773053240453], [78.78957493485355, 26.22327207081066], [78.8446256953862, 26.111916965014036], [78.77275386913524, 26.018433666320572], [78.80486681277928, 25.944196929122825], [78.88591376578569, 25.912577578094155], [78.76357874237979, 25.72011196313703], [78.81098356394958, 25.619754892480813], [78.71770310860259, 25.60463259416275], [78.65806478469221, 25.559265699208574], [78.45162443269479, 25.57163848874153], [78.37669423085867, 25.65824801547224], [78.24824245628248, 25.72148671752958], [78.29564727785227, 25.78610017397947], [78.33081859708146, 25.832841823326202], [78.47303306179082, 25.909828069309054], [78.48220818854625, 25.962068736225987], [78.58466377064869, 26.006060876787615], [78.62748102884075, 26.157283859968214]]]]}}, {"type": "Feature", "properties": {"district": "Chhatarpur", "dt_code": "425", "st_nm": "Madhya Pradesh", "st_code": "23", "year": "2011_c"}, "geometry": {"type": "Polygon", "coordinates": [[[79.26362315055137, 25.273316785557988], [79.28044421626967, 25.32418269808237], [79.35231604252064, 25.329681715652573], [79.43642137111217, 25.254070224062275], [79.39054573733497, 25.170210206116668], [79.40583761526071, 25.106971504059327], [79.49147213164483, 25.07947641620831], [79.56946070906608, 25.17158496050922], [79.67344547896109, 25.12071904798484], [79.7483756807972, 25.139965609480548], [79.84012694835161, 25.09872297770402], [79.85541882627734, 25.193581030790035], [80.03280461021589, 25.34205450518553], [80.10467643646685, 25.350303031540836], [80.22089470870245, 25.397044680887568], [80.315704351842, 25.388796154532262], [80.31111678846429, 25.285689575090945], [80.40439724381127, 25.243072188921868], [80.43039343628503, 25.174334469294323], [80.35240485886378, 25.12346855676994], [80.29123734716083, 25.058855100320045], [80.2637119668945, 25.024486240506274], [80.15055207024406, 24.935127204990465], [80.03280461021589, 24.921379661064957], [80.07868024399309, 24.799026520127928], [79.99304572760897, 24.724789782930177], [79.89364852109169, 24.69729469507916], [79.8752982675808, 24.576316308534683], [79.88600258212882, 24.3742274128297], [79.79578050236698, 24.3742274128297], [79.63674497193932, 24.382475939185007], [79.56640233348094, 24.427842834139184], [79.41348355422357, 24.350856588156333], [79.38289979837211, 24.195509341798083], [79.30032365757313, 24.180387043480025], [79.14434650273063, 24.102026043104622], [79.05412442296878, 24.170763762732168], [79.09694168116084, 24.242250991144815], [79.23303939469989, 24.334359535445724], [79.25444802379593, 24.411345781428572], [79.18104700975239, 24.43334185170939], [79.07400386427224, 24.40722151825092], [78.99142772347327, 24.416844798998778], [78.98531097230297, 24.441590378064692], [79.0235406671173, 24.546071711898563], [79.09082492999055, 24.632681238629267], [79.19480969988555, 24.613434677133554], [79.21774751677415, 24.662925835265387], [79.30338203315827, 24.687671414331305], [79.30491122095086, 24.797651765735377], [79.34467010355776, 24.903507853961795], [79.32326147446173, 25.149588890228404], [79.30491122095086, 25.179833486864524], [79.29267771861026, 25.18395775004218], [79.2789150284771, 25.243072188921868], [79.26362315055137, 25.273316785557988]]]}}, {"type": "Feature", "properties": {"district": "Panna", "dt_code": "426", "st_nm": "Madhya Pradesh", "st_code": "23", "year": "2011_c"}, "geometry": {"type": "Polygon", "coordinates": [[[80.2637119668945, 25.024486240506274], [80.34170054431576, 25.013488205365867], [80.40133886822613, 25.069853135460455], [80.4777982578548, 24.97636983676699], [80.49461932357312, 24.9117563803171], [80.57566627657951, 24.900758345176694], [80.60319165684584, 24.830645871156598], [80.43651018745533, 24.746785853210994], [80.37687186354495, 24.68079764236855], [80.47015231889193, 24.613434677133554], [80.4609771921365, 24.43746611488704], [80.55731602306864, 24.26699657021073], [80.63224622490475, 24.17488802590982], [80.35852161003407, 23.968674867027186], [80.30652922508656, 23.909560428147497], [80.23159902325045, 23.94667879674637], [80.14596450686633, 23.937055515998512], [80.05268405151935, 23.99204569170055], [79.98692897643868, 23.894438129829435], [79.8645939530328, 23.828449918986994], [79.83248100938874, 23.942554533568718], [79.84471451172934, 24.02229028833667], [79.76672593430808, 24.041536849832383], [79.8584772018625, 24.2986159212394], [79.79578050236698, 24.3742274128297], [79.88600258212882, 24.3742274128297], [79.8752982675808, 24.576316308534683], [79.89364852109169, 24.69729469507916], [79.99304572760897, 24.724789782930177], [80.07868024399309, 24.799026520127928], [80.03280461021589, 24.921379661064957], [80.15055207024406, 24.935127204990465], [80.2637119668945, 25.024486240506274]]]}}, {"type": "Feature", "properties": {"district": "Niwari", "dt_code": "782", "st_nm": "Madhya Pradesh", "st_code": "23", "year": "2018"}, "geometry": {"type": "Polygon", "coordinates": [[[78.55866757817493, 25.21282759228575], [78.51279194439772, 25.27606629434309], [78.65959397248479, 25.38329713696206], [78.77428305692781, 25.35305254032594], [78.73146579873575, 25.457533874159807], [78.8843845779931, 25.515273558646946], [78.94249371411091, 25.49190273397358], [78.87979701461539, 25.38604664574716], [78.96084396762178, 25.344804013970634], [78.87062188785995, 25.18670725882728], [78.87979701461539, 25.15783741658371], [78.8446256953862, 25.09734822331147], [78.63971453118134, 25.071227889853006], [78.55866757817493, 25.21282759228575]]]}}], "metadata": {"source": "udit-001/india-maps-data (Census 2011)", "url": "https://github.com/udit-001/india-maps-data", "license": "ODbL (Open Database License)", "feature_count": 53}}