{"type": "FeatureCollection", "features": [{"type": "Feature", "properties": {"district": "Aizawl", "dt_code": "261", "st_nm": "Mizoram", "st_code": "15", "year": "2011_c"}, "geometry": {"type": "Polygon", "coordinates": [[[93.04466353722471, 23.41052458365152], [92.9467955185, 23.51363116309284], [92.88104044341934, 23.51913018066304], [92.78164323690206, 23.299169477854896], [92.68989196934763, 23.328039320098465], [92.67307090362932, 23.383029495800503], [92.65472065011843, 23.51775542627049], [92.6746000914219, 23.623611514496908], [92.62566608205954, 23.796830567958324], [92.66083740128873, 23.832574182164645], [92.62719526985211, 23.953552568709124], [92.84739831198272, 24.02641455151432], [92.90244907251537, 24.22162967525655], [92.86116100211588, 24.31373821955746], [92.89633232134507, 24.39072446554031], [93.00949221799551, 24.412720535821126], [93.02325490812868, 24.23400246478951], [92.97585008655889, 24.11577358703013], [93.2067574432375, 24.047035867402585], [93.15017749491228, 23.81057811188383], [93.04466353722471, 23.76521121692965], [93.04619272501728, 23.66622890066599], [93.04466353722471, 23.41052458365152]]]}}, {"type": "Feature", "properties": {"district": "Champhai", "dt_code": "262", "st_nm": "Mizoram", "st_code": "15", "year": "2011_c"}, "geometry": {"type": "MultiPolygon", "coordinates": [[[[93.04619272501728, 23.66622890066599], [93.04466353722471, 23.76521121692965], [93.15017749491228, 23.81057811188383], [93.2067574432375, 24.047035867402585], [93.25263307701472, 24.02091553394412], [93.39637672951665, 23.926057480858105], [93.42696048536811, 23.649731847955376], [93.42390210978297, 23.527378707018347], [93.39025997834635, 23.497134110382227], [93.27404170611075, 23.48476132084927], [93.27862926948848, 23.657980374310682], [93.25110388922215, 23.739090883471185], [93.16241099725288, 23.660729883095783], [93.04619272501728, 23.66622890066599]]], [[[93.1960531286895, 23.055837950373387], [93.16546937283803, 23.17956584570297], [93.050780288395, 23.21255995112419], [93.04160516163957, 23.307418004210202], [93.13335642919398, 23.322540302528264], [93.26639576714788, 23.388528513370705], [93.3581470347023, 23.330788828883566], [93.39178916613892, 23.220808477479498], [93.35508865911716, 23.07370975747655], [93.3000378985845, 23.004972037849004], [93.1960531286895, 23.055837950373387]]]]}}, {"type": "Feature", "properties": {"district": "Kolasib", "dt_code": "263", "st_nm": "Mizoram", "st_code": "15", "year": "2011_c"}, "geometry": {"type": "Polygon", "coordinates": [[[92.89633232134507, 24.39072446554031], [92.86116100211588, 24.31373821955746], [92.90244907251537, 24.22162967525655], [92.84739831198272, 24.02641455151432], [92.62719526985211, 23.953552568709124], [92.63178283322983, 24.029164060299426], [92.53850237788285, 24.11027456945993], [92.53238562671255, 24.17763753469492], [92.55073588022344, 24.247750008715016], [92.61190339192638, 24.255998535070322], [92.62566608205954, 24.33161002666062], [92.68989196934763, 24.353606096941437], [92.7617637955986, 24.51307760647734], [92.79999349041293, 24.41959430778388], [92.89633232134507, 24.39072446554031]]]}}, {"type": "Feature", "properties": {"district": "Lawngtlai", "dt_code": "264", "st_nm": "Mizoram", "st_code": "15", "year": "2011_c"}, "geometry": {"type": "Polygon", "coordinates": [[[92.93456201615942, 22.55405259709231], [92.93150364057426, 22.394581087556407], [92.82598968288669, 22.329967631106513], [92.85504425094558, 22.06326527895164], [92.70518384727337, 22.1512495600749], [92.68836278155506, 22.039894454278276], [92.59966988958578, 22.011024612034706], [92.6057866407561, 22.12375447222388], [92.58131963607491, 22.32171910475121], [92.50944780982395, 22.741019194479232], [92.60119907737837, 22.72039787859097], [92.64860389894815, 22.63516310625281], [92.7556470444283, 22.541679807559355], [92.83669399743471, 22.624165071112408], [92.93456201615942, 22.55405259709231]]]}}, {"type": "Feature", "properties": {"district": "Lunglei", "dt_code": "265", "st_nm": "Mizoram", "st_code": "15", "year": "2011_c"}, "geometry": {"type": "Polygon", "coordinates": [[[92.67307090362932, 23.383029495800503], [92.68989196934763, 23.328039320098465], [92.69142115714021, 23.24280454776031], [92.81681455613125, 23.22493274065715], [92.86421937770103, 23.175441582525316], [92.8886863823822, 22.94723235336187], [92.85504425094558, 22.879869388126874], [92.92079932602624, 22.78088707186321], [92.95444145746286, 22.62691457989751], [92.93456201615942, 22.55405259709231], [92.83669399743471, 22.624165071112408], [92.7556470444283, 22.541679807559355], [92.64860389894815, 22.63516310625281], [92.60119907737837, 22.72039787859097], [92.50944780982395, 22.741019194479232], [92.448280298121, 22.87574512494922], [92.37182090849232, 22.93623431822146], [92.39170034979578, 23.057212704765938], [92.34582471601857, 23.237305530190106], [92.40240466434379, 23.266175372433676], [92.4543970492913, 23.28679668832194], [92.4773348661799, 23.389903267763255], [92.55838181918631, 23.369281951874992], [92.67307090362932, 23.383029495800503]]]}}, {"type": "Feature", "properties": {"district": "Mamit", "dt_code": "266", "st_nm": "Mizoram", "st_code": "15", "year": "2011_c"}, "geometry": {"type": "Polygon", "coordinates": [[[92.62719526985211, 23.953552568709124], [92.66083740128873, 23.832574182164645], [92.62566608205954, 23.796830567958324], [92.6746000914219, 23.623611514496908], [92.65472065011843, 23.51775542627049], [92.67307090362932, 23.383029495800503], [92.55838181918631, 23.369281951874992], [92.4773348661799, 23.389903267763255], [92.4543970492913, 23.28679668832194], [92.40240466434379, 23.266175372433676], [92.36417496952946, 23.322540302528264], [92.27242370197504, 23.64285807599262], [92.26477776301218, 23.726718093938228], [92.25713182404931, 23.813327620668932], [92.32441608692254, 23.913684691325148], [92.31218258458196, 24.05253488497279], [92.33053283809284, 24.183136552265125], [92.29536151886364, 24.245000499929915], [92.42228410564725, 24.250499517500117], [92.43604679578041, 24.154266710021556], [92.53238562671255, 24.17763753469492], [92.53850237788285, 24.11027456945993], [92.63178283322983, 24.029164060299426], [92.62719526985211, 23.953552568709124]]]}}, {"type": "Feature", "properties": {"district": "Saiha", "dt_code": "267", "st_nm": "Mizoram", "st_code": "15", "year": "2011_c"}, "geometry": {"type": "Polygon", "coordinates": [[[92.85504425094558, 22.06326527895164], [92.82598968288669, 22.329967631106513], [92.93150364057426, 22.394581087556407], [92.93456201615942, 22.55405259709231], [92.95444145746286, 22.62691457989751], [92.92079932602624, 22.78088707186321], [93.00643384241037, 22.75339198401219], [93.09665592217222, 22.786386089433414], [93.09359754658706, 22.70802508905801], [93.14253155594942, 22.58292243933588], [93.13182724140141, 22.471567333539255], [93.18840718972663, 22.424825684192527], [93.19911150427464, 22.277726964189583], [93.1608818094603, 22.180119402318468], [93.050780288395, 22.20074071820673], [92.99878790344751, 22.053641998203783], [92.93914957953713, 22.01652362960491], [92.85504425094558, 22.06326527895164]]]}}, {"type": "Feature", "properties": {"district": "Serchhip", "dt_code": "268", "st_nm": "Mizoram", "st_code": "15", "year": "2011_c"}, "geometry": {"type": "Polygon", "coordinates": [[[92.68989196934763, 23.328039320098465], [92.78164323690206, 23.299169477854896], [92.88104044341934, 23.51913018066304], [92.9467955185, 23.51363116309284], [93.04466353722471, 23.41052458365152], [93.04160516163957, 23.307418004210202], [93.050780288395, 23.21255995112419], [93.16546937283803, 23.17956584570297], [93.1960531286895, 23.055837950373387], [93.12265211464597, 23.006346792241555], [92.96055820863316, 23.116327143645627], [92.92538688940397, 23.186439617665723], [92.86421937770103, 23.175441582525316], [92.81681455613125, 23.22493274065715], [92.69142115714021, 23.24280454776031], [92.68989196934763, 23.328039320098465]]]}}, {"type": "Feature", "properties": {"district": "Khawzawl", "dt_code": "996", "st_nm": "Mizoram", "st_code": "15", "year": "2019"}, "geometry": {"type": "Polygon", "coordinates": [[[93.04466353722471, 23.41052458365152], [93.04619272501728, 23.66622890066599], [93.16241099725288, 23.660729883095783], [93.25110388922215, 23.739090883471185], [93.27862926948848, 23.657980374310682], [93.27404170611075, 23.48476132084927], [93.39025997834635, 23.497134110382227], [93.40249348068693, 23.388528513370705], [93.3581470347023, 23.330788828883566], [93.26639576714788, 23.388528513370705], [93.13335642919398, 23.322540302528264], [93.04160516163957, 23.307418004210202], [93.04466353722471, 23.41052458365152]]]}}, {"type": "Feature", "properties": {"district": "Hnahthial", "dt_code": "994", "st_nm": "Mizoram", "st_code": "15", "year": "2019"}, "geometry": {"type": "Polygon", "coordinates": [[[92.92079932602624, 22.78088707186321], [92.85504425094558, 22.879869388126874], [92.8886863823822, 22.94723235336187], [92.86421937770103, 23.175441582525316], [92.92538688940397, 23.186439617665723], [92.96055820863316, 23.116327143645627], [93.12265211464597, 23.006346792241555], [93.14558993153457, 22.927985791866156], [93.09665592217222, 22.786386089433414], [93.00643384241037, 22.75339198401219], [92.92079932602624, 22.78088707186321]]]}}], "metadata": {"source": "udit-001/india-maps-data (Census 2011)", "url": "https://github.com/udit-001/india-maps-data", "license": "ODbL (Open Database License)", "feature_count": 11}}