{"type": "FeatureCollection", "features": [{"type": "Feature", "properties": {"district": "Mon", "dt_code": "261", "st_nm": "Nagaland", "st_code": "13", "year": "2011_c"}, "geometry": {"type": "Polygon", "coordinates": [[[94.79099599634377, 26.79654465250438], [94.86592619817988, 26.909274512693553], [94.92403533429767, 26.94914239007753], [94.98214447041548, 26.913398775871208], [95.1014211182362, 26.96151517961049], [95.19623076137577, 27.034377162415687], [95.2298728928124, 26.923022056619065], [95.20234751254607, 26.846035810636213], [95.23446045619012, 26.682440037922657], [95.0616622356293, 26.450106545581555], [95.12282974733225, 26.34837472053279], [95.00049472392635, 26.293384544830754], [94.94238558780856, 26.30575733436371], [94.91333101974966, 26.37999407156146], [94.87968888831304, 26.57658394969624], [94.77876249400319, 26.659069213249293], [94.83381325453583, 26.71818365212898], [94.79099599634377, 26.79654465250438]]]}}, {"type": "Feature", "properties": {"district": "Longleng", "dt_code": "268", "st_nm": "Nagaland", "st_code": "13", "year": "2011_c"}, "geometry": {"type": "Polygon", "coordinates": [[[94.73594523581112, 26.749803003157652], [94.79099599634377, 26.79654465250438], [94.83381325453583, 26.71818365212898], [94.77876249400319, 26.659069213249293], [94.87968888831304, 26.57658394969624], [94.91333101974966, 26.37999407156146], [94.84757594466899, 26.38274358034656], [94.7665289916626, 26.45972982632941], [94.70994904333736, 26.445982282403904], [94.68854041424134, 26.52021901960165], [94.73288686022597, 26.601329528762154], [94.73594523581112, 26.749803003157652]]]}}, {"type": "Feature", "properties": {"district": "Mokokchung", "dt_code": "262", "st_nm": "Nagaland", "st_code": "13", "year": "2011_c"}, "geometry": {"type": "Polygon", "coordinates": [[[94.58608483213891, 26.725057424091734], [94.73594523581112, 26.749803003157652], [94.73288686022597, 26.601329528762154], [94.68854041424134, 26.52021901960165], [94.70994904333736, 26.445982282403904], [94.650310719427, 26.338751439784932], [94.56467620304288, 26.28788552726055], [94.58302645655377, 26.219147807633004], [94.3719985411786, 26.19577698295964], [94.3658817900083, 26.33600193099983], [94.3138894050608, 26.461104580721962], [94.4010531092375, 26.53396656352716], [94.40258229703008, 26.61095280951001], [94.58608483213891, 26.725057424091734]]]}}, {"type": "Feature", "properties": {"district": "Tuensang", "dt_code": "267", "st_nm": "Nagaland", "st_code": "13", "year": "2011_c"}, "geometry": {"type": "Polygon", "coordinates": [[[94.91333101974966, 26.37999407156146], [94.94238558780856, 26.30575733436371], [95.00049472392635, 26.293384544830754], [95.12282974733225, 26.34837472053279], [95.11671299616195, 26.10779270183638], [95.18552644682777, 26.07342384202261], [95.12588812291739, 25.986814315291902], [95.01425741405951, 25.89058150781334], [94.97296934366003, 25.882332981458035], [94.84604675687642, 26.04180449099394], [94.66866097293789, 26.019808420713122], [94.70536147995965, 26.04867826295669], [94.70536147995965, 26.172406158286275], [94.58302645655377, 26.219147807633004], [94.56467620304288, 26.28788552726055], [94.650310719427, 26.338751439784932], [94.70994904333736, 26.445982282403904], [94.7665289916626, 26.45972982632941], [94.84757594466899, 26.38274358034656], [94.91333101974966, 26.37999407156146]]]}}, {"type": "Feature", "properties": {"district": "Kiphire", "dt_code": "269", "st_nm": "Nagaland", "st_code": "13", "year": "2011_c"}, "geometry": {"type": "Polygon", "coordinates": [[[94.66866097293789, 26.019808420713122], [94.84604675687642, 26.04180449099394], [94.97296934366003, 25.882332981458035], [95.01425741405951, 25.89058150781334], [95.04025360653327, 25.742108033417843], [94.93626883663826, 25.667871296220095], [94.88274726389818, 25.586760787059593], [94.85675107142444, 25.717362454351928], [94.8185213766101, 25.764104103698656], [94.71300741892252, 25.758605086128455], [94.61055183682008, 25.81771952500814], [94.56926376642059, 25.88920675342079], [94.66866097293789, 26.019808420713122]]]}}, {"type": "Feature", "properties": {"district": "Peren", "dt_code": "271", "st_nm": "Nagaland", "st_code": "13", "year": "2011_c"}, "geometry": {"type": "Polygon", "coordinates": [[[93.46977774356017, 25.30631089097921], [93.45601505342701, 25.434163049486443], [93.3290924666434, 25.54276864649796], [93.42696048536811, 25.63212768201377], [93.51259500175223, 25.674745068182848], [93.6593970298393, 25.649999489116933], [93.92853408133226, 25.670620805005196], [93.93618002029513, 25.559265699208574], [93.76491098752687, 25.53864438332031], [93.8046698701338, 25.46303289173001], [93.66704296880216, 25.31043515415686], [93.60587545709922, 25.199080048360237], [93.50189068720422, 25.243072188921868], [93.46977774356017, 25.30631089097921]]]}}, {"type": "Feature", "properties": {"district": "Wokha", "dt_code": "264", "st_nm": "Nagaland", "st_code": "13", "year": "2011_c"}, "geometry": {"type": "Polygon", "coordinates": [[[94.1640290013886, 26.35112422931789], [94.18390844269204, 26.45560556315176], [94.28483483700191, 26.561461651378178], [94.3138894050608, 26.461104580721962], [94.3658817900083, 26.33600193099983], [94.3719985411786, 26.19577698295964], [94.38729041910435, 26.116041228191687], [94.35823585104544, 26.021183175105676], [94.27565971024646, 26.004686122395064], [94.00193509537579, 25.990938578469557], [93.954530273806, 25.96894250818874], [94.00040590758321, 26.172406158286275], [94.10439067747822, 26.31950487828922], [94.1640290013886, 26.35112422931789]]]}}, {"type": "Feature", "properties": {"district": "Zunheboto", "dt_code": "263", "st_nm": "Nagaland", "st_code": "13", "year": "2011_c"}, "geometry": {"type": "Polygon", "coordinates": [[[94.3719985411786, 26.19577698295964], [94.58302645655377, 26.219147807633004], [94.70536147995965, 26.172406158286275], [94.70536147995965, 26.04867826295669], [94.66866097293789, 26.019808420713122], [94.56926376642059, 25.88920675342079], [94.61055183682008, 25.81771952500814], [94.71300741892252, 25.758605086128455], [94.60749346123494, 25.777851647624168], [94.45610386977015, 25.853463139214465], [94.27260133466132, 25.794348700334776], [94.21449219854352, 25.87545920949528], [94.28330564920932, 25.940072665945173], [94.27565971024646, 26.004686122395064], [94.35823585104544, 26.021183175105676], [94.38729041910435, 26.116041228191687], [94.3719985411786, 26.19577698295964]]]}}, {"type": "Feature", "properties": {"district": "Phek", "dt_code": "266", "st_nm": "Nagaland", "st_code": "13", "year": "2011_c"}, "geometry": {"type": "Polygon", "coordinates": [[[94.71300741892252, 25.758605086128455], [94.8185213766101, 25.764104103698656], [94.85675107142444, 25.717362454351928], [94.88274726389818, 25.586760787059593], [94.80781706206207, 25.49327748836613], [94.67477772410817, 25.44516108462685], [94.55397188849486, 25.504275523506536], [94.55091351290972, 25.579887015096837], [94.4882168134142, 25.60463259416275], [94.41634498716323, 25.53589487453521], [94.32153534402367, 25.502900769113985], [94.20837544737323, 25.496026997151233], [94.19002519386234, 25.548267664068167], [94.21296301075094, 25.671995559397747], [94.27260133466132, 25.794348700334776], [94.45610386977015, 25.853463139214465], [94.60749346123494, 25.777851647624168], [94.71300741892252, 25.758605086128455]]]}}, {"type": "Feature", "properties": {"district": "Kohima", "dt_code": "270", "st_nm": "Nagaland", "st_code": "13", "year": "2011_c"}, "geometry": {"type": "Polygon", "coordinates": [[[93.93618002029513, 25.559265699208574], [93.92853408133226, 25.670620805005196], [93.96370540056145, 25.69399162967856], [94.01722697330152, 25.84521461285916], [93.97746809069461, 25.882332981458035], [94.00193509537579, 25.990938578469557], [94.27565971024646, 26.004686122395064], [94.28330564920932, 25.940072665945173], [94.21449219854352, 25.87545920949528], [94.27260133466132, 25.794348700334776], [94.21296301075094, 25.671995559397747], [94.19002519386234, 25.548267664068167], [94.10744905306336, 25.522147330609698], [94.00652265875351, 25.56751422556388], [93.93618002029513, 25.559265699208574]]]}}, {"type": "Feature", "properties": {"district": "Dimapur", "dt_code": "265", "st_nm": "Nagaland", "st_code": "13", "year": "2011_c"}, "geometry": {"type": "Polygon", "coordinates": [[[93.7756153020749, 25.96894250818874], [93.77714448986747, 25.849338876036814], [93.88112925976247, 25.84383985846661], [93.97899727848718, 25.916701841271806], [93.954530273806, 25.96894250818874], [94.00193509537579, 25.990938578469557], [93.97746809069461, 25.882332981458035], [94.01722697330152, 25.84521461285916], [93.96370540056145, 25.69399162967856], [93.92853408133226, 25.670620805005196], [93.6593970298393, 25.649999489116933], [93.51259500175223, 25.674745068182848], [93.5431787576037, 25.731109998277436], [93.70221428803136, 25.852088384821915], [93.68080565893533, 25.90432905173885], [93.7756153020749, 25.96894250818874]]]}}], "metadata": {"source": "udit-001/india-maps-data (Census 2011)", "url": "https://github.com/udit-001/india-maps-data", "license": "ODbL (Open Database License)", "feature_count": 12}}