{"type": "FeatureCollection", "features": [{"type": "Feature", "properties": {"district": "Bhadrak", "dt_code": "378", "st_nm": "Odisha", "st_code": "21", "year": "2011_c"}, "geometry": {"type": "Polygon", "coordinates": [[[86.62207480841556, 20.79574172901971], [86.59913699152696, 20.8548561678994], [86.49515222163195, 20.86722895743236], [86.36058369588548, 20.847982395936647], [86.28106593067164, 20.908471589208887], [86.28565349404937, 21.015702431827854], [86.36670044705576, 21.23703788902855], [86.51503166293541, 21.135306063979783], [86.65265856426703, 21.107810976128768], [86.67253800557049, 21.169674923793558], [86.80098978014666, 21.230164117065797], [86.85909891626447, 21.213667064355185], [86.85298216509418, 21.094063432203257], [86.97684637629264, 20.860355185469604], [86.9676712495372, 20.79161746584206], [86.86521566743477, 20.783368939486756], [86.80557734352439, 20.735252535747474], [86.75970170974719, 20.766871886776144], [86.62207480841556, 20.79574172901971]]]}}, {"type": "Feature", "properties": {"district": "Dhenkanal", "dt_code": "383", "st_nm": "Odisha", "st_code": "21", "year": "2011_c"}, "geometry": {"type": "Polygon", "coordinates": [[[85.71220807183427, 21.138055572764884], [85.7504377666486, 20.99233160715449], [85.84524740978817, 20.9332171682748], [85.91711923603913, 20.9277181507046], [85.89876898252825, 20.846607641544097], [86.03027913268957, 20.80948927294522], [85.91559004824656, 20.700883675933703], [85.88806466798023, 20.658266289764622], [85.78713827367037, 20.67201383369013], [85.70609132066397, 20.62389742995085], [85.65562812350905, 20.5496606927531], [85.58528548505066, 20.51391707854678], [85.50423853204425, 20.535913148827593], [85.45683371047447, 20.48504723630321], [85.25192254626961, 20.518041341724434], [85.12652914727857, 20.615648903595545], [85.11429564493798, 20.68301186883054], [85.1892258467741, 20.700883675933703], [85.25498092185475, 20.79574172901971], [85.23051391717358, 21.072067361922443], [85.27180198757307, 21.17517394136376], [85.39413701097895, 21.183422467719065], [85.49812178087396, 21.11468474809152], [85.54552660244374, 21.166925415008457], [85.70609132066397, 21.168300169401007], [85.71220807183427, 21.138055572764884]]]}}, {"type": "Feature", "properties": {"district": "Jajpur", "dt_code": "382", "st_nm": "Odisha", "st_code": "21", "year": "2011_c"}, "geometry": {"type": "Polygon", "coordinates": [[[86.28565349404937, 21.015702431827854], [86.28106593067164, 20.908471589208887], [86.36058369588548, 20.847982395936647], [86.49515222163195, 20.86722895743236], [86.59913699152696, 20.8548561678994], [86.62207480841556, 20.79574172901971], [86.56396567229777, 20.775120413131447], [86.52573597748342, 20.688510886400742], [86.4523349634399, 20.674763342475234], [86.37740476160378, 20.59365283331473], [86.27953674287907, 20.581280043781774], [86.1449682171326, 20.641769237054014], [86.0409834472376, 20.592278078922178], [85.91559004824656, 20.700883675933703], [86.03027913268957, 20.80948927294522], [85.89876898252825, 20.846607641544097], [85.91711923603913, 20.9277181507046], [85.84524740978817, 20.9332171682748], [85.7504377666486, 20.99233160715449], [85.71220807183427, 21.138055572764884], [85.82230959289956, 21.091313923418156], [85.91711923603913, 21.092688677810706], [86.02722075710443, 21.138055572764884], [86.05015857399303, 21.02120144939806], [86.13426390258458, 21.076191625100094], [86.28565349404937, 21.015702431827854]]]}}, {"type": "Feature", "properties": {"district": "Subarnapur", "dt_code": "392", "st_nm": "Odisha", "st_code": "21", "year": "2011_c"}, "geometry": {"type": "Polygon", "coordinates": [[[84.2793591101928, 20.922219133134398], [84.26712560785221, 20.880976501357868], [84.1921954060161, 20.889225027713174], [84.0408058145513, 20.820487308085628], [83.93682104465631, 20.842483378366445], [83.83742383813902, 20.825986325655833], [83.76249363630292, 20.780619430701652], [83.7579060729252, 20.71738072864431], [83.68450505888165, 20.55928397350096], [83.60192891808269, 20.530414131257388], [83.59428297911982, 20.60602562284769], [83.66462561757821, 20.705007939111354], [83.57593272560894, 20.87272797500256], [83.63862942510445, 20.981333572014083], [83.51017765052828, 20.979958817621533], [83.4566560777882, 21.05831981799693], [83.54840734534261, 21.076191625100094], [83.60498729366783, 21.12843229201703], [83.71355962694057, 21.11880901126917], [83.78390226539895, 21.151803116690395], [83.84048221372417, 21.094063432203257], [83.89400378646425, 21.17517394136376], [83.98422586622608, 21.131181800802132], [84.0178679976627, 21.05144604603418], [84.14326139665374, 21.033574238931017], [84.23807103979331, 20.922219133134398], [84.2793591101928, 20.922219133134398]]]}}, {"type": "Feature", "properties": {"district": "Nuapada", "dt_code": "394", "st_nm": "Odisha", "st_code": "21", "year": "2011_c"}, "geometry": {"type": "Polygon", "coordinates": [[[82.33881980141689, 20.874102729395112], [82.4596256370302, 20.825986325655833], [82.4886802050891, 20.908471589208887], [82.56055203134007, 20.946964712200312], [82.63854060876132, 21.088564414633055], [82.69359136929397, 21.01982669500551], [82.68135786695338, 20.885100764535522], [82.70123730825684, 20.72837876378472], [82.74252537865632, 20.629396447521053], [82.68441624253852, 20.460301657237295], [82.73029187631573, 20.381940656861893], [82.81286801711471, 20.325575726767305], [82.86180202647706, 20.22934291928874], [82.82051395607758, 20.1661042172314], [82.71805837397514, 19.988760900592336], [82.39845812532727, 20.05612386582733], [82.38622462298667, 20.145482901343136], [82.42139594221587, 20.204597340222826], [82.39998731311984, 20.340698025085366], [82.43821700793417, 20.434181323778827], [82.3327030502466, 20.56203348228606], [82.37704949623122, 20.632145956306154], [82.35258249155005, 20.700883675933703], [82.33881980141689, 20.874102729395112]]]}}, {"type": "Feature", "properties": {"district": "Balangir", "dt_code": "393", "st_nm": "Odisha", "st_code": "21", "year": "2011_c"}, "geometry": {"type": "Polygon", "coordinates": [[[83.4566560777882, 21.05831981799693], [83.51017765052828, 20.979958817621533], [83.63862942510445, 20.981333572014083], [83.57593272560894, 20.87272797500256], [83.66462561757821, 20.705007939111354], [83.59428297911982, 20.60602562284769], [83.60192891808269, 20.530414131257388], [83.5835786645718, 20.48779674508831], [83.66615480537078, 20.42180853424587], [83.65086292744505, 20.388814428824645], [83.618749983801, 20.351696060225773], [83.49947333598026, 20.416309516675664], [83.421484758559, 20.402561972750156], [83.36184643464863, 20.317327200412002], [83.23798222345017, 20.256838007139763], [83.22574872110958, 20.204597340222826], [83.14470176810318, 20.1688537260165], [83.09118019536311, 20.200473077045174], [83.016249993527, 20.171603234801605], [82.82051395607758, 20.1661042172314], [82.86180202647706, 20.22934291928874], [82.81286801711471, 20.325575726767305], [82.73029187631573, 20.381940656861893], [82.68441624253852, 20.460301657237295], [82.74252537865632, 20.629396447521053], [82.70123730825684, 20.72837876378472], [82.88932740674339, 20.907096834816336], [82.9810786742978, 20.845232887151546], [83.13093907797001, 20.857605676684503], [83.21657359435414, 20.9304676594897], [83.28538704501995, 20.85348141350685], [83.4046636928407, 20.889225027713174], [83.38631343932981, 20.98958209836939], [83.4566560777882, 21.05831981799693]]]}}, {"type": "Feature", "properties": {"district": "Boudh", "dt_code": "391", "st_nm": "Odisha", "st_code": "21", "year": "2011_c"}, "geometry": {"type": "Polygon", "coordinates": [[[83.60192891808269, 20.530414131257388], [83.68450505888165, 20.55928397350096], [83.7579060729252, 20.71738072864431], [83.76249363630292, 20.780619430701652], [83.83742383813902, 20.825986325655833], [83.93682104465631, 20.842483378366445], [84.0408058145513, 20.820487308085628], [84.1921954060161, 20.889225027713174], [84.26712560785221, 20.880976501357868], [84.34817256085861, 20.832860097618585], [84.36040606319919, 20.765497132383594], [84.56072966402634, 20.689885640793293], [84.63871824144759, 20.62389742995085], [84.76717001602378, 20.603276114062588], [84.68153549963965, 20.432806569386276], [84.51026646687141, 20.3956882007874], [84.38793144346552, 20.530414131257388], [84.36958118995463, 20.651392517801867], [84.27630073460764, 20.67201383369013], [84.22583753745272, 20.581280043781774], [83.8741243451608, 20.582654798174325], [83.79613576773954, 20.508418060976574], [83.81448602125042, 20.435556078171377], [83.66615480537078, 20.42180853424587], [83.5835786645718, 20.48779674508831], [83.60192891808269, 20.530414131257388]]]}}, {"type": "Feature", "properties": {"district": "Cuttack", "dt_code": "381", "st_nm": "Odisha", "st_code": "21", "year": "2011_c"}, "geometry": {"type": "Polygon", "coordinates": [[[85.12652914727857, 20.615648903595545], [85.25192254626961, 20.518041341724434], [85.45683371047447, 20.48504723630321], [85.50423853204425, 20.535913148827593], [85.58528548505066, 20.51391707854678], [85.65562812350905, 20.5496606927531], [85.70609132066397, 20.62389742995085], [85.78713827367037, 20.67201383369013], [85.88806466798023, 20.658266289764622], [85.91559004824656, 20.700883675933703], [86.0409834472376, 20.592278078922178], [86.1449682171326, 20.641769237054014], [86.27953674287907, 20.581280043781774], [86.2489529870276, 20.538662657612697], [86.27341999170878, 20.387439674432095], [86.2489529870276, 20.36544360415128], [86.01039969138611, 20.377816393684242], [86.03945425944502, 20.28708260377588], [86.15108496830288, 20.214220620970682], [86.14190984154745, 20.144108146950586], [86.18166872415436, 20.05337435704223], [86.12508877582914, 20.036877304331618], [86.0807423298445, 20.10424026956661], [85.8788895412248, 20.35719507779598], [85.7856090858778, 20.434181323778827], [85.71679563521198, 20.403936727142707], [85.623515179865, 20.292581621346084], [85.52411797334771, 20.306329165271592], [85.32991112369086, 20.278834077420576], [85.36661163071263, 20.36681835854383], [85.15864209092263, 20.379191148076792], [84.84821696903018, 20.527664622472287], [84.89715097839253, 20.582654798174325], [85.07453676233106, 20.581280043781774], [85.12652914727857, 20.615648903595545]]]}}, {"type": "Feature", "properties": {"district": "Kandhamal", "dt_code": "390", "st_nm": "Odisha", "st_code": "21", "year": "2011_c"}, "geometry": {"type": "Polygon", "coordinates": [[[83.65086292744505, 20.388814428824645], [83.66615480537078, 20.42180853424587], [83.81448602125042, 20.435556078171377], [83.79613576773954, 20.508418060976574], [83.8741243451608, 20.582654798174325], [84.22583753745272, 20.581280043781774], [84.27630073460764, 20.67201383369013], [84.36958118995463, 20.651392517801867], [84.38793144346552, 20.530414131257388], [84.51026646687141, 20.3956882007874], [84.54237941051545, 20.251338989569557], [84.5867258565001, 20.17435274358671], [84.4873286499828, 20.141358638165485], [84.45368651854619, 20.16747897162395], [84.36346443878435, 20.025879269191208], [84.38946063125809, 19.955766795171115], [84.46286164530163, 19.953017286386014], [84.46133245750906, 19.85678447890745], [84.37875631671008, 19.845786443767043], [84.27477154681507, 19.880155303580814], [84.18454946705323, 19.8609087420851], [84.16008246237206, 19.73855560114807], [84.23960022758588, 19.665693618342875], [84.23348347641559, 19.573585074041965], [84.12949870652058, 19.629950004136553], [83.93987942024145, 19.635449021706755], [83.84506977710188, 19.709685758904506], [83.76708119968063, 19.716559530867258], [83.64780455185989, 19.65744509198757], [83.618749983801, 19.814167092738373], [83.52852790403915, 19.8554097245149], [83.5606408476832, 19.929646461712647], [83.49641496039511, 19.959891058348767], [83.58816622794953, 20.098741251996408], [83.71050125135541, 20.10149076078151], [83.78237307760637, 20.21284586657813], [83.71967637811085, 20.23759144564405], [83.7059136879777, 20.368193112936382], [83.65086292744505, 20.388814428824645]]]}}, {"type": "Feature", "properties": {"district": "Nayagarh", "dt_code": "385", "st_nm": "Odisha", "st_code": "21", "year": "2011_c"}, "geometry": {"type": "Polygon", "coordinates": [[[84.51026646687141, 20.3956882007874], [84.68153549963965, 20.432806569386276], [84.76717001602378, 20.603276114062588], [84.84821696903018, 20.527664622472287], [85.15864209092263, 20.379191148076792], [85.36661163071263, 20.36681835854383], [85.32991112369086, 20.278834077420576], [85.322265184728, 20.22934291928874], [85.22286797821072, 20.221094392933438], [85.2121636636627, 20.13173535741763], [85.36202406733491, 20.188100287512214], [85.38037432084579, 20.07124616414539], [85.4553045226819, 19.970889093489173], [85.41860401566014, 19.92414744414244], [85.16170046650777, 19.90490088264673], [85.12347077169343, 19.9337707248903], [84.93996823658459, 19.898027110683977], [84.90173854177026, 19.991510409377437], [84.79775377187525, 20.090492725641102], [84.83139590331187, 20.216970129755786], [84.70447331652827, 20.278834077420576], [84.5867258565001, 20.17435274358671], [84.54237941051545, 20.251338989569557], [84.51026646687141, 20.3956882007874]]]}}, {"type": "Feature", "properties": {"district": "Khordha", "dt_code": "386", "st_nm": "Odisha", "st_code": "21", "year": "2011_c"}, "geometry": {"type": "Polygon", "coordinates": [[[85.32991112369086, 20.278834077420576], [85.52411797334771, 20.306329165271592], [85.623515179865, 20.292581621346084], [85.71679563521198, 20.403936727142707], [85.7856090858778, 20.434181323778827], [85.8788895412248, 20.35719507779598], [86.0807423298445, 20.10424026956661], [85.89876898252825, 20.109739287136815], [85.88653548018766, 20.183976024334562], [85.70303294507883, 20.142733392558036], [85.67856594039765, 20.067121900967734], [85.55164335361404, 19.962640567133867], [85.56387685595462, 19.8526602157298], [85.43848345696358, 19.882904812365915], [85.32991112369086, 19.785297250494803], [85.25192254626961, 19.76742544339164], [85.1831090956038, 19.67256739030563], [85.13723346182658, 19.73855560114807], [85.00419412387268, 19.804543811990513], [84.93996823658459, 19.898027110683977], [85.12347077169343, 19.9337707248903], [85.16170046650777, 19.90490088264673], [85.41860401566014, 19.92414744414244], [85.4553045226819, 19.970889093489173], [85.38037432084579, 20.07124616414539], [85.36202406733491, 20.188100287512214], [85.2121636636627, 20.13173535741763], [85.22286797821072, 20.221094392933438], [85.322265184728, 20.22934291928874], [85.32991112369086, 20.278834077420576]]]}}, {"type": "Feature", "properties": {"district": "Kalahandi", "dt_code": "395", "st_nm": "Odisha", "st_code": "21", "year": "2011_c"}, "geometry": {"type": "Polygon", "coordinates": [[[82.71805837397514, 19.988760900592336], [82.82051395607758, 20.1661042172314], [83.016249993527, 20.171603234801605], [83.09118019536311, 20.200473077045174], [83.14470176810318, 20.1688537260165], [83.22574872110958, 20.204597340222826], [83.23798222345017, 20.256838007139763], [83.36184643464863, 20.317327200412002], [83.421484758559, 20.402561972750156], [83.49947333598026, 20.416309516675664], [83.618749983801, 20.351696060225773], [83.65086292744505, 20.388814428824645], [83.7059136879777, 20.368193112936382], [83.71967637811085, 20.23759144564405], [83.78237307760637, 20.21284586657813], [83.71050125135541, 20.10149076078151], [83.58816622794953, 20.098741251996408], [83.49641496039511, 19.959891058348767], [83.4046636928407, 19.92139793535734], [83.45359770220304, 19.73718084675552], [83.36949237361151, 19.620326723388693], [83.26397841592392, 19.5474647405835], [83.18598983850266, 19.456730950675137], [83.06977156626706, 19.561212284509004], [82.97954948650523, 19.449857178712385], [82.91838197480229, 19.238145002259543], [82.8709771532325, 19.195527616090466], [82.85568527530677, 19.205150896838326], [82.82204314387015, 19.32200502020515], [82.75628806878949, 19.327504037775356], [82.68900380591624, 19.41961258207626], [82.56666878251036, 19.544715231798396], [82.5467893412069, 19.61207819703339], [82.59419416277669, 19.775673969746947], [82.69664974487911, 19.830664145448985], [82.71805837397514, 19.988760900592336]]]}}, {"type": "Feature", "properties": {"district": "Jagatsinghpur", "dt_code": "380", "st_nm": "Odisha", "st_code": "21", "year": "2011_c"}, "geometry": {"type": "Polygon", "coordinates": [[[86.18166872415436, 20.05337435704223], [86.14190984154745, 20.144108146950586], [86.15108496830288, 20.214220620970682], [86.03945425944502, 20.28708260377588], [86.01039969138611, 20.377816393684242], [86.2489529870276, 20.36544360415128], [86.39422582732209, 20.36544360415128], [86.4523349634399, 20.329699989944956], [86.60372455490467, 20.340698025085366], [86.72300120272541, 20.29808063891629], [86.7765227754655, 20.33519900751516], [86.68018394453335, 20.263711779102515], [86.53338191644629, 20.18122651554946], [86.36975882264092, 19.98188712862958], [86.27036161612364, 20.04100156750927], [86.18166872415436, 20.05337435704223]]]}}, {"type": "Feature", "properties": {"district": "Puri", "dt_code": "387", "st_nm": "Odisha", "st_code": "21", "year": "2011_c"}, "geometry": {"type": "Polygon", "coordinates": [[[86.0807423298445, 20.10424026956661], [86.12508877582914, 20.036877304331618], [86.18166872415436, 20.05337435704223], [86.27036161612364, 20.04100156750927], [86.36975882264092, 19.98188712862958], [86.22754435793158, 19.900776619469077], [85.88500629239508, 19.812792338345822], [85.67856594039765, 19.745429373110827], [85.35284894057946, 19.588707372360027], [85.17240478105577, 19.467728985815548], [85.1831090956038, 19.67256739030563], [85.25192254626961, 19.76742544339164], [85.32991112369086, 19.785297250494803], [85.43848345696358, 19.882904812365915], [85.56387685595462, 19.8526602157298], [85.55164335361404, 19.962640567133867], [85.67856594039765, 20.067121900967734], [85.70303294507883, 20.142733392558036], [85.88653548018766, 20.183976024334562], [85.89876898252825, 20.109739287136815], [86.0807423298445, 20.10424026956661]]]}}, {"type": "Feature", "properties": {"district": "Nabarangapur", "dt_code": "397", "st_nm": "Odisha", "st_code": "21", "year": "2011_c"}, "geometry": {"type": "Polygon", "coordinates": [[[82.59419416277669, 19.775673969746947], [82.5467893412069, 19.61207819703339], [82.56666878251036, 19.544715231798396], [82.68900380591624, 19.41961258207626], [82.75628806878949, 19.327504037775356], [82.82204314387015, 19.32200502020515], [82.85568527530677, 19.205150896838326], [82.80369289035926, 19.15153547552884], [82.70123730825684, 19.191403352912815], [82.6156027918727, 19.158409247491594], [82.51773477314799, 19.20240138805322], [82.40151650091241, 19.16528301945435], [82.35258249155005, 19.184529580950063], [82.20578046346299, 19.12129087889272], [82.16143401747834, 19.20240138805322], [82.18895939774467, 19.42786110843157], [82.12626269824915, 19.42923586282412], [82.10026650577541, 19.517220143947377], [82.02839467952444, 19.507596863199524], [82.05897843537592, 19.628575249744003], [82.06509518654622, 19.79079626806501], [81.98557742133238, 19.801794303205412], [81.96875635561408, 19.85953398769255], [81.8693591490968, 19.902151373861628], [81.84489214441561, 19.95164253199346], [81.87547590026709, 20.050624848257126], [81.87547590026709, 20.051999602649676], [81.94581853872548, 20.10561502395916], [82.01769036497643, 20.049250093864575], [82.06968274992393, 20.05749862021988], [82.18437183436696, 19.98463663741468], [82.2684771629585, 19.975013356666828], [82.34493655258719, 19.836163163019187], [82.44586294689704, 19.910399900216934], [82.53149746328117, 19.878780549188264], [82.59419416277669, 19.775673969746947]]]}}, {"type": "Feature", "properties": {"district": "Rayagada", "dt_code": "396", "st_nm": "Odisha", "st_code": "21", "year": "2011_c"}, "geometry": {"type": "Polygon", "coordinates": [[[83.49641496039511, 19.959891058348767], [83.5606408476832, 19.929646461712647], [83.52852790403915, 19.8554097245149], [83.618749983801, 19.814167092738373], [83.64780455185989, 19.65744509198757], [83.76708119968063, 19.716559530867258], [83.84506977710188, 19.709685758904506], [83.93987942024145, 19.635449021706755], [83.97963830284837, 19.530967687872888], [83.94752535920432, 19.396241757402898], [84.01480962207756, 19.376995195907185], [84.02092637324786, 19.29038566917648], [83.97963830284837, 19.21339942319363], [84.03315987558844, 19.132288914033126], [83.95058373478948, 18.99756298356314], [83.79307739215439, 19.018184299451402], [83.74720175837717, 18.993438720385484], [83.75637688513262, 18.91095345683243], [83.66309642978564, 19.099294808611905], [83.60804566925299, 19.0965452998268], [83.48112308246937, 19.03468135216201], [83.45971445337334, 18.956320351786612], [83.34808374451546, 19.018184299451402], [83.27927029384966, 19.12266563328527], [83.23492384786502, 19.026432825806708], [83.13552664134774, 19.136413177210777], [83.0223667446973, 19.06080168562048], [83.00554567897898, 19.12129087889272], [82.8709771532325, 19.195527616090466], [82.91838197480229, 19.238145002259543], [82.97954948650523, 19.449857178712385], [83.06977156626706, 19.561212284509004], [83.18598983850266, 19.456730950675137], [83.26397841592392, 19.5474647405835], [83.36949237361151, 19.620326723388693], [83.45359770220304, 19.73718084675552], [83.4046636928407, 19.92139793535734], [83.49641496039511, 19.959891058348767]]]}}, {"type": "Feature", "properties": {"district": "Koraput", "dt_code": "398", "st_nm": "Odisha", "st_code": "21", "year": "2011_c"}, "geometry": {"type": "Polygon", "coordinates": [[[82.85568527530677, 19.205150896838326], [82.8709771532325, 19.195527616090466], [83.00554567897898, 19.12129087889272], [83.0223667446973, 19.06080168562048], [83.13552664134774, 19.136413177210777], [83.23492384786502, 19.026432825806708], [83.27927029384966, 19.12266563328527], [83.34808374451546, 19.018184299451402], [83.317499988664, 18.97419215888977], [83.41230963180357, 18.873835088233555], [83.20434009201355, 18.752856701689076], [83.13552664134774, 18.7858508071103], [82.99942892780868, 18.608507490471233], [83.04377537379332, 18.545268788413892], [83.01930836911214, 18.457284507290638], [83.07741750522995, 18.40366908598115], [82.96884517195721, 18.361051699812073], [82.8939149701211, 18.381673015700336], [82.80675126594441, 18.451785489720432], [82.77310913450779, 18.34180513831636], [82.58654822381381, 18.27719168186647], [82.60642766511727, 18.366550717382275], [82.48562182950396, 18.52877173570328], [82.42751269338616, 18.486154349534203], [82.41527919104557, 18.563140595517055], [82.36328680609806, 18.623629788789295], [82.31282360894313, 18.575513385050012], [82.1706091442338, 18.638752087107356], [82.09109137901996, 18.737734403371018], [82.1583756418932, 18.7886003158954], [82.17672589540409, 18.902704930477128], [82.2455393460699, 18.919201983187737], [82.20578046346299, 19.12129087889272], [82.35258249155005, 19.184529580950063], [82.40151650091241, 19.16528301945435], [82.51773477314799, 19.20240138805322], [82.6156027918727, 19.158409247491594], [82.70123730825684, 19.191403352912815], [82.80369289035926, 19.15153547552884], [82.85568527530677, 19.205150896838326]]]}}, {"type": "Feature", "properties": {"district": "Malkangiri", "dt_code": "399", "st_nm": "Odisha", "st_code": "21", "year": "2011_c"}, "geometry": {"type": "Polygon", "coordinates": [[[82.09109137901996, 18.737734403371018], [82.1706091442338, 18.638752087107356], [82.31282360894313, 18.575513385050012], [82.36328680609806, 18.623629788789295], [82.41527919104557, 18.563140595517055], [82.42751269338616, 18.486154349534203], [82.36175761830549, 18.421540893084313], [82.38316624740152, 18.367925471774825], [82.3143527967357, 18.185083137565556], [82.35105330375748, 18.172710348032602], [82.31894036011343, 18.044858189525364], [82.25012690944762, 17.992617522608434], [82.16755076864864, 18.053106715880674], [82.0314530551096, 18.069603768591282], [81.9794606701621, 18.013238838496697], [81.80972082518642, 17.95687390840211], [81.71644036983943, 17.875763399241606], [81.61704316332215, 17.82352273232467], [81.39684012119154, 17.818023714754467], [81.3998984967767, 17.89363520634477], [81.48247463757566, 17.977495224290372], [81.48094544978309, 18.051731961488123], [81.52529189576774, 18.15346378653689], [81.52987945914545, 18.240073313267594], [81.65833123372164, 18.34730415588656], [81.75008250127605, 18.354177927849317], [81.7699619425795, 18.41879138429921], [81.91064721949628, 18.570014367479807], [81.89994290494826, 18.66074815738817], [82.09109137901996, 18.737734403371018]]]}}, {"type": "Feature", "properties": {"district": "Angul", "dt_code": "384", "st_nm": "Odisha", "st_code": "21", "year": "2011_c"}, "geometry": {"type": "Polygon", "coordinates": [[[85.39413701097895, 21.183422467719065], [85.27180198757307, 21.17517394136376], [85.23051391717358, 21.072067361922443], [85.25498092185475, 20.79574172901971], [85.1892258467741, 20.700883675933703], [85.11429564493798, 20.68301186883054], [85.12652914727857, 20.615648903595545], [85.07453676233106, 20.581280043781774], [84.89715097839253, 20.582654798174325], [84.84821696903018, 20.527664622472287], [84.76717001602378, 20.603276114062588], [84.63871824144759, 20.62389742995085], [84.56072966402634, 20.689885640793293], [84.36040606319919, 20.765497132383594], [84.34817256085861, 20.832860097618585], [84.26712560785221, 20.880976501357868], [84.2793591101928, 20.922219133134398], [84.37416875333236, 20.955213238555615], [84.48121189881252, 21.08031588827775], [84.58519666870751, 21.061069326782036], [84.66777280950649, 21.092688677810706], [84.74423219913517, 21.169674923793558], [84.87727153708907, 21.164175906223353], [84.93996823658459, 21.195795257252023], [84.89715097839253, 21.260408713701914], [85.01184006283555, 21.29752708230079], [84.9919606215321, 21.411631696882516], [85.02560275296872, 21.447375311088837], [85.1540545275449, 21.462497609406896], [85.20298853690726, 21.521612048286585], [85.14487940078945, 21.594474031091785], [85.19075503456666, 21.660462241934226], [85.25498092185475, 21.674209785859738], [85.33449868706859, 21.48174417090261], [85.30391493121711, 21.415755960060167], [85.34214462603146, 21.366264801928335], [85.28403548991366, 21.29890183669334], [85.39413701097895, 21.183422467719065]]]}}, {"type": "Feature", "properties": {"district": "Kendrapara", "dt_code": "379", "st_nm": "Odisha", "st_code": "21", "year": "2011_c"}, "geometry": {"type": "Polygon", "coordinates": [[[86.62207480841556, 20.79574172901971], [86.75970170974719, 20.766871886776144], [86.80557734352439, 20.735252535747474], [86.86062810405704, 20.775120413131447], [87.02272201006984, 20.770996149953795], [87.05636414150646, 20.714631219859207], [86.78875627780609, 20.534538394435042], [86.73676389285859, 20.461676411629846], [86.7765227754655, 20.33519900751516], [86.72300120272541, 20.29808063891629], [86.60372455490467, 20.340698025085366], [86.4523349634399, 20.329699989944956], [86.39422582732209, 20.36544360415128], [86.2489529870276, 20.36544360415128], [86.27341999170878, 20.387439674432095], [86.2489529870276, 20.538662657612697], [86.27953674287907, 20.581280043781774], [86.37740476160378, 20.59365283331473], [86.4523349634399, 20.674763342475234], [86.52573597748342, 20.688510886400742], [86.56396567229777, 20.775120413131447], [86.62207480841556, 20.79574172901971]]]}}, {"type": "Feature", "properties": {"district": "Ganjam", "dt_code": "388", "st_nm": "Odisha", "st_code": "21", "year": "2011_c"}, "geometry": {"type": "Polygon", "coordinates": [[[84.23348347641559, 19.573585074041965], [84.23960022758588, 19.665693618342875], [84.16008246237206, 19.73855560114807], [84.18454946705323, 19.8609087420851], [84.27477154681507, 19.880155303580814], [84.37875631671008, 19.845786443767043], [84.46133245750906, 19.85678447890745], [84.46286164530163, 19.953017286386014], [84.38946063125809, 19.955766795171115], [84.36346443878435, 20.025879269191208], [84.45368651854619, 20.16747897162395], [84.4873286499828, 20.141358638165485], [84.5867258565001, 20.17435274358671], [84.70447331652827, 20.278834077420576], [84.83139590331187, 20.216970129755786], [84.79775377187525, 20.090492725641102], [84.90173854177026, 19.991510409377437], [84.93996823658459, 19.898027110683977], [85.00419412387268, 19.804543811990513], [85.13723346182658, 19.73855560114807], [85.1831090956038, 19.67256739030563], [85.17240478105577, 19.467728985815548], [85.07912432570879, 19.375620441514634], [84.98125630698408, 19.316506002634945], [84.81151646200841, 19.15703449309904], [84.7656408282312, 19.07729873833109], [84.70141494094311, 19.118541370107618], [84.62342636352186, 19.085547264686397], [84.5913134198778, 19.023683317021607], [84.51485403024913, 19.049803650480072], [84.42310276269471, 18.949446579823856], [84.3542893120289, 19.008561018703546], [84.38640225567295, 19.12129087889272], [84.36040606319919, 19.188653844127714], [84.42616113827987, 19.26014107254036], [84.42157357490214, 19.34812535366362], [84.37875631671008, 19.38524372226249], [84.37416875333236, 19.48835030170381], [84.40169413359868, 19.574959828434515], [84.33593905851802, 19.59420638993023], [84.23348347641559, 19.573585074041965]]]}}, {"type": "Feature", "properties": {"district": "Gajapati", "dt_code": "389", "st_nm": "Odisha", "st_code": "21", "year": "2011_c"}, "geometry": {"type": "Polygon", "coordinates": [[[83.93987942024145, 19.635449021706755], [84.12949870652058, 19.629950004136553], [84.23348347641559, 19.573585074041965], [84.33593905851802, 19.59420638993023], [84.40169413359868, 19.574959828434515], [84.37416875333236, 19.48835030170381], [84.37875631671008, 19.38524372226249], [84.42157357490214, 19.34812535366362], [84.42616113827987, 19.26014107254036], [84.36040606319919, 19.188653844127714], [84.38640225567295, 19.12129087889272], [84.3542893120289, 19.008561018703546], [84.42310276269471, 18.949446579823856], [84.4353362650353, 18.924701000757942], [84.3191179927997, 18.7886003158954], [84.22430834966015, 18.79959835103581], [84.08973982391367, 18.75835571925928], [84.0362182511736, 18.81747015813897], [83.8909454108791, 18.81609540374642], [83.79307739215439, 19.018184299451402], [83.95058373478948, 18.99756298356314], [84.03315987558844, 19.132288914033126], [83.97963830284837, 19.21339942319363], [84.02092637324786, 19.29038566917648], [84.01480962207756, 19.376995195907185], [83.94752535920432, 19.396241757402898], [83.97963830284837, 19.530967687872888], [83.93987942024145, 19.635449021706755]]]}}, {"type": "Feature", "properties": {"district": "Mayurbhanj", "dt_code": "376", "st_nm": "Odisha", "st_code": "21", "year": "2011_c"}, "geometry": {"type": "Polygon", "coordinates": [[[86.72758876610314, 22.21586301652479], [86.83769028716844, 22.097634138765414], [86.96461287395205, 22.085261349232454], [87.02883876124014, 22.038519699885725], [87.00131338097381, 21.913417050163595], [87.10071058749111, 21.86392589203176], [87.1588197236089, 21.771817347730853], [87.04565982695846, 21.714077663243714], [87.00590094435154, 21.601347803054537], [86.73982226844373, 21.605472066232192], [86.64807100088932, 21.580726487166274], [86.58231592580864, 21.522986802679135], [86.53032354086115, 21.426753995200574], [86.36058369588548, 21.303026099870994], [86.26883242833105, 21.380012345853842], [86.20919410442069, 21.281030029590177], [86.11591364907369, 21.272781503234874], [86.10673852231825, 21.349767749217726], [86.16484765843606, 21.424004486415473], [86.13120552699944, 21.470746135762205], [86.00887050359354, 21.533984837819546], [86.0807423298445, 21.628842890905556], [86.02569156931185, 21.694831101748], [85.87583116563964, 21.795188172404217], [85.81160527835155, 21.810310470722275], [85.79631340042582, 21.950535418762467], [85.67092000143478, 22.013774120819807], [85.68315350377537, 22.05776626138144], [85.74890857885603, 22.074263314092047], [85.78407989808522, 21.984904278576238], [85.89723979473567, 21.983529524183687], [86.00887050359354, 22.115505945868577], [86.03180832048216, 22.18974268306632], [85.97369918436435, 22.24748236755346], [86.028749944897, 22.334091894284168], [86.01804563034898, 22.426200438585077], [85.96299486981634, 22.485314877464766], [86.06697963971135, 22.556802105877413], [86.11897202465885, 22.486689631857317], [86.28259511846423, 22.44819650886589], [86.3590545080929, 22.349214192602226], [86.42939714655128, 22.316220087181005], [86.49668140942453, 22.346464683817125], [86.55479054554232, 22.298348280077846], [86.72758876610314, 22.21586301652479]]]}}, {"type": "Feature", "properties": {"district": "Sundargarh", "dt_code": "374", "st_nm": "Odisha", "st_code": "21", "year": "2011_c"}, "geometry": {"type": "Polygon", "coordinates": [[[85.19075503456666, 21.660462241934226], [85.14487940078945, 21.594474031091785], [85.04854056985732, 21.590349767914134], [85.02560275296872, 21.672835031467187], [84.79010783291238, 21.668710768289532], [84.69071062639509, 21.70995340006606], [84.6616560583362, 21.760819312590442], [84.58825504429267, 21.75806980380534], [84.52555834479715, 21.81443473389993], [84.51026646687141, 22.05776626138144], [84.47662433543479, 22.18974268306632], [84.26712560785221, 22.104507910728167], [84.27018398343735, 22.01514887521236], [84.06986038261022, 21.989028541753893], [83.97810911505579, 21.905168523808285], [83.8970621620494, 21.94503640119226], [83.71967637811085, 21.785564891656357], [83.59122460353467, 21.825432769040333], [83.53923221858717, 21.965657717080525], [83.5377030307946, 22.045393471848477], [83.62792511055643, 22.203490226991832], [83.80225251890982, 22.29422401690019], [83.86342003061277, 22.343715175032024], [84.01022205869984, 22.37121026288304], [84.0469225657216, 22.468817824754154], [84.01175124649241, 22.527932263633843], [84.11114845300969, 22.47706635110946], [84.19678296939382, 22.3780840348458], [84.29159261253338, 22.342340420639474], [84.42921951386501, 22.351963701387326], [84.53473347155258, 22.427575192977628], [84.75034895030547, 22.419326666622325], [84.80998727421584, 22.453695526436093], [84.95831849009548, 22.44544700008079], [85.06994919895335, 22.490813895034968], [85.07759513791622, 22.25710564830132], [85.02866112855386, 22.12237971783133], [85.18005072001864, 22.072888559699496], [85.23815985613645, 22.009649857642156], [85.27944792653594, 21.958783945117773], [85.37731594526065, 21.93541312044441], [85.34061543823887, 21.825432769040333], [85.29015224108394, 21.837805558573294], [85.1999301613221, 21.762194066982993], [85.19075503456666, 21.660462241934226]]]}}, {"type": "Feature", "properties": {"district": "Kendujhar", "dt_code": "375", "st_nm": "Odisha", "st_code": "21", "year": "2011_c"}, "geometry": {"type": "Polygon", "coordinates": [[[86.36670044705576, 21.23703788902855], [86.28565349404937, 21.015702431827854], [86.13426390258458, 21.076191625100094], [86.05015857399303, 21.02120144939806], [86.02722075710443, 21.138055572764884], [85.91711923603913, 21.092688677810706], [85.82230959289956, 21.091313923418156], [85.71220807183427, 21.138055572764884], [85.70609132066397, 21.168300169401007], [85.54552660244374, 21.166925415008457], [85.49812178087396, 21.11468474809152], [85.39413701097895, 21.183422467719065], [85.28403548991366, 21.29890183669334], [85.34214462603146, 21.366264801928335], [85.30391493121711, 21.415755960060167], [85.33449868706859, 21.48174417090261], [85.25498092185475, 21.674209785859738], [85.19075503456666, 21.660462241934226], [85.1999301613221, 21.762194066982993], [85.29015224108394, 21.837805558573294], [85.34061543823887, 21.825432769040333], [85.37731594526065, 21.93541312044441], [85.27944792653594, 21.958783945117773], [85.23815985613645, 22.009649857642156], [85.27486036315821, 22.082511840447353], [85.3971953865641, 22.163622349607856], [85.68315350377537, 22.05776626138144], [85.67092000143478, 22.013774120819807], [85.79631340042582, 21.950535418762467], [85.81160527835155, 21.810310470722275], [85.87583116563964, 21.795188172404217], [86.02569156931185, 21.694831101748], [86.0807423298445, 21.628842890905556], [86.00887050359354, 21.533984837819546], [86.13120552699944, 21.470746135762205], [86.16484765843606, 21.424004486415473], [86.10673852231825, 21.349767749217726], [86.11591364907369, 21.272781503234874], [86.20919410442069, 21.281030029590177], [86.26883242833105, 21.380012345853842], [86.36058369588548, 21.303026099870994], [86.36670044705576, 21.23703788902855]]]}}, {"type": "Feature", "properties": {"district": "Balasore", "dt_code": "377", "st_nm": "Odisha", "st_code": "21", "year": "2011_c"}, "geometry": {"type": "Polygon", "coordinates": [[[86.85909891626447, 21.213667064355185], [86.80098978014666, 21.230164117065797], [86.67253800557049, 21.169674923793558], [86.65265856426703, 21.107810976128768], [86.51503166293541, 21.135306063979783], [86.36670044705576, 21.23703788902855], [86.36058369588548, 21.303026099870994], [86.53032354086115, 21.426753995200574], [86.58231592580864, 21.522986802679135], [86.64807100088932, 21.580726487166274], [86.73982226844373, 21.605472066232192], [87.00590094435154, 21.601347803054537], [87.04565982695846, 21.714077663243714], [87.1588197236089, 21.771817347730853], [87.10071058749111, 21.86392589203176], [87.10835652645397, 21.924415085304], [87.24292505220045, 21.964282962687975], [87.24904180337074, 21.854302611283906], [87.28268393480735, 21.80343669875952], [87.44171946523501, 21.767693084553198], [87.48453672342708, 21.61509534698005], [87.40807733379839, 21.544982872959952], [87.21998723531183, 21.535359592212096], [87.14811540906088, 21.50923925875363], [86.94932099602632, 21.35801627557303], [86.85909891626447, 21.213667064355185]]]}}, {"type": "Feature", "properties": {"district": "Jharsuguda", "dt_code": "371", "st_nm": "Odisha", "st_code": "21", "year": "2011_c"}, "geometry": {"type": "Polygon", "coordinates": [[[83.59122460353467, 21.825432769040333], [83.71967637811085, 21.785564891656357], [83.8970621620494, 21.94503640119226], [83.97810911505579, 21.905168523808285], [84.06986038261022, 21.989028541753893], [84.27018398343735, 22.01514887521236], [84.35887687540662, 22.037144945493175], [84.37416875333236, 21.956034436332672], [84.28853423694824, 21.771817347730853], [84.23807103979331, 21.80618620754462], [84.08973982391367, 21.7704425933383], [83.98116749064094, 21.780065874086155], [83.96740480050778, 21.580726487166274], [83.79919414332468, 21.56285468006311], [83.69673856122225, 21.698955364925652], [83.5667575988535, 21.74294750548728], [83.48723983363966, 21.643965189223614], [83.46124364116592, 21.6975806105331], [83.59122460353467, 21.825432769040333]]]}}, {"type": "Feature", "properties": {"district": "Bargarh", "dt_code": "370", "st_nm": "Odisha", "st_code": "21", "year": "2011_c"}, "geometry": {"type": "Polygon", "coordinates": [[[82.63854060876132, 21.088564414633055], [82.64006979655389, 21.154552625475496], [82.96578679637207, 21.17517394136376], [83.07741750522995, 21.11193523930642], [83.19210658967296, 21.139430327157434], [83.26856597930164, 21.37726283706874], [83.27162435488678, 21.37726283706874], [83.27468273047194, 21.37726283706874], [83.39243019050011, 21.34289397725497], [83.3985469416704, 21.40475792491976], [83.33737942996746, 21.50099073239832], [83.38325506374466, 21.62059436455025], [83.48723983363966, 21.643965189223614], [83.5667575988535, 21.74294750548728], [83.69673856122225, 21.698955364925652], [83.79919414332468, 21.56285468006311], [83.88635784750137, 21.43775203034098], [83.87259515736821, 21.304400854263545], [83.91082485218256, 21.2384126434211], [83.89400378646425, 21.17517394136376], [83.84048221372417, 21.094063432203257], [83.78390226539895, 21.151803116690395], [83.71355962694057, 21.11880901126917], [83.60498729366783, 21.12843229201703], [83.54840734534261, 21.076191625100094], [83.4566560777882, 21.05831981799693], [83.38631343932981, 20.98958209836939], [83.4046636928407, 20.889225027713174], [83.28538704501995, 20.85348141350685], [83.21657359435414, 20.9304676594897], [83.13093907797001, 20.857605676684503], [82.9810786742978, 20.845232887151546], [82.88932740674339, 20.907096834816336], [82.70123730825684, 20.72837876378472], [82.68135786695338, 20.885100764535522], [82.69359136929397, 21.01982669500551], [82.63854060876132, 21.088564414633055]]]}}, {"type": "Feature", "properties": {"district": "Deogarh", "dt_code": "373", "st_nm": "Odisha", "st_code": "21", "year": "2011_c"}, "geometry": {"type": "Polygon", "coordinates": [[[85.14487940078945, 21.594474031091785], [85.20298853690726, 21.521612048286585], [85.1540545275449, 21.462497609406896], [85.02560275296872, 21.447375311088837], [84.9919606215321, 21.411631696882516], [85.01184006283555, 21.29752708230079], [84.89715097839253, 21.260408713701914], [84.93996823658459, 21.195795257252023], [84.87727153708907, 21.164175906223353], [84.74423219913517, 21.169674923793558], [84.76105326485347, 21.276905766412526], [84.71059006769855, 21.318148398189052], [84.56684641519664, 21.24941067856151], [84.54696697389318, 21.37313857389109], [84.40322332139127, 21.378637591461292], [84.40934007256155, 21.476245153332407], [84.53626265934517, 21.566978943240766], [84.50262052790853, 21.68245831221504], [84.63107230248472, 21.6975806105331], [84.6616560583362, 21.760819312590442], [84.69071062639509, 21.70995340006606], [84.79010783291238, 21.668710768289532], [85.02560275296872, 21.672835031467187], [85.04854056985732, 21.590349767914134], [85.14487940078945, 21.594474031091785]]]}}, {"type": "Feature", "properties": {"district": "Sambalpur", "dt_code": "372", "st_nm": "Odisha", "st_code": "21", "year": "2011_c"}, "geometry": {"type": "Polygon", "coordinates": [[[84.2793591101928, 20.922219133134398], [84.23807103979331, 20.922219133134398], [84.14326139665374, 21.033574238931017], [84.0178679976627, 21.05144604603418], [83.98422586622608, 21.131181800802132], [83.89400378646425, 21.17517394136376], [83.91082485218256, 21.2384126434211], [83.87259515736821, 21.304400854263545], [83.88635784750137, 21.43775203034098], [83.79919414332468, 21.56285468006311], [83.96740480050778, 21.580726487166274], [83.98116749064094, 21.780065874086155], [84.08973982391367, 21.7704425933383], [84.23807103979331, 21.80618620754462], [84.28853423694824, 21.771817347730853], [84.37416875333236, 21.956034436332672], [84.35887687540662, 22.037144945493175], [84.27018398343735, 22.01514887521236], [84.26712560785221, 22.104507910728167], [84.47662433543479, 22.18974268306632], [84.51026646687141, 22.05776626138144], [84.52555834479715, 21.81443473389993], [84.58825504429267, 21.75806980380534], [84.6616560583362, 21.760819312590442], [84.63107230248472, 21.6975806105331], [84.50262052790853, 21.68245831221504], [84.53626265934517, 21.566978943240766], [84.40934007256155, 21.476245153332407], [84.40322332139127, 21.378637591461292], [84.54696697389318, 21.37313857389109], [84.56684641519664, 21.24941067856151], [84.71059006769855, 21.318148398189052], [84.76105326485347, 21.276905766412526], [84.74423219913517, 21.169674923793558], [84.66777280950649, 21.092688677810706], [84.58519666870751, 21.061069326782036], [84.48121189881252, 21.08031588827775], [84.37416875333236, 20.955213238555615], [84.2793591101928, 20.922219133134398]]]}}], "metadata": {"source": "udit-001/india-maps-data (Census 2011)", "url": "https://github.com/udit-001/india-maps-data", "license": "ODbL (Open Database License)", "feature_count": 31}}