{"type": "FeatureCollection", "features": [{"type": "Feature", "properties": {"district": "Gurdaspur", "dt_code": "035", "st_nm": "Punjab", "st_code": "03", "year": "2011_c"}, "geometry": {"type": "Polygon", "coordinates": [[[75.3794861574144, 32.182832362518795], [75.43453691794706, 32.14983825709758], [75.58745569720442, 32.14158973074227], [75.60121838733758, 32.09347332700299], [75.59816001175243, 32.08247529186258], [75.5308757488792, 31.94087558942984], [75.56757625590096, 31.800650641389648], [75.47582498834655, 31.64942765820905], [75.40395316209558, 31.593062728114464], [75.22809656594961, 31.683796518022824], [75.18986687113528, 31.74016144811741], [75.07059022331454, 31.807524413352404], [74.96966382900467, 31.830895238025768], [74.89014606379085, 31.928502799896883], [74.91308388067945, 32.04398216887115], [75.01248108719673, 32.03573364251585], [75.12258260826204, 32.081100537470036], [75.17457499320955, 32.067352993544525], [75.3794861574144, 32.182832362518795]]]}}, {"type": "Feature", "properties": {"district": "Hoshiarpur", "dt_code": "038", "st_nm": "Punjab", "st_code": "03", "year": "2011_c"}, "geometry": {"type": "Polygon", "coordinates": [[[75.47582498834655, 31.64942765820905], [75.56757625590096, 31.800650641389648], [75.5308757488792, 31.94087558942984], [75.59816001175243, 32.08247529186258], [75.65473996007765, 32.07697627429238], [75.91011432143745, 31.950498870177697], [75.96057751859237, 31.857015571484236], [75.96057751859237, 31.781404079893935], [76.0171574669176, 31.63155585110589], [76.1211422368126, 31.49820467502845], [76.20066000202642, 31.302989551286224], [76.2893528939957, 31.307113814463875], [76.33064096439519, 31.22325379651827], [76.23583132125562, 31.243875112406535], [76.20983512878188, 31.136644269787567], [76.1379633025309, 31.146267550535423], [75.99269046223642, 31.258997410724596], [75.89023488013399, 31.275494463435205], [75.8489468097345, 31.37310202530632], [75.78777929803155, 31.364853498951014], [75.80001280037214, 31.454212534466823], [75.70214478164743, 31.529824026057124], [75.67003183800338, 31.606810272039972], [75.59816001175243, 31.60543551764742], [75.47582498834655, 31.64942765820905]]]}}, {"type": "Feature", "properties": {"district": "Amritsar", "dt_code": "049", "st_nm": "Punjab", "st_code": "03", "year": "2011_c"}, "geometry": {"type": "Polygon", "coordinates": [[[74.91308388067945, 32.04398216887115], [74.89014606379085, 31.928502799896883], [74.96966382900467, 31.830895238025768], [75.07059022331454, 31.807524413352404], [75.18986687113528, 31.74016144811741], [75.22809656594961, 31.683796518022824], [75.40395316209558, 31.593062728114464], [75.29079326544513, 31.4913309030657], [75.07059022331454, 31.52844927166457], [74.84427043001364, 31.531198780449675], [74.79380723285871, 31.57106665783365], [74.64853439256422, 31.54082206119753], [74.61183388554245, 31.499579429421004], [74.50326155226972, 31.74016144811741], [74.55984150059496, 31.75803325522057], [74.57207500293553, 31.839143764381074], [74.6668846460751, 31.923003782326678], [74.8060407351993, 31.962871659710654], [74.91308388067945, 32.04398216887115]]]}}, {"type": "Feature", "properties": {"district": "Jalandhar", "dt_code": "037", "st_nm": "Punjab", "st_code": "03", "year": "2011_c"}, "geometry": {"type": "Polygon", "coordinates": [[[75.59816001175243, 31.60543551764742], [75.67003183800338, 31.606810272039972], [75.70214478164743, 31.529824026057124], [75.80001280037214, 31.454212534466823], [75.78777929803155, 31.364853498951014], [75.68226534034397, 31.31536234081918], [75.67309021358854, 31.268620691472453], [75.79848361257957, 31.21638002455552], [75.89788081909686, 31.15589083128328], [75.9529315796295, 31.010166865672883], [75.796954424787, 30.995044567354824], [75.74649122763206, 31.012916374457983], [75.59357244837472, 30.968924233896356], [75.35960671611095, 30.99366981296227], [75.14704961294322, 31.091277374833385], [75.0782361622774, 31.147642304927974], [75.12564098384718, 31.169638375208788], [75.2693846363491, 31.147642304927974], [75.27703057531197, 31.18751018231195], [75.41771585222874, 31.24937412997674], [75.4605331104208, 31.23562658605123], [75.49111686627228, 31.384100060446727], [75.44065366911735, 31.49545516624335], [75.52017143433117, 31.499579429421004], [75.59816001175243, 31.60543551764742]]]}}, {"type": "Feature", "properties": {"district": "Tarn Taran", "dt_code": "050", "st_nm": "Punjab", "st_code": "03", "year": "2011_c"}, "geometry": {"type": "Polygon", "coordinates": [[[74.61183388554245, 31.499579429421004], [74.64853439256422, 31.54082206119753], [74.79380723285871, 31.57106665783365], [74.84427043001364, 31.531198780449675], [75.07059022331454, 31.52844927166457], [75.29079326544513, 31.4913309030657], [75.1072907303363, 31.31673709521173], [75.04612321863335, 31.19025969109705], [74.96507626562695, 31.153141322498175], [74.74181484791121, 31.118772462684404], [74.70817271647459, 31.072030813337673], [74.6898224629637, 31.12839574343226], [74.51090749123259, 31.132520006609912], [74.55219556163208, 31.364853498951014], [74.65159276814937, 31.456962043251924], [74.61183388554245, 31.499579429421004]]]}}, {"type": "Feature", "properties": {"district": "Rupnagar", "dt_code": "051", "st_nm": "Punjab", "st_code": "03", "year": "2011_c"}, "geometry": {"type": "Polygon", "coordinates": [[[76.33064096439519, 31.22325379651827], [76.2893528939957, 31.307113814463875], [76.39180847609813, 31.412969902690296], [76.43156735870504, 31.326360375959588], [76.49732243378571, 31.269995445865003], [76.58754451354756, 31.274119709042655], [76.64565364966535, 31.209506252592764], [76.62424502056932, 30.999168830532476], [76.73281735384205, 30.937304882867686], [76.60742395485101, 30.890563233520954], [76.53096456522233, 30.768210092583924], [76.44380086104563, 30.75996156622862], [76.36734147141695, 30.872691426417795], [76.31993664984716, 30.878190443987997], [76.30617395971402, 30.99092030417717], [76.49426405820056, 30.97579800585911], [76.33064096439519, 31.22325379651827]]]}}, {"type": "Feature", "properties": {"district": "Shahid Bhagat Singh Nagar", "dt_code": "039", "st_nm": "Punjab", "st_code": "03", "year": "2011_c"}, "geometry": {"type": "Polygon", "coordinates": [[[75.89023488013399, 31.275494463435205], [75.99269046223642, 31.258997410724596], [76.1379633025309, 31.146267550535423], [76.20983512878188, 31.136644269787567], [76.23583132125562, 31.243875112406535], [76.33064096439519, 31.22325379651827], [76.49426405820056, 30.97579800585911], [76.30617395971402, 30.99092030417717], [76.2771193916551, 31.015665883243088], [76.13643411473834, 30.997794076139925], [75.9529315796295, 31.010166865672883], [75.89788081909686, 31.15589083128328], [75.79848361257957, 31.21638002455552], [75.89023488013399, 31.275494463435205]]]}}, {"type": "Feature", "properties": {"district": "Fazilka", "dt_code": "701", "st_nm": "Punjab", "st_code": "03", "year": "update2014"}, "geometry": {"type": "Polygon", "coordinates": [[[74.44821079173708, 29.94748172023104], [74.29835038806486, 29.954355492193795], [73.89464481082543, 29.973602053689508], [73.90381993758088, 30.050588299672356], [73.97569176383183, 30.1193260192999], [73.96804582486897, 30.19356275649765], [73.9603998859061, 30.2705490024805], [73.87935293289969, 30.35990803799631], [73.96498744928381, 30.4245214944462], [73.96345826149124, 30.48501068771844], [74.21577424726588, 30.691223846601076], [74.41609784809303, 30.614237600618225], [74.36716383873068, 30.586742512767206], [74.35798871197524, 30.402525424165386], [74.26317906883567, 30.247178177807136], [74.35798871197524, 30.24030440584438], [74.3885724678267, 30.073959124345723], [74.44821079173708, 29.94748172023104]]]}}, {"type": "Feature", "properties": {"district": "Moga", "dt_code": "042", "st_nm": "Punjab", "st_code": "03", "year": "2011_c"}, "geometry": {"type": "Polygon", "coordinates": [[[75.14704961294322, 31.091277374833385], [75.35960671611095, 30.99366981296227], [75.39630722313271, 30.8053284611828], [75.37336940624411, 30.626610390151182], [75.4085407254733, 30.583993003982105], [75.36113590390352, 30.51250577556946], [75.29691001661543, 30.51663003874711], [75.18222093217241, 30.511131021176908], [75.1653998664541, 30.5784939864119], [75.0201270261596, 30.490509705288645], [74.9451968243235, 30.571620214449148], [74.95590113887151, 30.677476302675565], [74.90543794171658, 30.736590741555254], [74.9513135754938, 30.891937987913504], [75.0782361622774, 30.946928163615542], [75.09505722799571, 31.047285234271758], [75.14704961294322, 31.091277374833385]]]}}, {"type": "Feature", "properties": {"district": "Ludhiana", "dt_code": "041", "st_nm": "Punjab", "st_code": "03", "year": "2011_c"}, "geometry": {"type": "Polygon", "coordinates": [[[75.35960671611095, 30.99366981296227], [75.59357244837472, 30.968924233896356], [75.74649122763206, 31.012916374457983], [75.796954424787, 30.995044567354824], [75.9529315796295, 31.010166865672883], [76.13643411473834, 30.997794076139925], [76.2771193916551, 31.015665883243088], [76.30617395971402, 30.99092030417717], [76.31993664984716, 30.878190443987997], [76.28170695503283, 30.830074040248714], [76.30311558412886, 30.678851057068115], [76.15172599266407, 30.65548023239475], [76.08597091758341, 30.56199693370129], [76.00951152795473, 30.615612355010775], [75.93611051391119, 30.567495951271493], [75.87953056558597, 30.676101548283015], [75.78625011023898, 30.6568549867873], [75.68379452813654, 30.59086677594486], [75.57828057044897, 30.570245460056597], [75.46512067379852, 30.60598907426292], [75.4085407254733, 30.583993003982105], [75.37336940624411, 30.626610390151182], [75.39630722313271, 30.8053284611828], [75.35960671611095, 30.99366981296227]]]}}, {"type": "Feature", "properties": {"district": "S.A.S. Nagar", "dt_code": "052", "st_nm": "Punjab", "st_code": "03", "year": "2011_c"}, "geometry": {"type": "Polygon", "coordinates": [[[76.53096456522233, 30.768210092583924], [76.60742395485101, 30.890563233520954], [76.73281735384205, 30.937304882867686], [76.77716379982668, 30.904310777446465], [76.8459772504925, 30.83419830342637], [76.83833131152963, 30.754462548658417], [76.70987953695344, 30.761336320621172], [76.73893410501233, 30.692598600993627], [76.8276269969816, 30.68160056585322], [76.92549501570632, 30.610113337440573], [76.90714476219543, 30.458890354259974], [76.89796963543999, 30.445142810334463], [76.91173232557315, 30.42589624883875], [76.74810923176778, 30.428645757623855], [76.76951786086381, 30.502882494821602], [76.73434654163462, 30.572994968841698], [76.63494933511734, 30.619736618188426], [76.53402294080747, 30.710470408096786], [76.53096456522233, 30.768210092583924]]]}}, {"type": "Feature", "properties": {"district": "Faridkot", "dt_code": "045", "st_nm": "Punjab", "st_code": "03", "year": "2011_c"}, "geometry": {"type": "Polygon", "coordinates": [[[74.90543794171658, 30.736590741555254], [74.95590113887151, 30.677476302675565], [74.9451968243235, 30.571620214449148], [75.0201270261596, 30.490509705288645], [74.99566002147843, 30.405274932950487], [74.92072981964232, 30.36678180995906], [74.82133261312504, 30.39290214341753], [74.75710672583695, 30.39427689781008], [74.6898224629637, 30.522129056317315], [74.70970190426716, 30.55924742491619], [74.57207500293553, 30.663728758750057], [74.50020317668458, 30.666478267535158], [74.47114860862568, 30.74896353108821], [74.62406738788304, 30.83694781221147], [74.77086941597011, 30.814951741930656], [74.90543794171658, 30.736590741555254]]]}}, {"type": "Feature", "properties": {"district": "Fatehgarh Sahib", "dt_code": "040", "st_nm": "Punjab", "st_code": "03", "year": "2011_c"}, "geometry": {"type": "Polygon", "coordinates": [[[76.31993664984716, 30.878190443987997], [76.36734147141695, 30.872691426417795], [76.44380086104563, 30.75996156622862], [76.53096456522233, 30.768210092583924], [76.53402294080747, 30.710470408096786], [76.63494933511734, 30.619736618188426], [76.53555212860005, 30.55924742491619], [76.4346257342902, 30.443768055941913], [76.22971457008532, 30.570245460056597], [76.08597091758341, 30.537251354635373], [76.08597091758341, 30.56199693370129], [76.15172599266407, 30.65548023239475], [76.30311558412886, 30.678851057068115], [76.28170695503283, 30.830074040248714], [76.31993664984716, 30.878190443987997]]]}}, {"type": "Feature", "properties": {"district": "Sri Muktsar Sahib", "dt_code": "044", "st_nm": "Punjab", "st_code": "03", "year": "2011_c"}, "geometry": {"type": "Polygon", "coordinates": [[[74.44821079173708, 29.94748172023104], [74.3885724678267, 30.073959124345723], [74.35798871197524, 30.24030440584438], [74.26317906883567, 30.247178177807136], [74.35798871197524, 30.402525424165386], [74.36716383873068, 30.586742512767206], [74.41609784809303, 30.614237600618225], [74.50020317668458, 30.666478267535158], [74.57207500293553, 30.663728758750057], [74.70970190426716, 30.55924742491619], [74.6898224629637, 30.522129056317315], [74.75710672583695, 30.39427689781008], [74.82133261312504, 30.39290214341753], [74.72346459440033, 30.309042125471926], [74.70358515309687, 30.160568651076428], [74.70511434088944, 29.974976808082058], [74.64700520477165, 29.911738106024714], [74.52619936915833, 29.940607948268283], [74.44821079173708, 29.94748172023104]]]}}, {"type": "Feature", "properties": {"district": "Sangrur", "dt_code": "053", "st_nm": "Punjab", "st_code": "03", "year": "2011_c"}, "geometry": {"type": "Polygon", "coordinates": [[[75.68379452813654, 30.59086677594486], [75.78625011023898, 30.6568549867873], [75.87953056558597, 30.676101548283015], [75.93611051391119, 30.567495951271493], [76.00951152795473, 30.615612355010775], [76.08597091758341, 30.56199693370129], [76.08597091758341, 30.537251354635373], [76.08750010537598, 30.45751559986742], [75.9881028988587, 30.340661476500596], [76.08750010537598, 30.310416879864476], [76.1670178705898, 30.321414915004883], [76.16548868279723, 30.24030440584438], [76.04927041056165, 30.186688984534896], [76.1043211710943, 30.104203720981843], [76.00645315236959, 29.983225334437364], [75.98351533548097, 29.906239088454512], [76.098204419924, 29.810006280975948], [76.04927041056165, 29.746767578918607], [75.94681482845921, 29.728895771815445], [75.77860417127611, 29.82237907050891], [75.72049503515832, 29.814130544153603], [75.76484148114295, 29.91861187798747], [75.67614858917368, 29.908988597239613], [75.68838209151427, 30.01209517668093], [75.5767513826564, 30.144071598365816], [75.55687194135294, 30.197687019675303], [75.72814097412119, 30.2732985112656], [75.68379452813654, 30.351659511641003], [75.65168158449251, 30.542750372205578], [75.68379452813654, 30.59086677594486]]]}}, {"type": "Feature", "properties": {"district": "Barnala", "dt_code": "054", "st_nm": "Punjab", "st_code": "03", "year": "2011_c"}, "geometry": {"type": "Polygon", "coordinates": [[[75.29691001661543, 30.51663003874711], [75.36113590390352, 30.51250577556946], [75.4085407254733, 30.583993003982105], [75.46512067379852, 30.60598907426292], [75.57828057044897, 30.570245460056597], [75.68379452813654, 30.59086677594486], [75.65168158449251, 30.542750372205578], [75.68379452813654, 30.351659511641003], [75.72814097412119, 30.2732985112656], [75.55687194135294, 30.197687019675303], [75.5767513826564, 30.144071598365816], [75.46359148600595, 30.19356275649765], [75.36878184286638, 30.200436528460404], [75.37184021845154, 30.260925721732644], [75.31526027012632, 30.32828868696764], [75.33361052363719, 30.37777984509947], [75.25409275842337, 30.464389371830176], [75.29691001661543, 30.51663003874711]]]}}, {"type": "Feature", "properties": {"district": "Bathinda", "dt_code": "046", "st_nm": "Punjab", "st_code": "03", "year": "2011_c"}, "geometry": {"type": "Polygon", "coordinates": [[[75.0201270261596, 30.490509705288645], [75.1653998664541, 30.5784939864119], [75.18222093217241, 30.511131021176908], [75.29691001661543, 30.51663003874711], [75.25409275842337, 30.464389371830176], [75.33361052363719, 30.37777984509947], [75.31526027012632, 30.32828868696764], [75.37184021845154, 30.260925721732644], [75.36878184286638, 30.200436528460404], [75.34431483818521, 30.13169880883286], [75.2525635706308, 30.105578475374394], [75.23727169270506, 29.959854509763996], [75.18222093217241, 29.969477790511853], [75.19139605892785, 29.844375140789722], [75.11799504488431, 29.832002351256765], [74.997189209271, 29.867745965463087], [74.92684657081261, 29.95023122901614], [74.8121574863696, 29.992848615185217], [74.70511434088944, 29.974976808082058], [74.70358515309687, 30.160568651076428], [74.72346459440033, 30.309042125471926], [74.82133261312504, 30.39290214341753], [74.92072981964232, 30.36678180995906], [74.99566002147843, 30.405274932950487], [75.0201270261596, 30.490509705288645]]]}}, {"type": "Feature", "properties": {"district": "Patiala", "dt_code": "048", "st_nm": "Punjab", "st_code": "03", "year": "2011_c"}, "geometry": {"type": "Polygon", "coordinates": [[[76.63494933511734, 30.619736618188426], [76.73434654163462, 30.572994968841698], [76.76951786086381, 30.502882494821602], [76.74810923176778, 30.428645757623855], [76.71140872474601, 30.325539178182535], [76.5615483210738, 30.24167916023693], [76.64259527408021, 30.14957061593602], [76.63800771070248, 30.14682110715092], [76.57684019899953, 30.10145421219674], [76.46673867793425, 30.098704703411638], [76.41015872960901, 30.14544635275837], [76.2541815747665, 30.08908142266378], [76.17160543396753, 29.926860404342776], [76.21442269215959, 29.840250877612068], [76.098204419924, 29.810006280975948], [75.98351533548097, 29.906239088454512], [76.00645315236959, 29.983225334437364], [76.1043211710943, 30.104203720981843], [76.04927041056165, 30.186688984534896], [76.16548868279723, 30.24030440584438], [76.1670178705898, 30.321414915004883], [76.08750010537598, 30.310416879864476], [75.9881028988587, 30.340661476500596], [76.08750010537598, 30.45751559986742], [76.08597091758341, 30.537251354635373], [76.22971457008532, 30.570245460056597], [76.4346257342902, 30.443768055941913], [76.53555212860005, 30.55924742491619], [76.63494933511734, 30.619736618188426]]]}}, {"type": "Feature", "properties": {"district": "Mansa", "dt_code": "047", "st_nm": "Punjab", "st_code": "03", "year": "2011_c"}, "geometry": {"type": "Polygon", "coordinates": [[[75.5767513826564, 30.144071598365816], [75.68838209151427, 30.01209517668093], [75.67614858917368, 29.908988597239613], [75.76484148114295, 29.91861187798747], [75.72049503515832, 29.814130544153603], [75.57980975824154, 29.739893806955852], [75.4605331104208, 29.807256772190847], [75.34584402597778, 29.695901666394224], [75.30302676778572, 29.559800981531687], [75.16845824203925, 29.667031824150655], [75.24185925608278, 29.750891842096262], [75.19139605892785, 29.844375140789722], [75.18222093217241, 29.969477790511853], [75.23727169270506, 29.959854509763996], [75.2525635706308, 30.105578475374394], [75.34431483818521, 30.13169880883286], [75.36878184286638, 30.200436528460404], [75.46359148600595, 30.19356275649765], [75.5767513826564, 30.144071598365816]]]}}, {"type": "Feature", "properties": {"district": "Ferozepur", "dt_code": "043", "st_nm": "Punjab", "st_code": "03", "year": "2011_c"}, "geometry": {"type": "Polygon", "coordinates": [[[75.0782361622774, 31.147642304927974], [75.14704961294322, 31.091277374833385], [75.09505722799571, 31.047285234271758], [75.0782361622774, 30.946928163615542], [74.9513135754938, 30.891937987913504], [74.90543794171658, 30.736590741555254], [74.77086941597011, 30.814951741930656], [74.62406738788304, 30.83694781221147], [74.47114860862568, 30.74896353108821], [74.50020317668458, 30.666478267535158], [74.41609784809303, 30.614237600618225], [74.21577424726588, 30.691223846601076], [74.3656346509381, 30.89331274230606], [74.59654200761672, 31.0376619535239], [74.70817271647459, 31.072030813337673], [74.74181484791121, 31.118772462684404], [74.96507626562695, 31.153141322498175], [75.0782361622774, 31.147642304927974]]]}}, {"type": "Feature", "properties": {"district": "Pathankot", "dt_code": "773", "st_nm": "Punjab", "st_code": "03", "year": "2011_c"}, "geometry": {"type": "Polygon", "coordinates": [[[75.83671330739391, 32.511398662338465], [75.93152295053348, 32.39454453897164], [75.87341381441567, 32.39591929336419], [75.77095823231325, 32.28868845074522], [75.63791889435934, 32.251570082146344], [75.66085671124794, 32.137465467564624], [75.60121838733758, 32.09347332700299], [75.58745569720442, 32.14158973074227], [75.43453691794706, 32.14983825709758], [75.3794861574144, 32.182832362518795], [75.38101534520698, 32.26944188924951], [75.34125646260006, 32.34642813523236], [75.51252549536831, 32.30793501224093], [75.59663082395986, 32.378047486261025], [75.6868529037217, 32.390420275793986], [75.72814097412119, 32.452284223458776], [75.83671330739391, 32.511398662338465]]]}}, {"type": "Feature", "properties": {"district": "Kapurthala", "dt_code": "036", "st_nm": "Punjab", "st_code": "03", "year": "2011_c"}, "geometry": {"type": "MultiPolygon", "coordinates": [[[[75.78777929803155, 31.364853498951014], [75.8489468097345, 31.37310202530632], [75.89023488013399, 31.275494463435205], [75.79848361257957, 31.21638002455552], [75.67309021358854, 31.268620691472453], [75.68226534034397, 31.31536234081918], [75.78777929803155, 31.364853498951014]]], [[[75.40395316209558, 31.593062728114464], [75.47582498834655, 31.64942765820905], [75.59816001175243, 31.60543551764742], [75.52017143433117, 31.499579429421004], [75.44065366911735, 31.49545516624335], [75.49111686627228, 31.384100060446727], [75.4605331104208, 31.23562658605123], [75.41771585222874, 31.24937412997674], [75.27703057531197, 31.18751018231195], [75.2693846363491, 31.147642304927974], [75.12564098384718, 31.169638375208788], [75.0782361622774, 31.147642304927974], [74.96507626562695, 31.153141322498175], [75.04612321863335, 31.19025969109705], [75.1072907303363, 31.31673709521173], [75.29079326544513, 31.4913309030657], [75.40395316209558, 31.593062728114464]]]]}}], "metadata": {"source": "udit-001/india-maps-data (Census 2011)", "url": "https://github.com/udit-001/india-maps-data", "license": "ODbL (Open Database License)", "feature_count": 23}}