{"type": "FeatureCollection", "features": [{"type": "Feature", "properties": {"district": "Puducherry", "dt_code": "635", "st_nm": "Puducherry", "st_code": "34", "year": "2011_c"}, "geometry": {"type": "Polygon", "coordinates": [[[79.68567898130168, 11.880459493327141], [79.78507618781896, 11.960195248095093], [79.84012694835161, 11.956070984917439], [79.80801400470757, 11.844715879120816], [79.68567898130168, 11.880459493327141]]]}}, {"type": "Feature", "properties": {"district": "Karaikal", "dt_code": "637", "st_nm": "Puducherry", "st_code": "34", "year": "2011_c"}, "geometry": {"type": "Polygon", "coordinates": [[[79.72390867611603, 10.92912945368192], [79.7483756807972, 10.996492418916914], [79.85083126289963, 10.985494383776505], [79.84930207510706, 10.827397628633154], [79.81871831925558, 10.879638295550087], [79.72390867611603, 10.92912945368192]]]}}, {"type": "Feature", "properties": {"district": "Mahe", "dt_code": "636", "st_nm": "Puducherry", "st_code": "34", "year": "2011_c"}, "geometry": {"type": "Polygon", "coordinates": [[[75.55534275356037, 11.722362738183786], [75.53699250004948, 11.719613229398686], [75.5415800634272, 11.738859790894399], [75.55534275356037, 11.722362738183786]]]}}, {"type": "Feature", "properties": {"district": "Yanam", "dt_code": "634", "st_nm": "Puducherry", "st_code": "34", "year": "2011_c"}, "geometry": {"type": "Polygon", "coordinates": [[[82.18590102215953, 16.737466762209465], [82.27000635075107, 16.722344463891403], [82.26694797516593, 16.694849376040384], [82.23942259489961, 16.7168454463212], [82.19966371229269, 16.720969709498853], [82.18590102215953, 16.737466762209465]]]}}], "metadata": {"source": "udit-001/india-maps-data (Census 2011)", "url": "https://github.com/udit-001/india-maps-data", "license": "ODbL (Open Database License)", "feature_count": 5}}