{"type": "FeatureCollection", "features": [{"type": "Feature", "properties": {"district": "Churu", "dt_code": "102", "st_nm": "Rajasthan", "st_code": "08", "year": "2011_c"}, "geometry": {"type": "Polygon", "coordinates": [[[75.47429580055396, 28.926039206565722], [75.52017143433117, 28.833930662264812], [75.56145950473066, 28.612595205064117], [75.62262701643361, 28.60159716992371], [75.67003183800338, 28.519111906370657], [75.50029199302772, 28.336269572161388], [75.38254453299955, 28.33764432655394], [75.24797600725307, 28.46412173066862], [75.22503819036447, 28.395384011041074], [75.14552042515064, 28.381636467115566], [75.14704961294322, 28.29502694038486], [75.04459403084078, 28.255159063000885], [75.02471458953733, 28.20291839608395], [74.8870876882057, 28.18917085215844], [74.8060407351993, 28.06269344804376], [74.78463210610327, 27.954087851032238], [74.73569809674092, 27.890849148974898], [74.8182742375399, 27.80149011345909], [74.74181484791121, 27.767121253645314], [74.71734784323003, 27.677762218129505], [74.62712576346819, 27.64889237588594], [74.49102804992914, 27.68738549887736], [74.34116764625692, 27.68188648130716], [74.25400394208023, 27.600775972146657], [74.19589480596242, 27.49904414709789], [74.2035407449253, 27.42205790111504], [74.08120572151941, 27.478422831209627], [74.02921333657191, 27.534787761304212], [73.90840750095859, 27.489420866350034], [73.87476536952197, 27.537537270089317], [73.89464481082543, 27.602150726539207], [73.85794430380366, 27.659890411026346], [73.8671194305591, 27.779494043178275], [73.99251282955014, 27.811113394206945], [73.99710039292786, 27.734127148224093], [74.06591384359368, 27.731377639438993], [74.11943541633374, 27.797365850281434], [74.2264785618139, 27.816612411777147], [74.2387120641545, 27.999454745986416], [74.29529201247972, 28.044821640940597], [74.29376282468714, 28.145178711596813], [74.35798871197524, 28.205667904869053], [74.24788719090994, 28.24691053664558], [74.19742399375501, 28.330770554591183], [74.06132628021595, 28.332145308983733], [74.02768414877933, 28.376137449545364], [74.05368034125308, 28.52598567833341], [74.10873110178574, 28.5851001172131], [74.07967653372684, 28.670334889551256], [74.19283643037728, 28.70882801254268], [74.16072348673323, 28.776190977777674], [74.2677666322134, 28.796812293665937], [74.41915622367817, 28.884796574789195], [74.4757361720034, 28.8146841007691], [74.74946078687408, 28.853177223760525], [74.80298235961415, 28.928788715350823], [74.92378819522747, 28.89167034675195], [74.99413083368586, 28.90954215385511], [75.21892143919418, 28.865550013293483], [75.24338844387535, 28.931538224135927], [75.33361052363719, 28.98240413666031], [75.36572346728124, 28.915041171425315], [75.47429580055396, 28.926039206565722]]]}}, {"type": "Feature", "properties": {"district": "Jhunjhunu", "dt_code": "103", "st_nm": "Rajasthan", "st_code": "08", "year": "2011_c"}, "geometry": {"type": "Polygon", "coordinates": [[[75.02471458953733, 28.20291839608395], [75.04459403084078, 28.255159063000885], [75.14704961294322, 28.29502694038486], [75.14552042515064, 28.381636467115566], [75.22503819036447, 28.395384011041074], [75.24797600725307, 28.46412173066862], [75.38254453299955, 28.33764432655394], [75.50029199302772, 28.336269572161388], [75.67003183800338, 28.519111906370657], [75.89329325571913, 28.389884993470872], [76.05538716173194, 28.22079020318711], [75.9988072134067, 28.123182641316], [76.00798234016216, 28.058569184866105], [75.97281102093297, 27.932091780751424], [75.93305213832605, 27.92796751757377], [75.76789985672809, 27.830359955702658], [75.6868529037217, 27.67913697252206], [75.54005087563463, 27.71213107794328], [75.42842016677676, 27.642018603923184], [75.28467651427484, 27.719004849906035], [75.2862057020674, 27.8207366749548], [75.24338844387535, 27.846857008413266], [75.09658641578828, 28.072316728791616], [75.12717017163976, 28.136930185241507], [75.02471458953733, 28.20291839608395]]]}}, {"type": "Feature", "properties": {"district": "Jaisalmer", "dt_code": "114", "st_nm": "Rajasthan", "st_code": "08", "year": "2011_c"}, "geometry": {"type": "Polygon", "coordinates": [[[71.88070448800599, 27.91421997364826], [72.02903570388563, 27.951338342247137], [72.13913722495093, 27.879851113834487], [72.16207504183953, 27.791866832711232], [72.0947907789663, 27.74375042897195], [72.21406742678704, 27.67913697252206], [72.33793163798549, 27.692884516447567], [72.27829331407513, 27.552659568407375], [72.24312199484594, 27.488046111957484], [72.24312199484594, 27.48392184877983], [72.17430854418012, 27.461925778499015], [72.04891514518908, 27.615898270464715], [71.80883266175503, 27.441304462610752], [71.8164786007179, 27.340947391954536], [71.88529205138371, 27.291456233822704], [71.9617514410124, 27.141608005034655], [72.04126920622622, 27.105864390828334], [72.03821083064108, 26.935394846152022], [72.10243671792917, 26.88727844241274], [72.05503189635938, 26.803418424467136], [72.08714484000343, 26.73193119605449], [72.03821083064108, 26.681065283530106], [72.09784915455144, 26.602704283154704], [72.02750651609306, 26.500972458105938], [72.07644052545541, 26.452856054366656], [72.06420702311482, 26.35112422931789], [71.89293799034658, 26.297508808008406], [71.83788722981393, 26.374495053991257], [71.787424032659, 26.34699996614024], [71.63450525340164, 26.404739650627377], [71.5733377416987, 26.506471475676143], [71.48770322531458, 26.45698031754431], [71.43571084036707, 26.496848194928287], [71.32713850709435, 26.421236703337986], [71.2827920611097, 26.466603598292167], [71.21244942265132, 26.4432327736188], [71.14057759640036, 26.308506843148812], [71.0748225213197, 26.32225438707432], [71.0105966340316, 26.279637000905243], [71.05035551663852, 26.13941205286505], [70.94025399557322, 26.07892285959281], [70.86685298152969, 26.13116352650975], [70.74145958253865, 26.1407868072576], [70.65429587836196, 26.19577698295964], [70.43103446064622, 26.175155667071376], [70.3622210099804, 26.142161561650155], [70.14048878005723, 26.155909105575663], [70.17413091149385, 26.250767158661674], [70.18483522604186, 26.374495053991257], [70.17413091149385, 26.55183837063032], [70.05638345146568, 26.599954774369603], [69.88664360649001, 26.57933345848134], [69.79183396335044, 26.598580019977053], [69.71996213709949, 26.654944950071638], [69.5104634095169, 26.742929231194896], [69.48446721704315, 26.804793178859686], [69.51352178510204, 27.00963158334977], [69.58692279914558, 27.184225391203736], [69.8637057896014, 27.402811339619326], [69.93404842805978, 27.49766939270534], [70.02579969561421, 27.56228284915523], [70.13284284109436, 27.80561437663674], [70.22612329644134, 27.900472429722754], [70.37139613673584, 28.011827535519377], [70.5074938502749, 28.03657311458529], [70.58854080328129, 28.010452781126823], [70.67723369525056, 27.921093745611017], [70.68335044642086, 27.827610446917554], [70.75828064825696, 27.721754358691136], [70.90661186413661, 27.70938156915818], [71.20480348368845, 27.83585897327286], [71.382189267627, 27.872977341871735], [71.66661819704568, 27.878476359441937], [71.8745877368357, 27.95546260542479], [71.88070448800599, 27.91421997364826]]]}}, {"type": "Feature", "properties": {"district": "Sikar", "dt_code": "111", "st_nm": "Rajasthan", "st_code": "08", "year": "2011_c"}, "geometry": {"type": "Polygon", "coordinates": [[[74.71734784323003, 27.677762218129505], [74.74181484791121, 27.767121253645314], [74.8182742375399, 27.80149011345909], [74.73569809674092, 27.890849148974898], [74.78463210610327, 27.954087851032238], [74.8060407351993, 28.06269344804376], [74.8870876882057, 28.18917085215844], [75.02471458953733, 28.20291839608395], [75.12717017163976, 28.136930185241507], [75.09658641578828, 28.072316728791616], [75.24338844387535, 27.846857008413266], [75.2862057020674, 27.8207366749548], [75.28467651427484, 27.719004849906035], [75.42842016677676, 27.642018603923184], [75.54005087563463, 27.71213107794328], [75.6868529037217, 27.67913697252206], [75.76789985672809, 27.830359955702658], [75.93305213832605, 27.92796751757377], [75.9712818331404, 27.85235602598347], [76.07679579082797, 27.841357990843065], [76.06762066407252, 27.767121253645314], [75.94069807728891, 27.61864777924982], [75.9529315796295, 27.56228284915523], [75.91776026040031, 27.45092774335861], [75.796954424787, 27.37531625176831], [75.74037447646177, 27.400061830834225], [75.599689199545, 27.30107951457056], [75.52628818550147, 27.335448374384335], [75.47429580055396, 27.283207707467398], [75.391719659755, 27.279083444289746], [75.3274937724669, 27.2103457246622], [75.31526027012632, 27.14435751381976], [75.19751281009815, 27.126485706716597], [75.06906103552195, 27.215844742232406], [75.16081230307638, 27.317576567281172], [75.03541890408535, 27.354694935880048], [74.89932119054629, 27.33132411120668], [74.85956230793937, 27.449552988966058], [74.72193540660776, 27.50179365588299], [74.76169428921466, 27.565032357940332], [74.71734784323003, 27.677762218129505]]]}}, {"type": "Feature", "properties": {"district": "Alwar", "dt_code": "104", "st_nm": "Rajasthan", "st_code": "08", "year": "2011_c"}, "geometry": {"type": "Polygon", "coordinates": [[[76.22512700670761, 27.83310946448776], [76.16854705838239, 27.903221938507855], [76.15937193162694, 27.998079991593865], [76.2602983259368, 28.06681771122141], [76.3184074620546, 28.015951798697028], [76.35969553245408, 28.12455739570855], [76.3122907108843, 28.178172817018034], [76.54319806756291, 28.03382360580019], [76.5386105041852, 27.9747091669205], [76.66859146655395, 28.013202289911927], [76.68694172006484, 28.087439027109674], [76.79551405333757, 28.147928220381914], [76.85362318945536, 28.22079020318711], [76.96984146169095, 28.138304939634057], [76.93008257908404, 27.993955728416214], [76.94231608142462, 27.842732745235615], [76.8918528842697, 27.732752393831543], [76.97748740065381, 27.65439139345614], [76.93467014246175, 27.603525480931758], [77.03559653677162, 27.51416644541595], [77.0080711565053, 27.395937567656574], [77.07076785600081, 27.39456281326402], [77.14569805783692, 27.320326076066273], [77.05394679028251, 27.158105057745267], [76.9560787715578, 27.14298275942721], [76.86738587958853, 27.229592286157914], [76.8230394336039, 27.131984724286802], [76.68082496889454, 27.11411291718364], [76.64565364966535, 27.163604075315472], [76.55237319431836, 27.171852601670775], [76.45450517559365, 27.075619794192214], [76.28017776724026, 27.064621759051807], [76.26488588931451, 27.184225391203736], [76.17619299734525, 27.184225391203736], [76.11655467343488, 27.23371654933557], [76.1670178705898, 27.309328040925866], [76.2373605090482, 27.474298568031973], [76.19301406306356, 27.614523516072165], [76.2434772602185, 27.629645814390226], [76.22512700670761, 27.83310946448776]]]}}, {"type": "Feature", "properties": {"district": "Jaipur", "dt_code": "110", "st_nm": "Rajasthan", "st_code": "08", "year": "2011_c"}, "geometry": {"type": "Polygon", "coordinates": [[[76.07679579082797, 27.841357990843065], [76.17619299734525, 27.798740604673984], [76.22512700670761, 27.83310946448776], [76.2434772602185, 27.629645814390226], [76.19301406306356, 27.614523516072165], [76.2373605090482, 27.474298568031973], [76.1670178705898, 27.309328040925866], [76.11655467343488, 27.23371654933557], [76.17619299734525, 27.184225391203736], [76.26488588931451, 27.184225391203736], [76.28017776724026, 27.064621759051807], [76.23888969684077, 27.013755846527424], [76.21748106774474, 26.909274512693553], [76.2602983259368, 26.833663021103256], [76.20371837761158, 26.800668915682035], [76.1440800537012, 26.694812827455614], [76.18230974851555, 26.61232756390256], [76.15325518045665, 26.5215937739942], [76.10126279550914, 26.538090826704813], [76.00798234016216, 26.499597703713388], [75.81377549050531, 26.52021901960165], [75.70826153281773, 26.445982282403904], [75.56910544369353, 26.448731791189005], [75.45441635925052, 26.496848194928287], [75.36572346728124, 26.48859966857298], [75.3274937724669, 26.561461651378178], [75.20210037347586, 26.51746951081655], [75.16692905424667, 26.463854089507063], [75.06141509655909, 26.554587879415422], [75.06447347214424, 26.654944950071638], [74.96354707783438, 26.683814792315207], [74.91308388067945, 26.837787284280907], [74.9742513923824, 26.891402705590394], [75.00942271161159, 26.94639288129243], [75.16081230307638, 26.93264533736692], [75.20057118568329, 26.975262723535998], [75.2173922514016, 27.081118811762416], [75.33055214805205, 27.092116846902826], [75.31526027012632, 27.14435751381976], [75.3274937724669, 27.2103457246622], [75.391719659755, 27.279083444289746], [75.47429580055396, 27.283207707467398], [75.52628818550147, 27.335448374384335], [75.599689199545, 27.30107951457056], [75.74037447646177, 27.400061830834225], [75.796954424787, 27.37531625176831], [75.91776026040031, 27.45092774335861], [75.9529315796295, 27.56228284915523], [75.94069807728891, 27.61864777924982], [76.06762066407252, 27.767121253645314], [76.07679579082797, 27.841357990843065]]]}}, {"type": "Feature", "properties": {"district": "Jodhpur", "dt_code": "113", "st_nm": "Rajasthan", "st_code": "08", "year": "2011_c"}, "geometry": {"type": "Polygon", "coordinates": [[[72.06420702311482, 26.35112422931789], [72.07644052545541, 26.452856054366656], [72.02750651609306, 26.500972458105938], [72.09784915455144, 26.602704283154704], [72.03821083064108, 26.681065283530106], [72.08714484000343, 26.73193119605449], [72.05503189635938, 26.803418424467136], [72.10243671792917, 26.88727844241274], [72.03821083064108, 26.935394846152022], [72.04126920622622, 27.105864390828334], [71.9617514410124, 27.141608005034655], [71.88529205138371, 27.291456233822704], [71.8164786007179, 27.340947391954536], [71.80883266175503, 27.441304462610752], [72.04891514518908, 27.615898270464715], [72.17430854418012, 27.461925778499015], [72.24312199484594, 27.48392184877983], [72.55354711673837, 27.62002253364237], [72.65600269884081, 27.536162515696763], [72.82574254381647, 27.585653673828595], [72.82574254381647, 27.46879955046177], [72.97866132307384, 27.382190023731063], [73.0734709662134, 27.428931673077795], [73.1254633511609, 27.401436585226776], [73.13310929012377, 27.307953286533316], [73.10099634647973, 27.222718514195158], [73.12087578778319, 26.940893863722227], [73.20345192858215, 26.868031880917027], [73.32425776419548, 26.85428433699152], [73.4098922805796, 26.88590368802019], [73.59339481568843, 26.863907617739375], [73.67902933207255, 26.758051529512958], [73.65150395180623, 26.715434143343877], [73.72031740247203, 26.539465581097364], [73.76619303624925, 26.53534131791971], [73.87017780614426, 26.42948522969329], [73.81053948223388, 26.356623246888095], [73.81053948223388, 26.11054221062148], [73.65456232739137, 26.069299578844955], [73.62703694712505, 26.144911070435256], [73.46341385331968, 26.084421877163017], [73.40224634161673, 26.161408123145865], [73.33954964212121, 26.116041228191687], [73.30743669847716, 26.030806455853533], [73.19274761403415, 26.069299578844955], [73.16216385818267, 26.032181210246083], [73.05206233711738, 26.01430940314292], [73.04288721036193, 25.964818245011088], [72.95878188177038, 25.900204788561197], [72.83491767057193, 25.864461174354872], [72.62083137961162, 25.974441525758944], [72.69423239365514, 26.037680227816285], [72.68964483027743, 26.186153702211783], [72.59483518713786, 26.278262246512693], [72.45873747359882, 26.300258316793506], [72.41133265202903, 26.237019614736166], [72.34251920136322, 26.245268141091472], [72.2675889995271, 26.19715173735219], [72.06420702311482, 26.35112422931789]]]}}, {"type": "Feature", "properties": {"district": "Bharatpur", "dt_code": "105", "st_nm": "Rajasthan", "st_code": "08", "year": "2011_c"}, "geometry": {"type": "Polygon", "coordinates": [[[76.97748740065381, 27.65439139345614], [77.04477166352706, 27.8207366749548], [77.28332495916854, 27.798740604673984], [77.35213840983435, 27.65164188467104], [77.33990490749376, 27.52653923494891], [77.43777292621847, 27.456426760928814], [77.64574246600849, 27.24196507569087], [77.65797596834908, 27.170477847278224], [77.55093282286893, 27.111363408398535], [77.66103434393422, 26.971138460358347], [77.48976531116598, 26.90102598633825], [77.39801404361157, 26.830913512318155], [77.45459399193679, 26.742929231194896], [77.34755084645664, 26.711309880166226], [77.29250008592399, 26.78004759979377], [77.09676404847457, 26.862532863346825], [77.0248922222236, 26.940893863722227], [77.01112953209044, 27.042625688770993], [76.9560787715578, 27.14298275942721], [77.05394679028251, 27.158105057745267], [77.14569805783692, 27.320326076066273], [77.07076785600081, 27.39456281326402], [77.0080711565053, 27.395937567656574], [77.03559653677162, 27.51416644541595], [76.93467014246175, 27.603525480931758], [76.97748740065381, 27.65439139345614]]]}}, {"type": "Feature", "properties": {"district": "Nagaur", "dt_code": "112", "st_nm": "Rajasthan", "st_code": "08", "year": "2011_c"}, "geometry": {"type": "Polygon", "coordinates": [[[73.87476536952197, 27.537537270089317], [73.90840750095859, 27.489420866350034], [74.02921333657191, 27.534787761304212], [74.08120572151941, 27.478422831209627], [74.2035407449253, 27.42205790111504], [74.19589480596242, 27.49904414709789], [74.25400394208023, 27.600775972146657], [74.34116764625692, 27.68188648130716], [74.49102804992914, 27.68738549887736], [74.62712576346819, 27.64889237588594], [74.71734784323003, 27.677762218129505], [74.76169428921466, 27.565032357940332], [74.72193540660776, 27.50179365588299], [74.85956230793937, 27.449552988966058], [74.89932119054629, 27.33132411120668], [75.03541890408535, 27.354694935880048], [75.16081230307638, 27.317576567281172], [75.06906103552195, 27.215844742232406], [75.19751281009815, 27.126485706716597], [75.31526027012632, 27.14435751381976], [75.33055214805205, 27.092116846902826], [75.2173922514016, 27.081118811762416], [75.20057118568329, 26.975262723535998], [75.16081230307638, 26.93264533736692], [75.00942271161159, 26.94639288129243], [74.9742513923824, 26.891402705590394], [74.9803681435527, 26.943643372507328], [74.8519163689765, 26.97938698671365], [74.77545697934782, 26.789670880541628], [74.69746840192657, 26.774548582223566], [74.72193540660776, 26.70031184502582], [74.66994302166025, 26.59583051119195], [74.58889606865385, 26.630199371005723], [74.46197348187025, 26.48722491418043], [74.36869302652325, 26.48722491418043], [74.290704449102, 26.448731791189005], [74.23718287636191, 26.461104580721962], [74.15919429894066, 26.41023866819758], [73.87017780614426, 26.42948522969329], [73.76619303624925, 26.53534131791971], [73.72031740247203, 26.539465581097364], [73.65150395180623, 26.715434143343877], [73.67902933207255, 26.758051529512958], [73.59339481568843, 26.863907617739375], [73.4098922805796, 26.88590368802019], [73.32425776419548, 26.85428433699152], [73.20345192858215, 26.868031880917027], [73.12087578778319, 26.940893863722227], [73.10099634647973, 27.222718514195158], [73.13310929012377, 27.307953286533316], [73.22791893326334, 27.335448374384335], [73.2585026891148, 27.259836882794033], [73.3578998956321, 27.259836882794033], [73.48635167020828, 27.35744444466515], [73.54446080632607, 27.494919883920236], [73.7050255245463, 27.519665462986154], [73.79524760430814, 27.49766939270534], [73.87476536952197, 27.537537270089317]]]}}, {"type": "Feature", "properties": {"district": "Dausa", "dt_code": "109", "st_nm": "Rajasthan", "st_code": "08", "year": "2011_c"}, "geometry": {"type": "Polygon", "coordinates": [[[76.28017776724026, 27.064621759051807], [76.45450517559365, 27.075619794192214], [76.55237319431836, 27.171852601670775], [76.64565364966535, 27.163604075315472], [76.68082496889454, 27.11411291718364], [76.8230394336039, 27.131984724286802], [76.86738587958853, 27.229592286157914], [76.9560787715578, 27.14298275942721], [77.01112953209044, 27.042625688770993], [77.0248922222236, 26.940893863722227], [77.09676404847457, 26.862532863346825], [76.95149120818007, 26.87215614409468], [76.90102801102515, 26.971138460358347], [76.79551405333757, 26.984886004283855], [76.77257623644896, 26.891402705590394], [76.6135407060213, 26.782797108578873], [76.53555212860005, 26.781422354186322], [76.47438461689711, 26.716808897736428], [76.40251279064614, 26.56558591455583], [76.47744299248225, 26.499597703713388], [76.4116879174016, 26.415737685767784], [76.32299502543232, 26.45698031754431], [76.17466380955268, 26.48585015978788], [76.15325518045665, 26.5215937739942], [76.18230974851555, 26.61232756390256], [76.1440800537012, 26.694812827455614], [76.20371837761158, 26.800668915682035], [76.2602983259368, 26.833663021103256], [76.21748106774474, 26.909274512693553], [76.23888969684077, 27.013755846527424], [76.28017776724026, 27.064621759051807]]]}}, {"type": "Feature", "properties": {"district": "Karauli", "dt_code": "107", "st_nm": "Rajasthan", "st_code": "08", "year": "2011_c"}, "geometry": {"type": "Polygon", "coordinates": [[[77.09676404847457, 26.862532863346825], [77.29250008592399, 26.78004759979377], [77.34755084645664, 26.711309880166226], [77.37660541451554, 26.619201335865316], [77.22827419863589, 26.529842300349507], [77.25579957890221, 26.432234738478392], [77.3322589685309, 26.432234738478392], [77.37507622672297, 26.3648717732434], [77.27109145682796, 26.267264211372286], [77.11970186536317, 26.213648790062802], [76.99889602974986, 26.129788772117195], [76.90102801102515, 26.092670403518323], [76.85209400166279, 26.032181210246083], [76.70223359799057, 26.180654684641578], [76.57684019899953, 26.215023544455352], [76.60130720368072, 26.33600193099983], [76.8689150673811, 26.509220984461244], [76.96984146169095, 26.55183837063032], [76.98054577623897, 26.602704283154704], [76.91631988895088, 26.683814792315207], [76.83068537256676, 26.652195441286537], [76.75728435852322, 26.568335423340933], [76.47438461689711, 26.716808897736428], [76.53555212860005, 26.781422354186322], [76.6135407060213, 26.782797108578873], [76.77257623644896, 26.891402705590394], [76.79551405333757, 26.984886004283855], [76.90102801102515, 26.971138460358347], [76.95149120818007, 26.87215614409468], [77.09676404847457, 26.862532863346825]]]}}, {"type": "Feature", "properties": {"district": "Dholpur", "dt_code": "106", "st_nm": "Rajasthan", "st_code": "08", "year": "2011_c"}, "geometry": {"type": "Polygon", "coordinates": [[[77.34755084645664, 26.711309880166226], [77.45459399193679, 26.742929231194896], [77.52493663039517, 26.818540722785194], [77.72220185563717, 26.874905652879782], [77.76043155045151, 26.93264533736692], [77.9867513437524, 26.88865319680529], [78.11061555495087, 26.895526968768046], [78.1488452497652, 26.94914239007753], [78.2711802731711, 26.920272547833964], [78.22224626380874, 26.832288266710705], [78.11214474274344, 26.79516989811183], [78.08920692585484, 26.6755662659599], [78.00051403388557, 26.694812827455614], [77.90417520295343, 26.659069213249293], [77.82312824994703, 26.55046361623777], [77.74513967252577, 26.538090826704813], [77.53869932052834, 26.41161342259013], [77.43777292621847, 26.403364896234823], [77.37507622672297, 26.3648717732434], [77.3322589685309, 26.432234738478392], [77.25579957890221, 26.432234738478392], [77.22827419863589, 26.529842300349507], [77.37660541451554, 26.619201335865316], [77.34755084645664, 26.711309880166226]]]}}, {"type": "Feature", "properties": {"district": "Barmer", "dt_code": "115", "st_nm": "Rajasthan", "st_code": "08", "year": "2011_c"}, "geometry": {"type": "Polygon", "coordinates": [[[70.14048878005723, 26.155909105575663], [70.3622210099804, 26.142161561650155], [70.43103446064622, 26.175155667071376], [70.65429587836196, 26.19577698295964], [70.74145958253865, 26.1407868072576], [70.86685298152969, 26.13116352650975], [70.94025399557322, 26.07892285959281], [71.05035551663852, 26.13941205286505], [71.0105966340316, 26.279637000905243], [71.0748225213197, 26.32225438707432], [71.14057759640036, 26.308506843148812], [71.21244942265132, 26.4432327736188], [71.2827920611097, 26.466603598292167], [71.32713850709435, 26.421236703337986], [71.43571084036707, 26.496848194928287], [71.48770322531458, 26.45698031754431], [71.5733377416987, 26.506471475676143], [71.63450525340164, 26.404739650627377], [71.787424032659, 26.34699996614024], [71.83788722981393, 26.374495053991257], [71.89293799034658, 26.297508808008406], [72.06420702311482, 26.35112422931789], [72.2675889995271, 26.19715173735219], [72.34251920136322, 26.245268141091472], [72.41133265202903, 26.237019614736166], [72.45873747359882, 26.300258316793506], [72.59483518713786, 26.278262246512693], [72.68964483027743, 26.186153702211783], [72.69423239365514, 26.037680227816285], [72.62083137961162, 25.974441525758944], [72.83491767057193, 25.864461174354872], [72.7783377222467, 25.803971981082633], [72.75998746873582, 25.72423622631468], [72.68658645469228, 25.669246050612646], [72.67588214014427, 25.612881120518058], [72.59024762376015, 25.608756857340406], [72.56119305570124, 25.530395856965004], [72.42203696657705, 25.439662067056645], [72.33640245019292, 25.439662067056645], [72.32111057226719, 25.388796154532262], [72.03209407947078, 25.47403092687042], [71.91587580723518, 25.346178768363185], [71.94645956308665, 25.315934171727065], [71.8455331687768, 25.199080048360237], [71.79048240824415, 25.078101661815758], [71.73696083550406, 25.0684783810679], [71.68191007497143, 24.985993117514848], [71.63450525340164, 25.03410952125413], [71.5549874881878, 24.981868854337197], [71.50452429103288, 25.009363942188216], [71.33937200943494, 24.93925146816812], [71.32713850709435, 24.843018660689555], [71.18798241797015, 24.65055304573243], [71.11152302834147, 24.675298624798344], [70.93719561998807, 24.93925146816812], [70.88826161062572, 25.148214135835854], [70.75063470929409, 25.27744104873564], [70.66500019290997, 25.397044680887568], [70.67417531966541, 25.676119822575398], [70.60842024458475, 25.714612945566824], [70.5304316671635, 25.682993594538154], [70.38668801466157, 25.673370313790297], [70.2689405546334, 25.713238191174273], [70.09920070965774, 25.93869791155262], [70.083908831732, 26.083047122770466], [70.14048878005723, 26.155909105575663]]]}}, {"type": "Feature", "properties": {"district": "Sawai Madhopur", "dt_code": "108", "st_nm": "Rajasthan", "st_code": "08", "year": "2011_c"}, "geometry": {"type": "Polygon", "coordinates": [[[76.17466380955268, 26.48585015978788], [76.32299502543232, 26.45698031754431], [76.4116879174016, 26.415737685767784], [76.47744299248225, 26.499597703713388], [76.40251279064614, 26.56558591455583], [76.47438461689711, 26.716808897736428], [76.75728435852322, 26.568335423340933], [76.83068537256676, 26.652195441286537], [76.91631988895088, 26.683814792315207], [76.98054577623897, 26.602704283154704], [76.96984146169095, 26.55183837063032], [76.8689150673811, 26.509220984461244], [76.60130720368072, 26.33600193099983], [76.57684019899953, 26.215023544455352], [76.70223359799057, 26.180654684641578], [76.85209400166279, 26.032181210246083], [76.78786811437469, 25.944196929122825], [76.71599628812373, 25.901579542953748], [76.64259527408021, 25.9084533149165], [76.54625644314807, 25.838340840896407], [76.47744299248225, 25.841090349681508], [76.44227167325306, 25.773727384446513], [76.35663715686894, 25.740733279025292], [76.3122907108843, 25.81359526183049], [76.20983512878188, 25.86033691117722], [76.24041888463334, 26.022557929498227], [76.09514604433885, 26.000561859217413], [76.08750010537598, 26.10366843865873], [75.994219650029, 26.116041228191687], [75.98963208665127, 26.221897316418104], [76.10126279550914, 26.241143877913817], [76.17466380955268, 26.48585015978788]]]}}, {"type": "Feature", "properties": {"district": "Tonk", "dt_code": "120", "st_nm": "Rajasthan", "st_code": "08", "year": "2011_c"}, "geometry": {"type": "Polygon", "coordinates": [[[75.16692905424667, 26.463854089507063], [75.20210037347586, 26.51746951081655], [75.3274937724669, 26.561461651378178], [75.36572346728124, 26.48859966857298], [75.45441635925052, 26.496848194928287], [75.56910544369353, 26.448731791189005], [75.70826153281773, 26.445982282403904], [75.81377549050531, 26.52021901960165], [76.00798234016216, 26.499597703713388], [76.10126279550914, 26.538090826704813], [76.15325518045665, 26.5215937739942], [76.17466380955268, 26.48585015978788], [76.10126279550914, 26.241143877913817], [75.98963208665127, 26.221897316418104], [75.994219650029, 26.116041228191687], [76.08750010537598, 26.10366843865873], [76.09514604433885, 26.000561859217413], [76.24041888463334, 26.022557929498227], [76.20983512878188, 25.86033691117722], [76.3122907108843, 25.81359526183049], [76.1379633025309, 25.78472541958692], [76.04468284718392, 25.81222050743794], [76.05232878614679, 25.863086419962322], [75.86270949986766, 25.87545920949528], [75.76637066893552, 25.820469033793245], [75.75413716659493, 25.757230331735904], [75.65473996007765, 25.7489818053806], [75.61498107747074, 25.680244085753053], [75.45900392262823, 25.72286147192213], [75.40089478651043, 25.775102138839063], [75.31678945791889, 25.766853612483757], [75.3045559555783, 25.86033691117722], [75.2464468194605, 25.93869791155262], [75.35043158935551, 26.01155989435782], [75.30302676778572, 26.07067433323751], [75.18680849555012, 26.116041228191687], [75.11187829371403, 26.28788552726055], [75.12869935943233, 26.403364896234823], [75.16692905424667, 26.463854089507063]]]}}, {"type": "Feature", "properties": {"district": "Pali", "dt_code": "118", "st_nm": "Rajasthan", "st_code": "08", "year": "2011_c"}, "geometry": {"type": "Polygon", "coordinates": [[[72.83491767057193, 25.864461174354872], [72.95878188177038, 25.900204788561197], [73.04288721036193, 25.964818245011088], [73.05206233711738, 26.01430940314292], [73.16216385818267, 26.032181210246083], [73.19274761403415, 26.069299578844955], [73.30743669847716, 26.030806455853533], [73.33954964212121, 26.116041228191687], [73.40224634161673, 26.161408123145865], [73.46341385331968, 26.084421877163017], [73.62703694712505, 26.144911070435256], [73.65456232739137, 26.069299578844955], [73.81053948223388, 26.11054221062148], [73.81053948223388, 26.356623246888095], [73.87017780614426, 26.42948522969329], [74.15919429894066, 26.41023866819758], [74.23718287636191, 26.461104580721962], [74.290704449102, 26.448731791189005], [74.30446713923516, 26.329128159037076], [74.25094556649508, 26.286510772868], [74.36716383873068, 26.191652719781985], [74.18060292803669, 26.032181210246083], [74.12708135529662, 25.960693981833437], [74.10720191399317, 25.856212647999566], [74.05368034125308, 25.8300923145411], [73.99557120513529, 25.865835928747423], [73.90687831316602, 25.740733279025292], [73.90840750095859, 25.684368348930704], [73.86406105497396, 25.649999489116933], [73.74172603156806, 25.392920417709913], [73.61021588140675, 25.285689575090945], [73.59339481568843, 25.193581030790035], [73.48788085800085, 25.104221995274226], [73.40836309278703, 25.087724942563614], [73.34413720549892, 25.010738696580766], [73.33037451536578, 24.906257362746896], [73.20956867975245, 24.785278976202417], [73.14687198025693, 24.748160607603545], [73.1484011680495, 24.845768169474656], [72.992424013207, 24.921379661064957], [72.99701157658473, 24.961247538448934], [73.1086422854426, 25.039608538824336], [73.1376968535015, 25.09734822331147], [73.00006995216987, 25.100097732096575], [72.94960675501494, 25.142715118265652], [72.93584406488178, 25.241697434529318], [72.97254457190354, 25.335180733222778], [73.09182121972428, 25.467157154907664], [73.05359152490995, 25.556516190423473], [72.93584406488178, 25.636251945191425], [72.88996843110456, 25.736609015847637], [72.7783377222467, 25.803971981082633], [72.83491767057193, 25.864461174354872]]]}}, {"type": "Feature", "properties": {"district": "Bhilwara", "dt_code": "122", "st_nm": "Rajasthan", "st_code": "08", "year": "2011_c"}, "geometry": {"type": "Polygon", "coordinates": [[[75.31678945791889, 25.766853612483757], [75.40089478651043, 25.775102138839063], [75.45900392262823, 25.72286147192213], [75.42994935456933, 25.623879155658464], [75.35807752831838, 25.53726962892776], [75.36266509169609, 25.482279453225722], [75.28467651427484, 25.40254369845777], [75.34125646260006, 25.32280794368982], [75.44524123249506, 25.26369350481013], [75.44677042028763, 25.15508790779861], [75.402423974303, 25.102847240881676], [75.45135798366536, 25.04923181957219], [75.35196077714808, 25.01898722293607], [75.19139605892785, 25.03685903003923], [75.20362956126844, 25.09047445134872], [74.96048870224924, 25.139965609480548], [74.91002550509431, 25.177083978079423], [74.79533642065128, 25.15233839901351], [74.7127602798523, 25.204579065930442], [74.6148922611276, 25.141340363873102], [74.50937830344002, 25.18258299564963], [74.38704328003413, 25.181208241257078], [74.26317906883567, 25.0657288722828], [74.18824886699956, 25.057480345927495], [74.16531105011096, 25.12621806555504], [74.04756359008279, 25.237573171351663], [74.02156739760903, 25.347553522755735], [74.12708135529662, 25.647249980331832], [74.10720191399317, 25.72286147192213], [74.19589480596242, 25.739358524632742], [74.18213211582926, 25.84796412164426], [74.19283643037728, 25.853463139214465], [74.2264785618139, 25.84383985846661], [74.2845876979317, 25.883707735850585], [74.3885724678267, 25.963443490618538], [74.4298605382262, 25.930449385197317], [74.61642144892018, 25.90432905173885], [74.70817271647459, 25.92082610444946], [74.79992398402901, 25.87408445510273], [74.90085037833886, 25.882332981458035], [75.01706865057446, 25.85896215678467], [75.03694809187792, 25.78610017397947], [75.1072907303363, 25.696741138463665], [75.1592831152838, 25.72423622631468], [75.25103438283821, 25.685743103323254], [75.31678945791889, 25.766853612483757]]]}}, {"type": "Feature", "properties": {"district": "Jalore", "dt_code": "116", "st_nm": "Rajasthan", "st_code": "08", "year": "2011_c"}, "geometry": {"type": "Polygon", "coordinates": [[[71.18798241797015, 24.65055304573243], [71.32713850709435, 24.843018660689555], [71.33937200943494, 24.93925146816812], [71.50452429103288, 25.009363942188216], [71.5549874881878, 24.981868854337197], [71.63450525340164, 25.03410952125413], [71.68191007497143, 24.985993117514848], [71.73696083550406, 25.0684783810679], [71.79048240824415, 25.078101661815758], [71.8455331687768, 25.199080048360237], [71.94645956308665, 25.315934171727065], [71.91587580723518, 25.346178768363185], [72.03209407947078, 25.47403092687042], [72.32111057226719, 25.388796154532262], [72.33640245019292, 25.439662067056645], [72.42203696657705, 25.439662067056645], [72.56119305570124, 25.530395856965004], [72.59024762376015, 25.608756857340406], [72.67588214014427, 25.612881120518058], [72.68658645469228, 25.669246050612646], [72.75998746873582, 25.72423622631468], [72.7783377222467, 25.803971981082633], [72.88996843110456, 25.736609015847637], [72.93584406488178, 25.636251945191425], [73.05359152490995, 25.556516190423473], [73.09182121972428, 25.467157154907664], [72.97254457190354, 25.335180733222778], [72.93584406488178, 25.241697434529318], [72.8303301071942, 25.284314820698395], [72.64835675987794, 25.016237714150968], [72.47861691490228, 24.870513748540574], [72.49085041724285, 24.75915864274395], [72.37310295721468, 24.766032414706704], [72.31193544551175, 24.673923870405794], [72.33487326240035, 24.632681238629267], [72.16513341742468, 24.62168320348886], [72.05809027194452, 24.71241699339722], [71.91893418282034, 24.672549116013244], [71.79201159603672, 24.6766733791909], [71.65591388249767, 24.639555010592023], [71.60850906092789, 24.6766733791909], [71.47852809855914, 24.679422887976], [71.37760170424927, 24.625807466666515], [71.28737962448743, 24.61618418591866], [71.18798241797015, 24.65055304573243]]]}}, {"type": "Feature", "properties": {"district": "Bundi", "dt_code": "121", "st_nm": "Rajasthan", "st_code": "08", "year": "2011_c"}, "geometry": {"type": "Polygon", "coordinates": [[[76.3122907108843, 25.81359526183049], [76.35663715686894, 25.740733279025292], [76.29852802075114, 25.698115892856215], [76.28629451841056, 25.545518155283066], [76.20524756540415, 25.486403716403377], [76.1563135560418, 25.359926312288692], [75.93611051391119, 25.287064329483496], [75.72355341074346, 25.175709223686873], [75.74343285204692, 25.111095767236982], [75.63944808215192, 25.014862959758418], [75.57980975824154, 25.04923181957219], [75.53699250004948, 25.014862959758418], [75.45135798366536, 25.04923181957219], [75.402423974303, 25.102847240881676], [75.44677042028763, 25.15508790779861], [75.44524123249506, 25.26369350481013], [75.34125646260006, 25.32280794368982], [75.28467651427484, 25.40254369845777], [75.36266509169609, 25.482279453225722], [75.35807752831838, 25.53726962892776], [75.42994935456933, 25.623879155658464], [75.45900392262823, 25.72286147192213], [75.61498107747074, 25.680244085753053], [75.65473996007765, 25.7489818053806], [75.75413716659493, 25.757230331735904], [75.76637066893552, 25.820469033793245], [75.86270949986766, 25.87545920949528], [76.05232878614679, 25.863086419962322], [76.04468284718392, 25.81222050743794], [76.1379633025309, 25.78472541958692], [76.3122907108843, 25.81359526183049]]]}}, {"type": "Feature", "properties": {"district": "Kota", "dt_code": "127", "st_nm": "Rajasthan", "st_code": "08", "year": "2011_c"}, "geometry": {"type": "Polygon", "coordinates": [[[76.35663715686894, 25.740733279025292], [76.44227167325306, 25.773727384446513], [76.47744299248225, 25.841090349681508], [76.54625644314807, 25.838340840896407], [76.50343918495601, 25.670620805005196], [76.51567268729659, 25.527646348179903], [76.59366126471785, 25.408042716027975], [76.55237319431836, 25.421790259953482], [76.32299502543232, 25.381922382569506], [76.28476533061797, 25.24994596088462], [76.19607243864871, 25.12484331116249], [76.30158639633629, 24.959872784056383], [76.3933376638907, 24.984618363122298], [76.46979705351939, 24.932377696205364], [76.44074248546049, 24.830645871156598], [76.35816634466151, 24.870513748540574], [76.06456228848738, 24.74266159003334], [76.07373741524282, 24.572192045357028], [75.92081863598546, 24.54332220311346], [75.82447980505333, 24.667050098443042], [75.78472092244641, 24.761908151529052], [75.81224630271274, 24.870513748540574], [75.74954960321722, 24.885636046858632], [75.58439732161926, 25.024486240506274], [75.53699250004948, 25.014862959758418], [75.57980975824154, 25.04923181957219], [75.63944808215192, 25.014862959758418], [75.74343285204692, 25.111095767236982], [75.72355341074346, 25.175709223686873], [75.93611051391119, 25.287064329483496], [76.1563135560418, 25.359926312288692], [76.20524756540415, 25.486403716403377], [76.28629451841056, 25.545518155283066], [76.29852802075114, 25.698115892856215], [76.35663715686894, 25.740733279025292]]]}}, {"type": "Feature", "properties": {"district": "Sirohi", "dt_code": "117", "st_nm": "Rajasthan", "st_code": "08", "year": "2011_c"}, "geometry": {"type": "Polygon", "coordinates": [[[72.93584406488178, 25.241697434529318], [72.94960675501494, 25.142715118265652], [73.00006995216987, 25.100097732096575], [73.1376968535015, 25.09734822331147], [73.1086422854426, 25.039608538824336], [72.99701157658473, 24.961247538448934], [72.992424013207, 24.921379661064957], [73.1484011680495, 24.845768169474656], [73.14687198025693, 24.748160607603545], [73.14228441687922, 24.679422887976], [73.00159913996245, 24.480083501056118], [72.95878188177038, 24.36047986890419], [72.72787452509176, 24.367353640866945], [72.68352807910713, 24.46358644834551], [72.51990498530176, 24.50070481694438], [72.5000255439983, 24.416844798998778], [72.35322351591124, 24.56394351900172], [72.33487326240035, 24.632681238629267], [72.31193544551175, 24.673923870405794], [72.37310295721468, 24.766032414706704], [72.49085041724285, 24.75915864274395], [72.47861691490228, 24.870513748540574], [72.64835675987794, 25.016237714150968], [72.8303301071942, 25.284314820698395], [72.93584406488178, 25.241697434529318]]]}}, {"type": "Feature", "properties": {"district": "Baran", "dt_code": "128", "st_nm": "Rajasthan", "st_code": "08", "year": "2011_c"}, "geometry": {"type": "Polygon", "coordinates": [[[76.59366126471785, 25.408042716027975], [76.67012065434653, 25.348928277148286], [76.76187192190095, 25.320058434904716], [76.8566815650405, 25.332431224437673], [76.94537445700978, 25.284314820698395], [77.0830013583414, 25.33655548761533], [77.22368663525818, 25.318683680512166], [77.23439094980618, 25.379172873784405], [77.31390871502002, 25.43141354070134], [77.36743028776009, 25.410792224813076], [77.41177673374473, 25.223825627426155], [77.39342648023384, 25.119344293592285], [77.31237952722745, 25.080851170600862], [77.26956226903538, 25.115220030414633], [77.17475262589582, 25.111095767236982], [77.08605973392655, 25.054730837142394], [77.00042521754243, 25.075352153030657], [76.87656100634396, 25.040983293216886], [76.86126912841823, 24.961247538448934], [76.9499620203875, 24.869138994148024], [76.804689180093, 24.807275046483234], [76.85515237724793, 24.74403634442589], [76.94690364480235, 24.75915864274395], [77.03406734897905, 24.70829273021957], [77.06923866820824, 24.55706974703897], [76.97748740065381, 24.460836939560405], [76.86126912841823, 24.548821220683664], [76.8169226824336, 24.533698922365602], [76.84444806269991, 24.43609136049449], [76.76034273410838, 24.447089395634897], [76.60742395485101, 24.423718570961533], [76.53555212860005, 24.510328097692238], [76.52943537742975, 24.660176326480286], [76.47591380468968, 24.658801572087736], [76.44074248546049, 24.830645871156598], [76.46979705351939, 24.932377696205364], [76.3933376638907, 24.984618363122298], [76.30158639633629, 24.959872784056383], [76.19607243864871, 25.12484331116249], [76.28476533061797, 25.24994596088462], [76.32299502543232, 25.381922382569506], [76.55237319431836, 25.421790259953482], [76.59366126471785, 25.408042716027975]]]}}, {"type": "Feature", "properties": {"district": "Udaipur", "dt_code": "130", "st_nm": "Rajasthan", "st_code": "08", "year": "2011_c"}, "geometry": {"type": "Polygon", "coordinates": [[[73.14687198025693, 24.748160607603545], [73.20956867975245, 24.785278976202417], [73.33037451536578, 24.906257362746896], [73.34413720549892, 25.010738696580766], [73.40836309278703, 25.087724942563614], [73.48788085800085, 25.104221995274226], [73.47258898007512, 25.025860994898824], [73.60868669361416, 24.870513748540574], [73.688204458828, 24.86226522218527], [73.67138339310968, 24.77015667788436], [73.77536816300469, 24.779779958632215], [73.82430217236704, 24.8333953799417], [73.99404201734272, 24.921379661064957], [74.06897221917882, 24.871888502933125], [74.14237323322236, 24.88151178368098], [74.10414353840801, 24.734413063678033], [74.16989861348868, 24.71104223900467], [74.27082500779854, 24.576316308534683], [74.25706231766537, 24.484207764233773], [74.30905470261288, 24.462211693952955], [74.36716383873068, 24.28349362292134], [74.4298605382262, 24.257373289462873], [74.35645952418265, 24.166639499554513], [74.2387120641545, 24.20650737693849], [74.22189099843618, 24.09927653431952], [74.27082500779854, 23.949428305531473], [74.21883262285104, 23.906810919362393], [74.15307754777037, 24.011292253196263], [74.07203059476397, 23.96592535824208], [73.91605343992146, 23.985171919737795], [73.8380648625002, 23.93430600721341], [73.67138339310968, 23.939805024783617], [73.58269050114042, 23.96317584945698], [73.5138770504746, 23.93018174403576], [73.46341385331968, 23.8394479541274], [73.36860421018011, 23.814702375061483], [73.37777933693555, 23.90406141057729], [73.4160090317499, 23.924682726465555], [73.40530471720187, 24.041536849832383], [73.31661182523261, 24.05390963936534], [73.24321081118907, 24.001668972448407], [73.21415624313018, 24.077280464038704], [73.1254633511609, 24.125396867777987], [73.06735421504311, 24.194134587405532], [73.15145954363466, 24.354980851333988], [73.07652934179855, 24.396223483110514], [73.08723365634657, 24.49795530815928], [73.00159913996245, 24.480083501056118], [73.14228441687922, 24.679422887976], [73.14687198025693, 24.748160607603545]]]}}, {"type": "Feature", "properties": {"district": "Jhalawar", "dt_code": "129", "st_nm": "Rajasthan", "st_code": "08", "year": "2011_c"}, "geometry": {"type": "Polygon", "coordinates": [[[75.92081863598546, 24.54332220311346], [76.07373741524282, 24.572192045357028], [76.06456228848738, 24.74266159003334], [76.35816634466151, 24.870513748540574], [76.44074248546049, 24.830645871156598], [76.47591380468968, 24.658801572087736], [76.52943537742975, 24.660176326480286], [76.53555212860005, 24.510328097692238], [76.60742395485101, 24.423718570961533], [76.76034273410838, 24.447089395634897], [76.84444806269991, 24.43609136049449], [76.83221456035933, 24.35773036011909], [76.8627983162108, 24.272495587780934], [76.92243664012118, 24.212006394508695], [76.88114856972169, 24.130895885348192], [76.80163080450785, 24.11714834142268], [76.67623740551682, 24.19138507862043], [76.64412446187278, 24.26974607899583], [76.57072344782924, 24.20925688572359], [76.50496837274858, 24.20375786815339], [76.32146583763975, 24.245000499929915], [76.21289350436702, 24.20925688572359], [76.11808386122746, 24.194134587405532], [76.1272589879829, 24.08827849917911], [76.04162447159878, 24.066282428898297], [75.93763970170377, 23.89718763861454], [75.79389604920185, 23.86694304197842], [75.68991127930684, 23.74733940982649], [75.5828681338267, 23.79545581356577], [75.5645178803158, 23.85594500683801], [75.46206229821338, 23.917808954502803], [75.52170062212375, 24.02503979712177], [75.70214478164743, 23.96592535824208], [75.83671330739391, 24.05665914815044], [75.75107879100979, 24.14326867488115], [75.81377549050531, 24.245000499929915], [75.72814097412119, 24.396223483110514], [75.78625011023898, 24.4525884132051], [75.900939194682, 24.442965132457246], [75.92081863598546, 24.54332220311346]]]}}, {"type": "Feature", "properties": {"district": "Dungarpur", "dt_code": "124", "st_nm": "Rajasthan", "st_code": "08", "year": "2011_c"}, "geometry": {"type": "Polygon", "coordinates": [[[73.36860421018011, 23.814702375061483], [73.46341385331968, 23.8394479541274], [73.5138770504746, 23.93018174403576], [73.58269050114042, 23.96317584945698], [73.67138339310968, 23.939805024783617], [73.8380648625002, 23.93430600721341], [73.91605343992146, 23.985171919737795], [74.07203059476397, 23.96592535824208], [74.15307754777037, 24.011292253196263], [74.21883262285104, 23.906810919362393], [74.27082500779854, 23.949428305531473], [74.37633896548611, 23.90406141057729], [74.2723541955911, 23.832574182164645], [74.14696079660007, 23.783083024032813], [74.11790622854117, 23.721219076368023], [74.1224937919189, 23.60848921617885], [74.06897221917882, 23.600240689823544], [73.95887069811351, 23.3802799870154], [73.89158643524028, 23.33491309206122], [73.83041892353734, 23.42564688196958], [73.75548872170123, 23.45451672421315], [73.62703694712505, 23.449017706642945], [73.65609151518395, 23.620862005711807], [73.5719861865924, 23.653856111133027], [73.52305217723004, 23.6071144617863], [73.47411816786769, 23.70472202365741], [73.36860421018011, 23.814702375061483]]]}}, {"type": "Feature", "properties": {"district": "Banswara", "dt_code": "125", "st_nm": "Rajasthan", "st_code": "08", "year": "2011_c"}, "geometry": {"type": "Polygon", "coordinates": [[[73.95887069811351, 23.3802799870154], [74.06897221917882, 23.600240689823544], [74.1224937919189, 23.60848921617885], [74.11790622854117, 23.721219076368023], [74.14696079660007, 23.783083024032813], [74.2723541955911, 23.832574182164645], [74.37633896548611, 23.90406141057729], [74.48032373538112, 23.924682726465555], [74.56137068838753, 23.805079094313626], [74.51855343019547, 23.63598430402987], [74.65006358035679, 23.644232830385175], [74.7479315990815, 23.613988233749055], [74.77239860376268, 23.542501005336405], [74.57207500293553, 23.420147864399375], [74.52925774474348, 23.321165548135713], [74.73416890894833, 23.220808477479498], [74.50631992785488, 23.084707792616957], [74.38551409224156, 23.112202880467976], [74.31975901716089, 23.059962213551042], [74.24788719090994, 23.183690108880622], [74.12708135529662, 23.175441582525316], [74.1393148576372, 23.266175372433676], [73.98180851500213, 23.337662600846322], [73.95887069811351, 23.3802799870154]]]}}, {"type": "Feature", "properties": {"district": "Ajmer", "dt_code": "119", "st_nm": "Rajasthan", "st_code": "08", "year": "2011_c"}, "geometry": {"type": "MultiPolygon", "coordinates": [[[[73.90840750095859, 25.684368348930704], [73.90687831316602, 25.740733279025292], [73.99557120513529, 25.865835928747423], [74.05368034125308, 25.8300923145411], [74.09191003606743, 25.76960312126886], [74.00780470747588, 25.742108033417843], [73.98639607837984, 25.666496541827545], [73.90840750095859, 25.684368348930704]]], [[[74.9742513923824, 26.891402705590394], [74.91308388067945, 26.837787284280907], [74.96354707783438, 26.683814792315207], [75.06447347214424, 26.654944950071638], [75.06141509655909, 26.554587879415422], [75.16692905424667, 26.463854089507063], [75.12869935943233, 26.403364896234823], [75.11187829371403, 26.28788552726055], [75.18680849555012, 26.116041228191687], [75.30302676778572, 26.07067433323751], [75.35043158935551, 26.01155989435782], [75.2464468194605, 25.93869791155262], [75.3045559555783, 25.86033691117722], [75.31678945791889, 25.766853612483757], [75.25103438283821, 25.685743103323254], [75.1592831152838, 25.72423622631468], [75.1072907303363, 25.696741138463665], [75.03694809187792, 25.78610017397947], [75.01706865057446, 25.85896215678467], [74.90085037833886, 25.882332981458035], [74.79992398402901, 25.87408445510273], [74.70817271647459, 25.92082610444946], [74.61642144892018, 25.90432905173885], [74.4298605382262, 25.930449385197317], [74.3885724678267, 25.963443490618538], [74.32128820495346, 25.99918710482486], [74.26623744442082, 25.93457364837497], [74.2845876979317, 25.883707735850585], [74.2264785618139, 25.84383985846661], [74.19283643037728, 25.853463139214465], [74.18213211582926, 25.84796412164426], [74.10720191399317, 25.856212647999566], [74.12708135529662, 25.960693981833437], [74.18060292803669, 26.032181210246083], [74.36716383873068, 26.191652719781985], [74.25094556649508, 26.286510772868], [74.30446713923516, 26.329128159037076], [74.290704449102, 26.448731791189005], [74.36869302652325, 26.48722491418043], [74.46197348187025, 26.48722491418043], [74.58889606865385, 26.630199371005723], [74.66994302166025, 26.59583051119195], [74.72193540660776, 26.70031184502582], [74.69746840192657, 26.774548582223566], [74.77545697934782, 26.789670880541628], [74.8519163689765, 26.97938698671365], [74.9803681435527, 26.943643372507328], [74.9742513923824, 26.891402705590394]]]]}}, {"type": "Feature", "properties": {"district": "Rajsamand", "dt_code": "123", "st_nm": "Rajasthan", "st_code": "08", "year": "2011_c"}, "geometry": {"type": "MultiPolygon", "coordinates": [[[[74.05368034125308, 25.8300923145411], [74.10720191399317, 25.856212647999566], [74.18213211582926, 25.84796412164426], [74.19589480596242, 25.739358524632742], [74.10720191399317, 25.72286147192213], [74.12708135529662, 25.647249980331832], [74.02156739760903, 25.347553522755735], [74.04756359008279, 25.237573171351663], [74.16531105011096, 25.12621806555504], [74.18824886699956, 25.057480345927495], [74.26317906883567, 25.0657288722828], [74.31822982936832, 25.02998525807648], [74.19436561816985, 24.954373766486178], [74.14237323322236, 24.88151178368098], [74.06897221917882, 24.871888502933125], [73.99404201734272, 24.921379661064957], [73.82430217236704, 24.8333953799417], [73.77536816300469, 24.779779958632215], [73.67138339310968, 24.77015667788436], [73.688204458828, 24.86226522218527], [73.60868669361416, 24.870513748540574], [73.47258898007512, 25.025860994898824], [73.48788085800085, 25.104221995274226], [73.59339481568843, 25.193581030790035], [73.61021588140675, 25.285689575090945], [73.74172603156806, 25.392920417709913], [73.86406105497396, 25.649999489116933], [73.90840750095859, 25.684368348930704], [73.98639607837984, 25.666496541827545], [74.00780470747588, 25.742108033417843], [74.09191003606743, 25.76960312126886], [74.05368034125308, 25.8300923145411]]], [[[74.3885724678267, 25.963443490618538], [74.2845876979317, 25.883707735850585], [74.26623744442082, 25.93457364837497], [74.32128820495346, 25.99918710482486], [74.3885724678267, 25.963443490618538]]]]}}, {"type": "Feature", "properties": {"district": "Chittorgarh", "dt_code": "126", "st_nm": "Rajasthan", "st_code": "08", "year": "2011_c"}, "geometry": {"type": "MultiPolygon", "coordinates": [[[[75.35196077714808, 25.01898722293607], [75.45135798366536, 25.04923181957219], [75.53699250004948, 25.014862959758418], [75.58439732161926, 25.024486240506274], [75.74954960321722, 24.885636046858632], [75.81224630271274, 24.870513748540574], [75.78472092244641, 24.761908151529052], [75.60886432630045, 24.6821723967611], [75.54922600239007, 24.702793712649363], [75.45594554704309, 24.68079764236855], [75.18375011996498, 24.748160607603545], [75.33666889922235, 24.952999012093628], [75.35196077714808, 25.01898722293607]]], [[[74.26317906883567, 25.0657288722828], [74.38704328003413, 25.181208241257078], [74.50937830344002, 25.18258299564963], [74.6148922611276, 25.141340363873102], [74.7127602798523, 25.204579065930442], [74.79533642065128, 25.15233839901351], [74.91002550509431, 25.177083978079423], [74.96048870224924, 25.139965609480548], [75.20362956126844, 25.09047445134872], [75.19139605892785, 25.03685903003923], [75.1134074815066, 24.966746556019135], [75.11646585709174, 24.877387520503326], [75.03847727967049, 24.845768169474656], [74.95895951445667, 24.858140959007617], [74.90237956613144, 24.929628187420263], [74.82592017650276, 24.899383590784144], [74.86109149573196, 24.799026520127928], [74.97730976796754, 24.764657660314153], [74.99260164589327, 24.693170431901507], [74.88861687599828, 24.634055993021818], [74.80451154740673, 24.735787818070584], [74.77239860376268, 24.661551080872837], [74.78616129389584, 24.58593958928254], [74.69746840192657, 24.48283300984122], [74.59348363203156, 24.508953343299687], [74.51855343019547, 24.286243131706442], [74.4298605382262, 24.257373289462873], [74.36716383873068, 24.28349362292134], [74.30905470261288, 24.462211693952955], [74.25706231766537, 24.484207764233773], [74.27082500779854, 24.576316308534683], [74.16989861348868, 24.71104223900467], [74.10414353840801, 24.734413063678033], [74.14237323322236, 24.88151178368098], [74.19436561816985, 24.954373766486178], [74.31822982936832, 25.02998525807648], [74.26317906883567, 25.0657288722828]]]]}}, {"type": "Feature", "properties": {"district": "Ganganagar", "dt_code": "099", "st_nm": "Rajasthan", "st_code": "08", "year": "2011_c"}, "geometry": {"type": "Polygon", "coordinates": [[[73.96804582486897, 30.19356275649765], [73.97569176383183, 30.1193260192999], [73.90381993758088, 30.050588299672356], [73.89464481082543, 29.973602053689508], [74.29835038806486, 29.954355492193795], [74.25400394208023, 29.893866298921555], [74.28152932234656, 29.843000386397172], [74.18366130362185, 29.74951708770371], [73.97875013941697, 29.71927249106759], [73.9481663835655, 29.665657069758105], [73.83041892353734, 29.656033789010248], [73.88088212069226, 29.590045578167807], [73.9603998859061, 29.56804950788699], [74.01850902202389, 29.28622485741406], [74.09191003606743, 29.25735501517049], [74.16684023790353, 29.326092734798035], [74.21577424726588, 29.242232716852428], [74.20201155713272, 29.150124172551518], [74.04144683891249, 29.009899224511326], [74.02615496098676, 28.932912978528478], [73.87782374510712, 28.93978675049123], [73.79830597989329, 29.004400206941124], [73.61786182036961, 29.034644803577244], [73.5199938016449, 28.993402171800717], [73.33649126653606, 29.01264873329643], [73.28144050600342, 28.93566248731358], [73.20803949195988, 28.92191494338807], [73.20651030416731, 28.84905296058287], [73.00924507892532, 28.72532506525329], [72.85632629966796, 28.72532506525329], [72.7492831541878, 28.78306474974043], [72.6621194500111, 28.8930451011445], [72.73246208846949, 28.948035276846536], [72.94501919163721, 29.02777103161449], [73.00465751554759, 29.15287368133662], [73.08417528076141, 29.235358944889676], [73.28296969379599, 29.572173771064644], [73.397658778239, 29.94610696583849], [73.59645319127358, 30.018968948643685], [73.80595191885617, 30.067085352382968], [73.96804582486897, 30.19356275649765]]]}}, {"type": "Feature", "properties": {"district": "Hanumangarh", "dt_code": "100", "st_nm": "Rajasthan", "st_code": "08", "year": "2011_c"}, "geometry": {"type": "Polygon", "coordinates": [[[75.47429580055396, 28.926039206565722], [75.36572346728124, 28.915041171425315], [75.33361052363719, 28.98240413666031], [75.24338844387535, 28.931538224135927], [75.21892143919418, 28.865550013293483], [74.99413083368586, 28.90954215385511], [74.92378819522747, 28.89167034675195], [74.80298235961415, 28.928788715350823], [74.74946078687408, 28.853177223760525], [74.4757361720034, 28.8146841007691], [74.41915622367817, 28.884796574789195], [74.2677666322134, 28.796812293665937], [74.16072348673323, 28.776190977777674], [74.05673871683823, 28.777565732170224], [74.13166891867434, 28.87654804843389], [74.11484785295603, 28.93978675049123], [74.04144683891249, 29.009899224511326], [74.20201155713272, 29.150124172551518], [74.21577424726588, 29.242232716852428], [74.16684023790353, 29.326092734798035], [74.09191003606743, 29.25735501517049], [74.01850902202389, 29.28622485741406], [73.9603998859061, 29.56804950788699], [73.88088212069226, 29.590045578167807], [73.83041892353734, 29.656033789010248], [73.9481663835655, 29.665657069758105], [73.97875013941697, 29.71927249106759], [74.18366130362185, 29.74951708770371], [74.28152932234656, 29.843000386397172], [74.25400394208023, 29.893866298921555], [74.29835038806486, 29.954355492193795], [74.44821079173708, 29.94748172023104], [74.52619936915833, 29.940607948268283], [74.56137068838753, 29.869120719855637], [74.48491129875885, 29.814130544153603], [74.48032373538112, 29.745392824526057], [74.61642144892018, 29.752266596488813], [74.57513337852069, 29.56392524470934], [74.62253820009047, 29.530931139288118], [74.58430850527613, 29.45806915648292], [74.60265875878702, 29.364585857789457], [74.78769048168841, 29.361836349004356], [74.85038718118393, 29.403078980780883], [74.93755088536064, 29.361836349004356], [74.96048870224924, 29.280725839843853], [75.05071078201108, 29.28622485741406], [75.08129453786255, 29.22848517292692], [75.2403300682902, 29.26010452395559], [75.34584402597778, 29.283475348628954], [75.40548234988816, 29.26010452395559], [75.391719659755, 29.06213989142826], [75.44218285690992, 29.058015628250608], [75.52781737329404, 28.9714061015199], [75.47429580055396, 28.926039206565722]]]}}, {"type": "Feature", "properties": {"district": "Bikaner", "dt_code": "101", "st_nm": "Rajasthan", "st_code": "08", "year": "2011_c"}, "geometry": {"type": "Polygon", "coordinates": [[[74.16072348673323, 28.776190977777674], [74.19283643037728, 28.70882801254268], [74.07967653372684, 28.670334889551256], [74.10873110178574, 28.5851001172131], [74.05368034125308, 28.52598567833341], [74.02768414877933, 28.376137449545364], [74.06132628021595, 28.332145308983733], [74.19742399375501, 28.330770554591183], [74.24788719090994, 28.24691053664558], [74.35798871197524, 28.205667904869053], [74.29376282468714, 28.145178711596813], [74.29529201247972, 28.044821640940597], [74.2387120641545, 27.999454745986416], [74.2264785618139, 27.816612411777147], [74.11943541633374, 27.797365850281434], [74.06591384359368, 27.731377639438993], [73.99710039292786, 27.734127148224093], [73.99251282955014, 27.811113394206945], [73.8671194305591, 27.779494043178275], [73.85794430380366, 27.659890411026346], [73.89464481082543, 27.602150726539207], [73.87476536952197, 27.537537270089317], [73.79524760430814, 27.49766939270534], [73.7050255245463, 27.519665462986154], [73.54446080632607, 27.494919883920236], [73.48635167020828, 27.35744444466515], [73.3578998956321, 27.259836882794033], [73.2585026891148, 27.259836882794033], [73.22791893326334, 27.335448374384335], [73.13310929012377, 27.307953286533316], [73.1254633511609, 27.401436585226776], [73.0734709662134, 27.428931673077795], [72.97866132307384, 27.382190023731063], [72.82574254381647, 27.46879955046177], [72.82574254381647, 27.585653673828595], [72.65600269884081, 27.536162515696763], [72.55354711673837, 27.62002253364237], [72.24312199484594, 27.48392184877983], [72.24312199484594, 27.488046111957484], [72.27829331407513, 27.552659568407375], [72.33793163798549, 27.692884516447567], [72.21406742678704, 27.67913697252206], [72.0947907789663, 27.74375042897195], [72.16207504183953, 27.791866832711232], [72.13913722495093, 27.879851113834487], [72.02903570388563, 27.951338342247137], [71.88070448800599, 27.91421997364826], [71.92810930957577, 28.121807886923445], [71.995393572449, 28.208417413654153], [72.13149128598806, 28.31289874748802], [72.20642148782417, 28.394009256648523], [72.29970194317116, 28.668960135158706], [72.40368671306616, 28.78306474974043], [72.6621194500111, 28.8930451011445], [72.7492831541878, 28.78306474974043], [72.85632629966796, 28.72532506525329], [73.00924507892532, 28.72532506525329], [73.20651030416731, 28.84905296058287], [73.20803949195988, 28.92191494338807], [73.28144050600342, 28.93566248731358], [73.33649126653606, 29.01264873329643], [73.5199938016449, 28.993402171800717], [73.61786182036961, 29.034644803577244], [73.79830597989329, 29.004400206941124], [73.87782374510712, 28.93978675049123], [74.02615496098676, 28.932912978528478], [74.04144683891249, 29.009899224511326], [74.11484785295603, 28.93978675049123], [74.13166891867434, 28.87654804843389], [74.05673871683823, 28.777565732170224], [74.16072348673323, 28.776190977777674]]]}}, {"type": "Feature", "properties": {"district": "Pratapgarh", "dt_code": "131", "st_nm": "Rajasthan", "st_code": "08", "year": "2011_c"}, "geometry": {"type": "Polygon", "coordinates": [[[74.27082500779854, 23.949428305531473], [74.22189099843618, 24.09927653431952], [74.2387120641545, 24.20650737693849], [74.35645952418265, 24.166639499554513], [74.4298605382262, 24.257373289462873], [74.51855343019547, 24.286243131706442], [74.59348363203156, 24.508953343299687], [74.69746840192657, 24.48283300984122], [74.81521586195474, 24.46908546591571], [74.85497474456166, 24.423718570961533], [74.78157373051812, 24.338483798623376], [74.7540483502518, 24.242250991144815], [74.86720824690224, 24.243625745537365], [74.90849631730173, 24.212006394508695], [74.87944174924283, 24.17351327151727], [74.9742513923824, 24.040162095439833], [74.90237956613144, 23.873816813941172], [74.94060926094578, 23.76521121692965], [74.92225900743489, 23.66622890066599], [74.84732880559879, 23.55212428608426], [74.77239860376268, 23.542501005336405], [74.7479315990815, 23.613988233749055], [74.65006358035679, 23.644232830385175], [74.51855343019547, 23.63598430402987], [74.56137068838753, 23.805079094313626], [74.48032373538112, 23.924682726465555], [74.37633896548611, 23.90406141057729], [74.27082500779854, 23.949428305531473]]]}}], "metadata": {"source": "udit-001/india-maps-data (Census 2011)", "url": "https://github.com/udit-001/india-maps-data", "license": "ODbL (Open Database License)", "feature_count": 34}}