{"type": "FeatureCollection", "features": [{"type": "Feature", "properties": {"district": "North Sikkim", "dt_code": "241", "st_nm": "Sikkim", "st_code": "11", "year": "2011_c"}, "geometry": {"type": "Polygon", "coordinates": [[[88.48309635197764, 27.37531625176831], [88.41428290131182, 27.41930839232994], [88.35617376519403, 27.521040217378705], [88.28124356335792, 27.5127916910234], [88.20937173710696, 27.581529410650944], [88.11456209396741, 27.61864777924982], [88.19713823476638, 27.78911732392613], [88.20478417372925, 27.94171506149928], [88.4678044740519, 28.01732655308958], [88.49532985431823, 28.054444921688454], [88.6191940655167, 28.09843706225008], [88.75682096684832, 28.076440991969267], [88.84398467102501, 27.992580974023664], [88.83633873206215, 27.92934227196632], [88.88833111700964, 27.856480289161123], [88.8562181733656, 27.816612411777147], [88.84857223440274, 27.668138937381652], [88.76446690581119, 27.565032357940332], [88.79352147387009, 27.416558883544837], [88.48309635197764, 27.37531625176831]]]}}, {"type": "Feature", "properties": {"district": "West Sikkim", "dt_code": "242", "st_nm": "Sikkim", "st_code": "11", "year": "2011_c"}, "geometry": {"type": "Polygon", "coordinates": [[[88.11456209396741, 27.61864777924982], [88.20937173710696, 27.581529410650944], [88.28124356335792, 27.5127916910234], [88.27512681218764, 27.40556084840443], [88.30265219245396, 27.228217531765363], [88.28124356335792, 27.131984724286802], [88.15432097657431, 27.109988654005985], [88.09621184045652, 27.133359478679353], [88.03810270433873, 27.219969005410057], [88.04421945550902, 27.478422831209627], [88.11456209396741, 27.61864777924982]]]}}, {"type": "Feature", "properties": {"district": "South Sikkim", "dt_code": "243", "st_nm": "Sikkim", "st_code": "11", "year": "2011_c"}, "geometry": {"type": "Polygon", "coordinates": [[[88.28124356335792, 27.5127916910234], [88.35617376519403, 27.521040217378705], [88.41428290131182, 27.41930839232994], [88.48309635197764, 27.37531625176831], [88.438749905993, 27.263961145971688], [88.53203036133999, 27.17597686484843], [88.42498721585984, 27.071495531014563], [88.28124356335792, 27.131984724286802], [88.30265219245396, 27.228217531765363], [88.27512681218764, 27.40556084840443], [88.28124356335792, 27.5127916910234]]]}}, {"type": "Feature", "properties": {"district": "East Sikkim", "dt_code": "244", "st_nm": "Sikkim", "st_code": "11", "year": "2011_c"}, "geometry": {"type": "Polygon", "coordinates": [[[88.48309635197764, 27.37531625176831], [88.79352147387009, 27.416558883544837], [88.91891487286112, 27.320326076066273], [88.90362299493538, 27.27220967232699], [88.80269660062552, 27.247464093261076], [88.79199228607752, 27.185600145596286], [88.72164964761913, 27.138858496249554], [88.59778543642066, 27.188349654381387], [88.53203036133999, 27.17597686484843], [88.438749905993, 27.263961145971688], [88.48309635197764, 27.37531625176831]]]}}], "metadata": {"source": "udit-001/india-maps-data (Census 2011)", "url": "https://github.com/udit-001/india-maps-data", "license": "ODbL (Open Database License)", "feature_count": 5}}