{"type": "FeatureCollection", "features": [{"type": "Feature", "properties": {"district": "Thiruvallur", "dt_code": "602", "st_nm": "Tamil Nadu", "st_code": "33", "year": "2011_c"}, "geometry": {"type": "Polygon", "coordinates": [[[80.12761425335545, 13.033878428677344], [80.08020943178568, 13.016006621574181], [79.99457491540154, 13.046251218210301], [79.89059014550654, 12.944519393161535], [79.82177669484074, 12.966515463442349], [79.78966375119668, 13.024255147929487], [79.73767136624919, 13.065497779706014], [79.7361421784566, 13.16722960475478], [79.64744928648734, 13.19884895578345], [79.63062822076903, 13.145233534473967], [79.48229700488939, 13.139734516903763], [79.45018406124535, 13.092992867557033], [79.35078685472806, 13.062748270920913], [79.28350259185483, 13.123237464193153], [79.43795055890476, 13.187850920643044], [79.40583761526071, 13.334949640645991], [79.53734776542204, 13.339073903823643], [79.53428938983689, 13.275835201766302], [79.68262060571654, 13.296456517654565], [79.70250004702, 13.222219780456816], [79.79425131457441, 13.240091587559977], [79.80954319250014, 13.317077833542829], [79.94564090603919, 13.363819482889559], [80.03739217359362, 13.538413290743524], [80.07868024399309, 13.488922132611691], [80.21477795753215, 13.490296887004241], [80.26829953027223, 13.56453362420199], [80.32640866639002, 13.444929992050062], [80.3447589199009, 13.275835201766302], [80.30041247391627, 13.142484025688866], [80.20254445519156, 13.125986972978254], [80.18725257726582, 13.022880393536937], [80.12761425335545, 13.033878428677344]]]}}, {"type": "Feature", "properties": {"district": "Chennai", "dt_code": "603", "st_nm": "Tamil Nadu", "st_code": "33", "year": "2018"}, "geometry": {"type": "Polygon", "coordinates": [[[80.12761425335545, 13.033878428677344], [80.18725257726582, 13.022880393536937], [80.20254445519156, 13.125986972978254], [80.30041247391627, 13.142484025688866], [80.24994927676134, 12.857909866430829], [80.1826650138881, 12.868907901571237], [80.19642770402126, 12.959641691479595], [80.12761425335545, 13.033878428677344]]]}}, {"type": "Feature", "properties": {"district": "Krishnagiri", "dt_code": "631", "st_nm": "Tamil Nadu", "st_code": "33", "year": "2011_c"}, "geometry": {"type": "Polygon", "coordinates": [[[78.41186555008787, 12.626951128482279], [78.43633255476904, 12.394617636141177], [78.56784270493037, 12.387743864178422], [78.6473604701442, 12.258516951278636], [78.63206859221846, 12.176031687725583], [78.47150387399823, 12.173282178940482], [78.17484144223896, 12.336877951654039], [78.12743662066917, 12.402866162496482], [78.01121834843357, 12.503223233152697], [77.92711301984204, 12.324505162121081], [77.80324880864357, 12.176031687725583], [77.74666886031835, 12.15541037183732], [77.6105711467793, 12.206276284361703], [77.50505718909172, 12.198027758006397], [77.4714150576551, 12.243394652960578], [77.55093282286893, 12.291511056699859], [77.61515871015702, 12.367122548290158], [77.63503815146048, 12.488100934834637], [77.58763332989069, 12.514221268293104], [77.60139602002386, 12.668193760258806], [77.73902292135548, 12.672318023436457], [77.79254449409555, 12.749304269419309], [77.8307741889099, 12.866158392786133], [77.86594550813909, 12.870282655963788], [77.92864220763461, 12.890903971852051], [77.97910540478954, 12.835913796150015], [78.05709398221079, 12.852410848860625], [78.13355337183947, 12.78229837484053], [78.23142139056418, 12.760302304559715], [78.30176402902256, 12.665444251473703], [78.41186555008787, 12.626951128482279]]]}}, {"type": "Feature", "properties": {"district": "Tiruvannamalai", "dt_code": "606", "st_nm": "Tamil Nadu", "st_code": "33", "year": "2011_c"}, "geometry": {"type": "Polygon", "coordinates": [[[78.63206859221846, 12.176031687725583], [78.6473604701442, 12.258516951278636], [78.71005716963973, 12.303883846232818], [78.75899117900207, 12.442734039880458], [78.85838838551936, 12.633824900445033], [78.89814726812628, 12.688815076147069], [78.9715482821698, 12.670943269043907], [79.06482873751679, 12.746554760634206], [79.20857239001872, 12.78504788362563], [79.45018406124535, 12.670943269043907], [79.47312187813395, 12.874406919141439], [79.56028558231064, 12.853785603253176], [79.74531730521205, 12.743805251849103], [79.74072974183433, 12.69431409371727], [79.63062822076903, 12.63107539165993], [79.72390867611603, 12.587083251098303], [79.74378811741948, 12.532093075396265], [79.7070876103977, 12.41523895202944], [79.63980334752448, 12.345126478009345], [79.45171324903792, 12.373996320252914], [79.38289979837211, 12.442734039880458], [79.23151020690732, 12.442734039880458], [79.2498604604182, 12.32313040772853], [79.21010157781129, 12.166408406977727], [79.2789150284771, 12.1251657752012], [79.17187188299695, 12.03030772211519], [79.12599624921974, 12.01930968697478], [78.95931477982921, 12.068800845106614], [78.91343914605201, 12.015185423797128], [78.7574619912095, 12.011061160619477], [78.71770310860259, 11.983566072768458], [78.68406097716597, 12.105919213705487], [78.63206859221846, 12.176031687725583]]]}}, {"type": "Feature", "properties": {"district": "Dharmapuri", "dt_code": "630", "st_nm": "Tamil Nadu", "st_code": "33", "year": "2011_c"}, "geometry": {"type": "Polygon", "coordinates": [[[77.74666886031835, 12.15541037183732], [77.80324880864357, 12.176031687725583], [77.92711301984204, 12.324505162121081], [78.01121834843357, 12.503223233152697], [78.12743662066917, 12.402866162496482], [78.17484144223896, 12.336877951654039], [78.47150387399823, 12.173282178940482], [78.63206859221846, 12.176031687725583], [78.68406097716597, 12.105919213705487], [78.71770310860259, 11.983566072768458], [78.70852798184714, 11.898331300430304], [78.62748102884075, 11.869461458186734], [78.5953680851967, 11.822719808840002], [78.48220818854625, 11.817220791269799], [78.32776022149632, 11.894207037252649], [78.23447976614932, 11.979441809590806], [78.0387437286999, 11.936824423421728], [77.97145946582667, 11.8955817916452], [77.76196073824408, 11.90932933557071], [77.67632622185997, 11.951946721739787], [77.708439165504, 12.035806739685391], [77.77572342837725, 12.112792985668243], [77.74666886031835, 12.15541037183732]]]}}, {"type": "Feature", "properties": {"district": "Salem", "dt_code": "608", "st_nm": "Tamil Nadu", "st_code": "33", "year": "2011_c"}, "geometry": {"type": "Polygon", "coordinates": [[[77.67632622185997, 11.951946721739787], [77.76196073824408, 11.90932933557071], [77.97145946582667, 11.8955817916452], [78.0387437286999, 11.936824423421728], [78.23447976614932, 11.979441809590806], [78.32776022149632, 11.894207037252649], [78.48220818854625, 11.817220791269799], [78.5953680851967, 11.822719808840002], [78.62748102884075, 11.869461458186734], [78.69323610392141, 11.851589651083572], [78.64277290676648, 11.769104387530518], [78.70088204288427, 11.692118141547667], [78.80486681277928, 11.687993878370015], [78.78651655926839, 11.613757141172266], [78.84309650759363, 11.523023351263907], [78.79875006160898, 11.385547912008818], [78.74064092549119, 11.450161368458708], [78.65194803352192, 11.422666280607691], [78.66265234806994, 11.37317512247586], [78.57090108051553, 11.315435437988722], [78.48679575192398, 11.407543982289631], [78.43480336697647, 11.491404000235237], [78.4393909303542, 11.598634842854207], [78.30329321681513, 11.58901156210635], [78.24365489290477, 11.553267947900027], [78.04638966766277, 11.518899088086254], [77.85218281800593, 11.415792508644937], [77.69620566316341, 11.46390891238422], [77.73290617018519, 11.5120253161235], [77.74819804811092, 11.66462305369665], [77.69008891199312, 11.65225026416369], [77.70996835329657, 11.810347019307045], [77.67632622185997, 11.951946721739787]]]}}, {"type": "Feature", "properties": {"district": "Erode", "dt_code": "610", "st_nm": "Tamil Nadu", "st_code": "33", "year": "2011_c"}, "geometry": {"type": "Polygon", "coordinates": [[[77.67632622185997, 11.951946721739787], [77.70996835329657, 11.810347019307045], [77.69008891199312, 11.65225026416369], [77.74819804811092, 11.66462305369665], [77.73290617018519, 11.5120253161235], [77.69620566316341, 11.46390891238422], [77.68397216082283, 11.417167263037488], [77.80783637202128, 11.26731903424944], [77.86288713255394, 11.245322963968626], [77.89347088840542, 11.077602928077416], [77.93322977101232, 11.070729156114663], [77.8705330715168, 11.02398750676793], [77.77725261616982, 11.058356366581704], [77.63962571483819, 11.122969823031596], [77.50046962571399, 11.107847524713536], [77.47294424544768, 11.179334753126183], [77.47600262103282, 11.301687894063212], [77.33378815632346, 11.316810192381272], [77.21756988408788, 11.352553806587597], [77.1472272456295, 11.336056753876985], [77.11052673860773, 11.406169227897081], [76.96372471052067, 11.385547912008818], [77.0080711565053, 11.545019421544723], [76.84750643828507, 11.594510579676554], [76.83527293594447, 11.654999772948793], [76.90867394998801, 11.795224720988985], [77.01265871988302, 11.814471282484696], [77.11052673860773, 11.77322865070817], [77.29250008592399, 11.808972264914495], [77.42859779946303, 11.767729633137968], [77.4943528745437, 11.943698195384481], [77.67632622185997, 11.951946721739787]]]}}, {"type": "Feature", "properties": {"district": "Nilgiris", "dt_code": "611", "st_nm": "Tamil Nadu", "st_code": "33", "year": "2011_c"}, "geometry": {"type": "Polygon", "coordinates": [[[76.84750643828507, 11.594510579676554], [77.0080711565053, 11.545019421544723], [76.96372471052067, 11.385547912008818], [76.8505648138702, 11.340181017054638], [76.84138968711477, 11.287940350137703], [76.7068211613683, 11.239823946398422], [76.62883258394704, 11.194457051444243], [76.44227167325306, 11.201330823406998], [76.52178943846688, 11.270068543034542], [76.54778563094064, 11.35942757855035], [76.46062192676395, 11.388297420793918], [76.23430213346305, 11.52714761444156], [76.37804578596497, 11.601384351639307], [76.41780466857188, 11.671496825659403], [76.51108512391887, 11.704490931080626], [76.56001913328123, 11.62200566752757], [76.75728435852322, 11.61788140434992], [76.84750643828507, 11.594510579676554]]]}}, {"type": "Feature", "properties": {"district": "Namakkal", "dt_code": "609", "st_nm": "Tamil Nadu", "st_code": "33", "year": "2011_c"}, "geometry": {"type": "Polygon", "coordinates": [[[77.69620566316341, 11.46390891238422], [77.85218281800593, 11.415792508644937], [78.04638966766277, 11.518899088086254], [78.24365489290477, 11.553267947900027], [78.30329321681513, 11.58901156210635], [78.4393909303542, 11.598634842854207], [78.43480336697647, 11.491404000235237], [78.48679575192398, 11.407543982289631], [78.4500952449022, 11.281066578174949], [78.3231726581186, 11.058356366581704], [78.22989220277161, 11.094099980788027], [78.16413712769094, 11.012989471627524], [78.10144042819542, 11.076228173684864], [77.98980971933756, 11.096849489573128], [77.93322977101232, 11.070729156114663], [77.89347088840542, 11.077602928077416], [77.86288713255394, 11.245322963968626], [77.80783637202128, 11.26731903424944], [77.68397216082283, 11.417167263037488], [77.69620566316341, 11.46390891238422]]]}}, {"type": "Feature", "properties": {"district": "Perambalur", "dt_code": "615", "st_nm": "Tamil Nadu", "st_code": "33", "year": "2011_c"}, "geometry": {"type": "Polygon", "coordinates": [[[78.66265234806994, 11.37317512247586], [78.65194803352192, 11.422666280607691], [78.74064092549119, 11.450161368458708], [78.79875006160898, 11.385547912008818], [78.84309650759363, 11.523023351263907], [78.87826782682282, 11.507901052945847], [78.96237315541437, 11.40479447350453], [79.1688135074118, 11.378674140046062], [79.13058381259746, 11.331932490699332], [79.06941630089452, 11.109222279106087], [79.006719601399, 11.058356366581704], [78.97460665775495, 11.094099980788027], [78.76052036679465, 11.120220314246495], [78.70088204288427, 11.069354401722112], [78.67488585041053, 11.164212454808123], [78.71311554522487, 11.213703612939955], [78.73299498652833, 11.323683964344028], [78.66265234806994, 11.37317512247586]]]}}, {"type": "Feature", "properties": {"district": "Coimbatore", "dt_code": "632", "st_nm": "Tamil Nadu", "st_code": "33", "year": "2011_c"}, "geometry": {"type": "Polygon", "coordinates": [[[76.96372471052067, 11.385547912008818], [77.11052673860773, 11.406169227897081], [77.1472272456295, 11.336056753876985], [77.16098993576266, 11.168336717985776], [77.26191633007251, 11.11472129667629], [77.16557749914037, 11.065230138544457], [77.18239856485869, 10.920880927326614], [77.24815363993935, 10.904383874616002], [77.29402927371656, 10.812275330315092], [77.19616125499185, 10.802652049567236], [77.13346455549633, 10.750411382650302], [77.1579315601775, 10.584066101151643], [77.09064729730427, 10.584066101151643], [77.07382623158595, 10.463087714607164], [77.09064729730427, 10.314614240211668], [77.05088841469735, 10.262373573294735], [76.98207496403154, 10.219756187125656], [76.89949882323256, 10.252750292546878], [76.89796963543999, 10.254125046939429], [76.8918528842697, 10.259624064509632], [76.8337437481519, 10.339359819277584], [76.81539349464101, 10.42321983722319], [76.83833131152963, 10.596438890684603], [76.90714476219543, 10.782030733678972], [76.83068537256676, 10.870015014802231], [76.65635796421337, 10.938752734429777], [76.75422598293808, 11.078977682469967], [76.6945876590277, 11.166961963593224], [76.7068211613683, 11.239823946398422], [76.84138968711477, 11.287940350137703], [76.8505648138702, 11.340181017054638], [76.96372471052067, 11.385547912008818]]]}}, {"type": "Feature", "properties": {"district": "Tiruchirappalli", "dt_code": "614", "st_nm": "Tamil Nadu", "st_code": "33", "year": "2011_c"}, "geometry": {"type": "Polygon", "coordinates": [[[78.48679575192398, 11.407543982289631], [78.57090108051553, 11.315435437988722], [78.66265234806994, 11.37317512247586], [78.73299498652833, 11.323683964344028], [78.71311554522487, 11.213703612939955], [78.67488585041053, 11.164212454808123], [78.70088204288427, 11.069354401722112], [78.76052036679465, 11.120220314246495], [78.97460665775495, 11.094099980788027], [79.006719601399, 11.058356366581704], [78.97919422113267, 10.970372085458447], [79.00366122581386, 10.893385839475595], [78.94555208969605, 10.889261576297944], [78.86909270006737, 10.826022874240602], [78.8736802634451, 10.705044487696123], [78.75899117900207, 10.652803820779189], [78.62748102884075, 10.703669733303572], [78.55102163921207, 10.685797926200411], [78.45927037165765, 10.611561189002662], [78.50514600543485, 10.376478187876458], [78.44856605710963, 10.40947229329768], [78.37822341865125, 10.310489977034015], [78.33387697266662, 10.300866696286159], [78.28035539992653, 10.372353924698807], [78.31552671915573, 10.4397168899338], [78.206954385883, 10.474085749747573], [78.19930844692013, 10.54694773255277], [78.24365489290477, 10.553821504515524], [78.29258890226713, 10.702294978911022], [78.37822341865125, 10.725665803584386], [78.4210406768433, 10.67067562788235], [78.5663135171378, 10.740788101902446], [78.57854701947839, 10.850768453306518], [78.40269042333242, 10.96074880471059], [78.206954385883, 10.957999295925488], [78.16413712769094, 11.012989471627524], [78.22989220277161, 11.094099980788027], [78.3231726581186, 11.058356366581704], [78.4500952449022, 11.281066578174949], [78.48679575192398, 11.407543982289631]]]}}, {"type": "Feature", "properties": {"district": "Ariyalur", "dt_code": "616", "st_nm": "Tamil Nadu", "st_code": "33", "year": "2011_c"}, "geometry": {"type": "Polygon", "coordinates": [[[79.006719601399, 11.058356366581704], [79.06941630089452, 11.109222279106087], [79.13058381259746, 11.331932490699332], [79.1688135074118, 11.378674140046062], [79.36760792044637, 11.418542017430038], [79.3890165495424, 11.367676104905655], [79.49758888281512, 11.314060683596171], [79.50982238515572, 11.228825911258015], [79.45783000020822, 11.150464910882615], [79.39819167629784, 11.066604892937008], [79.2911485308177, 11.014364226020074], [79.22233508015188, 10.94700126078508], [79.00366122581386, 10.893385839475595], [78.97919422113267, 10.970372085458447], [79.006719601399, 11.058356366581704]]]}}, {"type": "Feature", "properties": {"district": "Tiruppur", "dt_code": "633", "st_nm": "Tamil Nadu", "st_code": "33", "year": "2011_c"}, "geometry": {"type": "Polygon", "coordinates": [[[77.1472272456295, 11.336056753876985], [77.21756988408788, 11.352553806587597], [77.33378815632346, 11.316810192381272], [77.47600262103282, 11.301687894063212], [77.47294424544768, 11.179334753126183], [77.50046962571399, 11.107847524713536], [77.63962571483819, 11.122969823031596], [77.77725261616982, 11.058356366581704], [77.76043155045151, 10.903009120223452], [77.83230337670247, 10.83839566377356], [77.80783637202128, 10.680298908630206], [77.7206726678446, 10.630807750498374], [77.58610414209812, 10.683048417415309], [77.51423231584715, 10.606062171432459], [77.41789348491503, 10.625308732928172], [77.36895947555267, 10.551071995730423], [77.3842513534784, 10.449340170681655], [77.32308384177546, 10.447965416289104], [77.32920059294575, 10.271996854042591], [77.28791252254626, 10.232128976658615], [77.18086937706612, 10.357231626380745], [77.09064729730427, 10.314614240211668], [77.07382623158595, 10.463087714607164], [77.09064729730427, 10.584066101151643], [77.1579315601775, 10.584066101151643], [77.13346455549633, 10.750411382650302], [77.19616125499185, 10.802652049567236], [77.29402927371656, 10.812275330315092], [77.24815363993935, 10.904383874616002], [77.18239856485869, 10.920880927326614], [77.16557749914037, 11.065230138544457], [77.26191633007251, 11.11472129667629], [77.16098993576266, 11.168336717985776], [77.1472272456295, 11.336056753876985]]]}}, {"type": "Feature", "properties": {"district": "Thanjavur", "dt_code": "620", "st_nm": "Tamil Nadu", "st_code": "33", "year": "2011_c"}, "geometry": {"type": "Polygon", "coordinates": [[[78.8736802634451, 10.705044487696123], [78.86909270006737, 10.826022874240602], [78.94555208969605, 10.889261576297944], [79.00366122581386, 10.893385839475595], [79.22233508015188, 10.94700126078508], [79.2911485308177, 11.014364226020074], [79.39819167629784, 11.066604892937008], [79.45783000020822, 11.150464910882615], [79.52664345087402, 11.183459016303836], [79.55263964334777, 11.12984359499435], [79.51593913632601, 10.970372085458447], [79.45477162462306, 10.864515997232028], [79.30032365757313, 10.936003225644674], [79.26821071392908, 10.887886821905393], [79.30644040874343, 10.824648119848051], [79.30338203315827, 10.743537610687548], [79.34619929135035, 10.59231462750695], [79.48229700488939, 10.489208048065631], [79.50064725840028, 10.369604415913704], [79.47159269034137, 10.315988994604218], [79.38748736174983, 10.317363748996769], [79.26668152613651, 10.229379467873512], [79.2269226435296, 10.137270923572602], [79.11529193467172, 10.234878485443716], [79.1519924416935, 10.34898310002544], [79.13211300039004, 10.497456574420937], [79.18563457313012, 10.542823469375117], [79.13211300039004, 10.632182504890926], [79.06941630089452, 10.672050382274902], [78.91802670942972, 10.67067562788235], [78.8736802634451, 10.705044487696123]]]}}, {"type": "Feature", "properties": {"district": "Karur", "dt_code": "613", "st_nm": "Tamil Nadu", "st_code": "33", "year": "2011_c"}, "geometry": {"type": "Polygon", "coordinates": [[[77.77725261616982, 11.058356366581704], [77.8705330715168, 11.02398750676793], [77.93322977101232, 11.070729156114663], [77.98980971933756, 11.096849489573128], [78.10144042819542, 11.076228173684864], [78.16413712769094, 11.012989471627524], [78.206954385883, 10.957999295925488], [78.40269042333242, 10.96074880471059], [78.57854701947839, 10.850768453306518], [78.5663135171378, 10.740788101902446], [78.4210406768433, 10.67067562788235], [78.37822341865125, 10.725665803584386], [78.29258890226713, 10.702294978911022], [78.24365489290477, 10.553821504515524], [78.19930844692013, 10.54694773255277], [78.13967012300976, 10.56207003087083], [78.15343281314293, 10.744912365080099], [78.18095819340925, 10.810900575922542], [78.02803941415189, 10.780655979286422], [77.97451784141181, 10.64043103124623], [77.80783637202128, 10.680298908630206], [77.83230337670247, 10.83839566377356], [77.76043155045151, 10.903009120223452], [77.77725261616982, 11.058356366581704]]]}}, {"type": "Feature", "properties": {"district": "Thiruvarur", "dt_code": "619", "st_nm": "Tamil Nadu", "st_code": "33", "year": "2011_c"}, "geometry": {"type": "Polygon", "coordinates": [[[79.50064725840028, 10.369604415913704], [79.48229700488939, 10.489208048065631], [79.34619929135035, 10.59231462750695], [79.30338203315827, 10.743537610687548], [79.30644040874343, 10.824648119848051], [79.26821071392908, 10.887886821905393], [79.30032365757313, 10.936003225644674], [79.45477162462306, 10.864515997232028], [79.51593913632601, 10.970372085458447], [79.65050766207249, 11.012989471627524], [79.7483756807972, 10.996492418916914], [79.72390867611603, 10.92912945368192], [79.66885791558337, 10.914007155363858], [79.65203684986506, 10.824648119848051], [79.6841497935091, 10.732539575547142], [79.66732872779079, 10.574442820403787], [79.71473354936057, 10.526326416664507], [79.63062822076903, 10.377852942269008], [79.50064725840028, 10.369604415913704]]]}}, {"type": "Feature", "properties": {"district": "Dindigul", "dt_code": "612", "st_nm": "Tamil Nadu", "st_code": "33", "year": "2011_c"}, "geometry": {"type": "Polygon", "coordinates": [[[78.19930844692013, 10.54694773255277], [78.206954385883, 10.474085749747573], [78.31552671915573, 10.4397168899338], [78.28035539992653, 10.372353924698807], [78.33387697266662, 10.300866696286159], [78.32928940928889, 10.228004713480962], [78.28035539992653, 10.129022397217296], [78.21307113705329, 10.075406975907812], [78.1427284985949, 10.182637818526782], [78.02039347518902, 10.184012572919332], [77.91335032970886, 10.07403222151526], [77.80477799643614, 10.067158449552506], [77.71302672888173, 10.02591581777598], [77.6916180997857, 10.145519449927907], [77.61821708574216, 10.214257169555452], [77.4652983064848, 10.130397151609849], [77.35978434879722, 10.151018467498112], [77.2680330812428, 10.122148625254543], [77.28791252254626, 10.232128976658615], [77.32920059294575, 10.271996854042591], [77.32308384177546, 10.447965416289104], [77.3842513534784, 10.449340170681655], [77.36895947555267, 10.551071995730423], [77.41789348491503, 10.625308732928172], [77.51423231584715, 10.606062171432459], [77.58610414209812, 10.683048417415309], [77.7206726678446, 10.630807750498374], [77.80783637202128, 10.680298908630206], [77.97451784141181, 10.64043103124623], [78.02803941415189, 10.780655979286422], [78.18095819340925, 10.810900575922542], [78.15343281314293, 10.744912365080099], [78.13967012300976, 10.56207003087083], [78.19930844692013, 10.54694773255277]]]}}, {"type": "Feature", "properties": {"district": "Madurai", "dt_code": "623", "st_nm": "Tamil Nadu", "st_code": "33", "year": "2011_c"}, "geometry": {"type": "Polygon", "coordinates": [[[78.33387697266662, 10.300866696286159], [78.37822341865125, 10.310489977034015], [78.45162443269479, 10.11939911646944], [78.4562119960725, 9.968176133288843], [78.3170559069483, 9.926933501512314], [78.30940996798543, 9.865069553847524], [78.15190362535036, 9.87469283459538], [78.13661174742461, 9.761962974406208], [78.06168154558851, 9.741341658517943], [78.01427672401873, 9.639609833469176], [77.77419424058468, 9.642359342254279], [77.70996835329657, 9.705598044311621], [77.64421327821591, 9.704223289919069], [77.53717013273577, 9.66023114935744], [77.47600262103282, 9.562623587486327], [77.61821708574216, 9.85819578188477], [77.67938459744511, 9.932432519082518], [77.71302672888173, 10.02591581777598], [77.80477799643614, 10.067158449552506], [77.91335032970886, 10.07403222151526], [78.02039347518902, 10.184012572919332], [78.1427284985949, 10.182637818526782], [78.21307113705329, 10.075406975907812], [78.28035539992653, 10.129022397217296], [78.32928940928889, 10.228004713480962], [78.33387697266662, 10.300866696286159]]]}}, {"type": "Feature", "properties": {"district": "Theni", "dt_code": "624", "st_nm": "Tamil Nadu", "st_code": "33", "year": "2011_c"}, "geometry": {"type": "Polygon", "coordinates": [[[77.2680330812428, 10.122148625254543], [77.35978434879722, 10.151018467498112], [77.4652983064848, 10.130397151609849], [77.61821708574216, 10.214257169555452], [77.6916180997857, 10.145519449927907], [77.71302672888173, 10.02591581777598], [77.67938459744511, 9.932432519082518], [77.61821708574216, 9.85819578188477], [77.47600262103282, 9.562623587486327], [77.40260160698928, 9.525505218887453], [77.31849627839773, 9.602491464870303], [77.26956226903538, 9.572246868234183], [77.16710668693295, 9.61211474561816], [77.24662445214678, 9.799081343005081], [77.21298232071015, 9.877442343380483], [77.26344551786508, 10.028665326561082], [77.2680330812428, 10.122148625254543]]]}}, {"type": "Feature", "properties": {"district": "Virudhunagar", "dt_code": "625", "st_nm": "Tamil Nadu", "st_code": "33", "year": "2011_c"}, "geometry": {"type": "Polygon", "coordinates": [[[77.47600262103282, 9.562623587486327], [77.53717013273577, 9.66023114935744], [77.64421327821591, 9.704223289919069], [77.70996835329657, 9.705598044311621], [77.77419424058468, 9.642359342254279], [78.01427672401873, 9.639609833469176], [78.06168154558851, 9.741341658517943], [78.13661174742461, 9.761962974406208], [78.20848357367558, 9.781209535901919], [78.310939155778, 9.722095097022232], [78.33999372383691, 9.65885639496489], [78.42868661580617, 9.609365236833057], [78.37822341865125, 9.577745885804386], [78.33081859708146, 9.46226651683011], [78.21918788822359, 9.44714421851205], [78.24365489290477, 9.381156007669608], [78.36293154072551, 9.349536656640938], [78.28035539992653, 9.284923200191045], [78.21154194926072, 9.305544516079308], [78.16872469106866, 9.36878321813665], [78.05709398221079, 9.363284200566447], [77.91793789308659, 9.202437936637992], [77.8475952546282, 9.245055322807069], [77.708439165504, 9.290422217761249], [77.50811556467687, 9.331664849537777], [77.43471455063333, 9.390779288417464], [77.33990490749376, 9.419649130661034], [77.40260160698928, 9.525505218887453], [77.47600262103282, 9.562623587486327]]]}}, {"type": "Feature", "properties": {"district": "Thoothukkudi", "dt_code": "627", "st_nm": "Tamil Nadu", "st_code": "33", "year": "2011_c"}, "geometry": {"type": "Polygon", "coordinates": [[[77.8475952546282, 9.245055322807069], [77.91793789308659, 9.202437936637992], [78.05709398221079, 9.363284200566447], [78.16872469106866, 9.36878321813665], [78.21154194926072, 9.305544516079308], [78.28035539992653, 9.284923200191045], [78.27423864875624, 9.148822515328506], [78.38434016982154, 9.09383233962647], [78.22836301497904, 8.974228707474543], [78.1717830666538, 8.883494917566184], [78.1610787521058, 8.805133917190782], [78.19472088354242, 8.751518495881298], [78.1381409352172, 8.680031267468651], [78.1427284985949, 8.501313196437033], [78.05709398221079, 8.378960055500004], [77.9699302780341, 8.334967914938375], [77.85065363021334, 8.35696398521919], [77.81548231098415, 8.563177144101825], [77.82159906215445, 8.779013583732315], [77.80477799643614, 8.87799589999598], [77.68855972420054, 9.00034904093301], [77.70232241433371, 9.06358774299035], [77.67479703406738, 9.1378244801881], [77.8598287569688, 9.198313673460339], [77.8475952546282, 9.245055322807069]]]}}, {"type": "Feature", "properties": {"district": "Kanyakumari", "dt_code": "629", "st_nm": "Tamil Nadu", "st_code": "33", "year": "2011_c"}, "geometry": {"type": "Polygon", "coordinates": [[[77.58916251768326, 8.139752791196148], [77.55552038624664, 8.076514089138806], [77.44541886518135, 8.094385896241969], [77.23286176201361, 8.180995422972675], [77.09829323626714, 8.292350528769298], [77.26191633007251, 8.506812214007237], [77.26956226903538, 8.578299442419883], [77.43930211401106, 8.506812214007237], [77.48976531116598, 8.38858333624786], [77.56316632520951, 8.275853476058687], [77.54022850832091, 8.160374107084412], [77.58916251768326, 8.139752791196148]]]}}, {"type": "Feature", "properties": {"district": "Viluppuram", "dt_code": "607", "st_nm": "Tamil Nadu", "st_code": "33", "year": "2019"}, "geometry": {"type": "Polygon", "coordinates": [[[79.17187188299695, 12.03030772211519], [79.2789150284771, 12.1251657752012], [79.21010157781129, 12.166408406977727], [79.2498604604182, 12.32313040772853], [79.23151020690732, 12.442734039880458], [79.38289979837211, 12.442734039880458], [79.45171324903792, 12.373996320252914], [79.63980334752448, 12.345126478009345], [79.79883887795212, 12.336877951654039], [79.87376907978823, 12.243394652960578], [80.0083376055347, 12.254392688100985], [79.88447339433625, 12.06467658192896], [79.85694801406993, 12.0495542836109], [79.85694801406993, 12.006936897441824], [79.84012694835161, 11.956070984917439], [79.78507618781896, 11.960195248095093], [79.68567898130168, 11.880459493327141], [79.68873735688683, 11.808972264914495], [79.68109141792397, 11.796599475381536], [79.46853431475623, 11.872210966971835], [79.43183380773446, 11.782851931456026], [79.30338203315827, 11.874960475756936], [79.21927670456672, 11.874960475756936], [79.23762695807761, 11.951946721739787], [79.17187188299695, 12.03030772211519]]]}}, {"type": "Feature", "properties": {"district": "Cuddalore", "dt_code": "617", "st_nm": "Tamil Nadu", "st_code": "33", "year": "2011_c"}, "geometry": {"type": "Polygon", "coordinates": [[[79.1688135074118, 11.378674140046062], [78.96237315541437, 11.40479447350453], [78.87826782682282, 11.507901052945847], [78.92414346060002, 11.567015491825536], [79.01895310373959, 11.594510579676554], [79.18410538533753, 11.58626205332125], [79.24833127262563, 11.64950075537859], [79.2957360941954, 11.635753211453082], [79.38442898616468, 11.68112010640726], [79.44406731007506, 11.665997808089202], [79.43183380773446, 11.782851931456026], [79.46853431475623, 11.872210966971835], [79.68109141792397, 11.796599475381536], [79.68873735688683, 11.808972264914495], [79.68567898130168, 11.880459493327141], [79.80801400470757, 11.844715879120816], [79.806484816915, 11.83371784398041], [79.79578050236698, 11.785601440241129], [79.76060918313779, 11.623380421920123], [79.76672593430808, 11.521648596871357], [79.81260156808528, 11.424041035000243], [79.64286172310962, 11.283816086960051], [79.59851527712499, 11.217827876117607], [79.52664345087402, 11.183459016303836], [79.45783000020822, 11.150464910882615], [79.50982238515572, 11.228825911258015], [79.49758888281512, 11.314060683596171], [79.3890165495424, 11.367676104905655], [79.36760792044637, 11.418542017430038], [79.1688135074118, 11.378674140046062]]]}}, {"type": "Feature", "properties": {"district": "Pudukkottai", "dt_code": "621", "st_nm": "Tamil Nadu", "st_code": "33", "year": "2011_c"}, "geometry": {"type": "Polygon", "coordinates": [[[78.50514600543485, 10.376478187876458], [78.45927037165765, 10.611561189002662], [78.55102163921207, 10.685797926200411], [78.62748102884075, 10.703669733303572], [78.75899117900207, 10.652803820779189], [78.8736802634451, 10.705044487696123], [78.91802670942972, 10.67067562788235], [79.06941630089452, 10.672050382274902], [79.13211300039004, 10.632182504890926], [79.18563457313012, 10.542823469375117], [79.13211300039004, 10.497456574420937], [79.1519924416935, 10.34898310002544], [79.11529193467172, 10.234878485443716], [79.2269226435296, 10.137270923572602], [79.25138964821078, 10.050661396841896], [79.12446706142717, 9.882941360950685], [79.12140868584201, 9.880191852165584], [79.11987949804944, 9.852696764314565], [79.1168211224643, 9.849947255529464], [79.04036173283562, 9.865069553847524], [78.99142772347327, 9.943430554222925], [78.93026021177032, 10.021791554598327], [78.95931477982921, 10.096028291796076], [78.91343914605201, 10.144144695535356], [78.70852798184714, 10.175764046564026], [78.65194803352192, 10.252750292546878], [78.52196707115317, 10.326987029744625], [78.50514600543485, 10.376478187876458]]]}}, {"type": "Feature", "properties": {"district": "Sivaganga", "dt_code": "622", "st_nm": "Tamil Nadu", "st_code": "33", "year": "2011_c"}, "geometry": {"type": "Polygon", "coordinates": [[[78.37822341865125, 10.310489977034015], [78.44856605710963, 10.40947229329768], [78.50514600543485, 10.376478187876458], [78.52196707115317, 10.326987029744625], [78.65194803352192, 10.252750292546878], [78.70852798184714, 10.175764046564026], [78.91343914605201, 10.144144695535356], [78.95931477982921, 10.096028291796076], [78.93026021177032, 10.021791554598327], [78.99142772347327, 9.943430554222925], [78.8323921930456, 9.834824957211405], [78.72687823535803, 9.870568571417728], [78.72534904756546, 9.711097061881823], [78.79875006160898, 9.695974763563765], [78.82168787849758, 9.5997419560852], [78.72687823535803, 9.588743920944793], [78.65653559689964, 9.546126534775716], [78.42868661580617, 9.609365236833057], [78.33999372383691, 9.65885639496489], [78.310939155778, 9.722095097022232], [78.20848357367558, 9.781209535901919], [78.13661174742461, 9.761962974406208], [78.15190362535036, 9.87469283459538], [78.30940996798543, 9.865069553847524], [78.3170559069483, 9.926933501512314], [78.4562119960725, 9.968176133288843], [78.45162443269479, 10.11939911646944], [78.37822341865125, 10.310489977034015]]]}}, {"type": "Feature", "properties": {"district": "Ramanathapuram", "dt_code": "626", "st_nm": "Tamil Nadu", "st_code": "33", "year": "2011_c"}, "geometry": {"type": "Polygon", "coordinates": [[[78.28035539992653, 9.284923200191045], [78.36293154072551, 9.349536656640938], [78.24365489290477, 9.381156007669608], [78.21918788822359, 9.44714421851205], [78.33081859708146, 9.46226651683011], [78.37822341865125, 9.577745885804386], [78.42868661580617, 9.609365236833057], [78.65653559689964, 9.546126534775716], [78.72687823535803, 9.588743920944793], [78.82168787849758, 9.5997419560852], [78.79875006160898, 9.695974763563765], [78.72534904756546, 9.711097061881823], [78.72687823535803, 9.870568571417728], [78.8323921930456, 9.834824957211405], [78.99142772347327, 9.943430554222925], [79.04036173283562, 9.865069553847524], [79.1168211224643, 9.849947255529464], [78.98072340892524, 9.68910099160101], [78.93026021177032, 9.595617692907549], [78.89967645591885, 9.469140288792866], [78.9837817845104, 9.359159937388794], [79.06482873751679, 9.298670744116555], [79.15810919286379, 9.284923200191045], [79.33549497680232, 9.311043533649514], [79.30338203315827, 9.245055322807069], [79.20398482664099, 9.278049428228291], [79.08929574219798, 9.260177621125129], [78.98225259671781, 9.273925165050638], [78.87215107565252, 9.257428112340028], [78.57854701947839, 9.130950708225345], [78.42409905242846, 9.117203164299836], [78.38434016982154, 9.09383233962647], [78.27423864875624, 9.148822515328506], [78.28035539992653, 9.284923200191045]]]}}, {"type": "Feature", "properties": {"district": "Nagapattinam", "dt_code": "618", "st_nm": "Tamil Nadu", "st_code": "33", "year": "2011_c"}, "geometry": {"type": "MultiPolygon", "coordinates": [[[[79.47159269034137, 10.315988994604218], [79.50064725840028, 10.369604415913704], [79.63062822076903, 10.377852942269008], [79.71473354936057, 10.526326416664507], [79.66732872779079, 10.574442820403787], [79.6841497935091, 10.732539575547142], [79.65203684986506, 10.824648119848051], [79.66885791558337, 10.914007155363858], [79.72390867611603, 10.92912945368192], [79.81871831925558, 10.879638295550087], [79.84930207510706, 10.827397628633154], [79.87223989199566, 10.359981135165848], [79.86000638965507, 10.282994889182998], [79.76825512210065, 10.271996854042591], [79.47159269034137, 10.315988994604218]]], [[[79.51593913632601, 10.970372085458447], [79.55263964334777, 11.12984359499435], [79.52664345087402, 11.183459016303836], [79.59851527712499, 11.217827876117607], [79.64286172310962, 11.283816086960051], [79.81260156808528, 11.424041035000243], [79.85694801406993, 11.17658524434108], [79.85083126289963, 10.985494383776505], [79.7483756807972, 10.996492418916914], [79.65050766207249, 11.012989471627524], [79.51593913632601, 10.970372085458447]]]]}}, {"type": "Feature", "properties": {"district": "Kallakurichi", "dt_code": "729", "st_nm": "Tamil Nadu", "st_code": "33", "year": "2019"}, "geometry": {"type": "Polygon", "coordinates": [[[78.71770310860259, 11.983566072768458], [78.7574619912095, 12.011061160619477], [78.91343914605201, 12.015185423797128], [78.95931477982921, 12.068800845106614], [79.12599624921974, 12.01930968697478], [79.17187188299695, 12.03030772211519], [79.23762695807761, 11.951946721739787], [79.21927670456672, 11.874960475756936], [79.30338203315827, 11.874960475756936], [79.43183380773446, 11.782851931456026], [79.44406731007506, 11.665997808089202], [79.38442898616468, 11.68112010640726], [79.2957360941954, 11.635753211453082], [79.24833127262563, 11.64950075537859], [79.18410538533753, 11.58626205332125], [79.01895310373959, 11.594510579676554], [78.92414346060002, 11.567015491825536], [78.87826782682282, 11.507901052945847], [78.84309650759363, 11.523023351263907], [78.78651655926839, 11.613757141172266], [78.80486681277928, 11.687993878370015], [78.70088204288427, 11.692118141547667], [78.64277290676648, 11.769104387530518], [78.69323610392141, 11.851589651083572], [78.62748102884075, 11.869461458186734], [78.70852798184714, 11.898331300430304], [78.71770310860259, 11.983566072768458]]]}}, {"type": "Feature", "properties": {"district": "Tenkasi", "dt_code": "0", "st_nm": "Tamil Nadu", "st_code": "33", "year": "2019"}, "geometry": {"type": "Polygon", "coordinates": [[[77.33990490749376, 9.419649130661034], [77.43471455063333, 9.390779288417464], [77.50811556467687, 9.331664849537777], [77.708439165504, 9.290422217761249], [77.8475952546282, 9.245055322807069], [77.8598287569688, 9.198313673460339], [77.67479703406738, 9.1378244801881], [77.70232241433371, 9.06358774299035], [77.62433383691246, 9.056713971027596], [77.56775388858723, 8.788636864480171], [77.46835668206995, 8.812007689153537], [77.44541886518135, 8.741895215133441], [77.36131353658979, 8.750143741488746], [77.303204400472, 8.791386373265272], [77.25579957890221, 8.87937065438853], [77.1931028794067, 8.92611230373526], [77.14875643342207, 9.009972321680866], [77.20380719395472, 9.070461514953106], [77.2680330812428, 9.15294677850616], [77.28179577137597, 9.298670744116555], [77.33990490749376, 9.419649130661034]]]}}, {"type": "Feature", "properties": {"district": "Tirunelveli", "dt_code": "628", "st_nm": "Tamil Nadu", "st_code": "33", "year": "2019"}, "geometry": {"type": "Polygon", "coordinates": [[[77.70232241433371, 9.06358774299035], [77.68855972420054, 9.00034904093301], [77.80477799643614, 8.87799589999598], [77.82159906215445, 8.779013583732315], [77.81548231098415, 8.563177144101825], [77.85065363021334, 8.35696398521919], [77.9699302780341, 8.334967914938375], [77.8414785034579, 8.251107896992771], [77.79407368188812, 8.163123615869512], [77.58916251768326, 8.139752791196148], [77.54022850832091, 8.160374107084412], [77.56316632520951, 8.275853476058687], [77.48976531116598, 8.38858333624786], [77.43930211401106, 8.506812214007237], [77.26956226903538, 8.578299442419883], [77.1701650625181, 8.741895215133441], [77.19921963057699, 8.770765057377009], [77.25579957890221, 8.87937065438853], [77.303204400472, 8.791386373265272], [77.36131353658979, 8.750143741488746], [77.44541886518135, 8.741895215133441], [77.46835668206995, 8.812007689153537], [77.56775388858723, 8.788636864480171], [77.62433383691246, 9.056713971027596], [77.70232241433371, 9.06358774299035]]]}}, {"type": "Feature", "properties": {"district": "Vellore", "dt_code": "605", "st_nm": "Tamil Nadu", "st_code": "33", "year": "2019"}, "geometry": {"type": "Polygon", "coordinates": [[[79.20857239001872, 12.78504788362563], [79.06482873751679, 12.746554760634206], [78.9715482821698, 12.670943269043907], [78.89814726812628, 12.688815076147069], [78.85838838551936, 12.633824900445033], [78.76816630575752, 12.680566549791763], [78.80792518836444, 12.805669199513895], [78.78192899589068, 12.846911831290422], [78.65959397248479, 12.864783638393583], [78.60301402415956, 12.84416232250532], [78.62136427767045, 12.991261042508267], [78.7513452400392, 13.054499744565607], [78.89203051695598, 13.095742376342134], [78.9944860990584, 13.086119095594277], [79.1626967562415, 13.020130884751834], [79.23456858249247, 13.10536565708999], [79.22845183132218, 13.157606324006924], [79.29420690640283, 13.051750235780506], [79.26668152613651, 12.985762024938062], [79.18869294871526, 12.912900042132865], [79.20857239001872, 12.78504788362563]]]}}, {"type": "Feature", "properties": {"district": "Ranipet", "dt_code": "0", "st_nm": "Tamil Nadu", "st_code": "33", "year": "2019"}, "geometry": {"type": "Polygon", "coordinates": [[[79.28350259185483, 13.123237464193153], [79.35078685472806, 13.062748270920913], [79.45018406124535, 13.092992867557033], [79.48229700488939, 13.139734516903763], [79.63062822076903, 13.145233534473967], [79.64744928648734, 13.19884895578345], [79.7361421784566, 13.16722960475478], [79.73767136624919, 13.065497779706014], [79.78966375119668, 13.024255147929487], [79.56793152127351, 12.899152498207357], [79.56028558231064, 12.853785603253176], [79.47312187813395, 12.874406919141439], [79.45018406124535, 12.670943269043907], [79.20857239001872, 12.78504788362563], [79.18869294871526, 12.912900042132865], [79.26668152613651, 12.985762024938062], [79.29420690640283, 13.051750235780506], [79.22845183132218, 13.157606324006924], [79.28350259185483, 13.123237464193153]]]}}, {"type": "Feature", "properties": {"district": "Tirupathur", "dt_code": "0", "st_nm": "Tamil Nadu", "st_code": "33", "year": "2019"}, "geometry": {"type": "Polygon", "coordinates": [[[78.6473604701442, 12.258516951278636], [78.56784270493037, 12.387743864178422], [78.43633255476904, 12.394617636141177], [78.41186555008787, 12.626951128482279], [78.59230970961156, 12.78229837484053], [78.60301402415956, 12.84416232250532], [78.65959397248479, 12.864783638393583], [78.78192899589068, 12.846911831290422], [78.80792518836444, 12.805669199513895], [78.76816630575752, 12.680566549791763], [78.85838838551936, 12.633824900445033], [78.75899117900207, 12.442734039880458], [78.71005716963973, 12.303883846232818], [78.6473604701442, 12.258516951278636]]]}}, {"type": "Feature", "properties": {"district": "Kancheepuram", "dt_code": "604", "st_nm": "Tamil Nadu", "st_code": "33", "year": "2019"}, "geometry": {"type": "Polygon", "coordinates": [[[79.78966375119668, 13.024255147929487], [79.82177669484074, 12.966515463442349], [79.89059014550654, 12.944519393161535], [79.99457491540154, 13.046251218210301], [80.08020943178568, 13.016006621574181], [80.10467643646685, 12.955517428301942], [80.05268405151935, 12.838663304935118], [79.95634522058721, 12.790546901195835], [79.90894039901742, 12.798795427551141], [79.92423227694316, 12.63245014605248], [79.8233058826333, 12.620077356519523], [79.74378811741948, 12.532093075396265], [79.72390867611603, 12.587083251098303], [79.63062822076903, 12.63107539165993], [79.74072974183433, 12.69431409371727], [79.74531730521205, 12.743805251849103], [79.56028558231064, 12.853785603253176], [79.56793152127351, 12.899152498207357], [79.78966375119668, 13.024255147929487]]]}}, {"type": "Feature", "properties": {"district": "Chengalpattu", "dt_code": "0", "st_nm": "Tamil Nadu", "st_code": "33", "year": "2019"}, "geometry": {"type": "Polygon", "coordinates": [[[80.08020943178568, 13.016006621574181], [80.12761425335545, 13.033878428677344], [80.19642770402126, 12.959641691479595], [80.1826650138881, 12.868907901571237], [80.24994927676134, 12.857909866430829], [80.25453684013907, 12.779548866055428], [80.1658439481698, 12.529343566611164], [80.13831856790347, 12.411114688851786], [80.0083376055347, 12.254392688100985], [79.87376907978823, 12.243394652960578], [79.79883887795212, 12.336877951654039], [79.63980334752448, 12.345126478009345], [79.7070876103977, 12.41523895202944], [79.74378811741948, 12.532093075396265], [79.8233058826333, 12.620077356519523], [79.92423227694316, 12.63245014605248], [79.90894039901742, 12.798795427551141], [79.95634522058721, 12.790546901195835], [80.05268405151935, 12.838663304935118], [80.10467643646685, 12.955517428301942], [80.08020943178568, 13.016006621574181]]]}}], "metadata": {"source": "udit-001/india-maps-data (Census 2011)", "url": "https://github.com/udit-001/india-maps-data", "license": "ODbL (Open Database License)", "feature_count": 38}}