{"type": "FeatureCollection", "features": [{"type": "Feature", "properties": {"district": "North Tripura", "dt_code": "292", "st_nm": "Tripura", "st_code": "16", "year": "2011_c"}, "geometry": {"type": "Polygon", "coordinates": [[[92.29536151886364, 24.245000499929915], [92.33053283809284, 24.183136552265125], [92.31218258458196, 24.05253488497279], [92.32441608692254, 23.913684691325148], [92.25713182404931, 23.813327620668932], [92.26477776301218, 23.726718093938228], [92.1760848710429, 23.707471532442515], [92.15467624194687, 23.851820743660358], [92.08433360348849, 23.98929618291545], [92.14244273960628, 24.040162095439833], [92.20361025130923, 24.181761797872575], [92.06904172556276, 24.271120833388384], [92.07057091335533, 24.3769769216148], [92.13938436402114, 24.425093325354084], [92.15620542973944, 24.5254503960103], [92.21431456585725, 24.508953343299687], [92.26019019963445, 24.35910511451164], [92.21890212923496, 24.286243131706442], [92.29536151886364, 24.245000499929915]]]}}, {"type": "Feature", "properties": {"district": "Dhalai", "dt_code": "291", "st_nm": "Tripura", "st_code": "16", "year": "2011_c"}, "geometry": {"type": "Polygon", "coordinates": [[[92.08433360348849, 23.98929618291545], [92.15467624194687, 23.851820743660358], [92.1760848710429, 23.707471532442515], [92.11950492271768, 23.73221711150843], [92.0598665988073, 23.64285807599262], [91.93753157540142, 23.689599725339352], [91.97423208242319, 23.480637057671615], [91.94211913877913, 23.42702163636213], [91.86565974915047, 23.446268197857844], [91.80449223744752, 23.51500591748539], [91.76779173042576, 23.688224970946802], [91.78461279614406, 23.818826638239138], [91.7479122891223, 23.99479520048565], [91.75555822808516, 24.1418939204886], [91.74638310132971, 24.245000499929915], [91.85954299798016, 24.183136552265125], [91.92376888526826, 24.108899815067375], [91.96964451904546, 24.075905709646154], [92.07362928894047, 24.095152271141867], [92.08433360348849, 23.98929618291545]]]}}, {"type": "Feature", "properties": {"district": "Sipahijala", "dt_code": "707", "st_nm": "Tripura", "st_code": "16", "year": "update2014"}, "geometry": {"type": "Polygon", "coordinates": [[[91.42066610151154, 23.374780969445197], [91.31973970720168, 23.277173407574082], [91.25551381991359, 23.48613607524182], [91.16070417677403, 23.594741672253342], [91.1561166133963, 23.741840392256286], [91.22645925185469, 23.73221711150843], [91.38855315786749, 23.772084988892406], [91.47418767425162, 23.74733940982649], [91.56440975401345, 23.787207287210467], [91.56899731739118, 23.75971219935945], [91.39772828462293, 23.585118391505485], [91.37631965552691, 23.444893443465293], [91.42066610151154, 23.374780969445197]]]}}, {"type": "Feature", "properties": {"district": "Gomati", "dt_code": "709", "st_nm": "Tripura", "st_code": "16", "year": "update2014"}, "geometry": {"type": "Polygon", "coordinates": [[[91.76779173042576, 23.688224970946802], [91.80449223744752, 23.51500591748539], [91.83813436888414, 23.370656706267543], [91.7586166036703, 23.266175372433676], [91.60722701220553, 23.403650811688767], [91.42066610151154, 23.374780969445197], [91.37631965552691, 23.444893443465293], [91.39772828462293, 23.585118391505485], [91.56899731739118, 23.75971219935945], [91.71732853327082, 23.767960725714754], [91.76779173042576, 23.688224970946802]]]}}, {"type": "Feature", "properties": {"district": "Khowai", "dt_code": "708", "st_nm": "Tripura", "st_code": "16", "year": "update2014"}, "geometry": {"type": "Polygon", "coordinates": [[[91.75555822808516, 24.1418939204886], [91.7479122891223, 23.99479520048565], [91.78461279614406, 23.818826638239138], [91.76779173042576, 23.688224970946802], [91.71732853327082, 23.767960725714754], [91.56899731739118, 23.75971219935945], [91.56440975401345, 23.787207287210467], [91.55064706388029, 23.909560428147497], [91.4696001108739, 24.062158165720646], [91.63016482909413, 24.103400797497173], [91.65616102156787, 24.185886061050226], [91.75555822808516, 24.1418939204886]]]}}, {"type": "Feature", "properties": {"district": "West Tripura", "dt_code": "289", "st_nm": "Tripura", "st_code": "16", "year": "2011_c"}, "geometry": {"type": "Polygon", "coordinates": [[[91.56440975401345, 23.787207287210467], [91.47418767425162, 23.74733940982649], [91.38855315786749, 23.772084988892406], [91.22645925185469, 23.73221711150843], [91.24786788095072, 23.829824673379544], [91.21881331289183, 23.879315831511377], [91.29986026589822, 23.997544709270752], [91.37326127994176, 24.001668972448407], [91.4696001108739, 24.062158165720646], [91.55064706388029, 23.909560428147497], [91.56440975401345, 23.787207287210467]]]}}, {"type": "Feature", "properties": {"district": "South Tripura", "dt_code": "290", "st_nm": "Tripura", "st_code": "16", "year": "2011_c"}, "geometry": {"type": "Polygon", "coordinates": [[[91.31973970720168, 23.277173407574082], [91.42066610151154, 23.374780969445197], [91.60722701220553, 23.403650811688767], [91.7586166036703, 23.266175372433676], [91.81519655199553, 23.145196985889196], [91.80602142524009, 23.062711722336143], [91.72038690885597, 22.987100230745845], [91.57664325635405, 22.965104160465028], [91.54300112491742, 22.999473020278803], [91.50782980568823, 23.183690108880622], [91.45430823294816, 23.260676354863474], [91.31973970720168, 23.277173407574082]]]}}, {"type": "Feature", "properties": {"district": "Unokoti", "dt_code": "710", "st_nm": "Tripura", "st_code": "16", "year": "update2014"}, "geometry": {"type": "Polygon", "coordinates": [[[92.07057091335533, 24.3769769216148], [92.06904172556276, 24.271120833388384], [92.20361025130923, 24.181761797872575], [92.14244273960628, 24.040162095439833], [92.08433360348849, 23.98929618291545], [92.07362928894047, 24.095152271141867], [91.96964451904546, 24.075905709646154], [91.92376888526826, 24.108899815067375], [91.94211913877913, 24.262872307033078], [91.92223969747567, 24.338483798623376], [91.97117370683804, 24.382475939185007], [92.07057091335533, 24.3769769216148]]]}}], "metadata": {"source": "udit-001/india-maps-data (Census 2011)", "url": "https://github.com/udit-001/india-maps-data", "license": "ODbL (Open Database License)", "feature_count": 9}}