{"type": "FeatureCollection", "features": [{"type": "Feature", "properties": {"district": "Adilabad", "dt_code": "532", "st_nm": "Telangana", "st_code": "36", "year": "2016_c"}, "geometry": {"type": "Polygon", "coordinates": [[[78.84156731980104, 19.761926425821436], [78.85991757331193, 19.689064443016242], [78.95625640424407, 19.65607033759502], [78.93637696294061, 19.5502142493686], [78.92720183618518, 19.462229968245342], [78.85380082214164, 19.447107669927284], [78.8553300099342, 19.27801287964352], [78.75899117900207, 19.27801287964352], [78.67488585041053, 19.316506002634945], [78.57090108051553, 19.28626140599883], [78.50973356881258, 19.21477417758618], [78.38892773319927, 19.176281054594753], [78.30023484123, 19.258766318147806], [78.19319169574985, 19.316506002634945], [78.21154194926072, 19.42786110843157], [78.30940996798543, 19.48147652974105], [78.30635159240029, 19.606579179463186], [78.27576783654881, 19.691813951801343], [78.34305209942205, 19.713810022082157], [78.36446072851808, 19.78117298731715], [78.30635159240029, 19.911774654609488], [78.3812817942364, 19.880155303580814], [78.43174499139133, 19.814167092738373], [78.57548864389324, 19.818291355916024], [78.84156731980104, 19.761926425821436]]]}}, {"type": "Feature", "properties": {"district": "Hyderabad", "dt_code": "536", "st_nm": "Telangana", "st_code": "36", "year": "2016_c"}, "geometry": {"type": "Polygon", "coordinates": [[[78.52808382232345, 17.373978045960527], [78.45162443269479, 17.323112133436144], [78.39504448436955, 17.386350835493488], [78.40727798671014, 17.438591502410418], [78.51737950777544, 17.441341011195522], [78.52808382232345, 17.373978045960527]]]}}, {"type": "Feature", "properties": {"district": "Jagtial", "dt_code": "737", "st_nm": "Telangana", "st_code": "36", "year": "2016_c"}, "geometry": {"type": "Polygon", "coordinates": [[[79.3018528453657, 18.81609540374642], [79.22998101911475, 18.750107192903975], [79.1626967562415, 18.75560621047418], [79.110704371294, 18.66074815738817], [78.98684016009554, 18.667621929350922], [78.95778559203664, 18.576888139442566], [78.8507424465565, 18.58788617458297], [78.705469606262, 18.640126841499907], [78.67029828703281, 18.623629788789295], [78.58160539506353, 18.72261210505296], [78.54184651245663, 18.81472064935387], [78.53572976128633, 18.948071825431306], [78.63665615559619, 18.978316422067426], [78.69476529171398, 19.03193184337691], [78.76204955458722, 19.011310527488646], [78.8446256953862, 19.070424966368336], [78.94708127748862, 19.073174475153436], [79.02201147932473, 19.075923983938537], [79.08470817882025, 19.023683317021607], [79.11376274687915, 18.939823299076], [79.18257619754496, 18.868336070663354], [79.3018528453657, 18.81609540374642]]]}}, {"type": "Feature", "properties": {"district": "Jangaon", "dt_code": "752", "st_nm": "Telangana", "st_code": "36", "year": "2016_c"}, "geometry": {"type": "Polygon", "coordinates": [[[79.51440994853344, 17.794652890081103], [79.48994294385226, 17.662676468396217], [79.57251908465123, 17.621433836619687], [79.51135157294829, 17.58706497680592], [79.53887695321461, 17.523826274748576], [79.38289979837211, 17.51145348521562], [79.37066629603152, 17.48258364297205], [79.2559772115885, 17.471585607831642], [79.1519924416935, 17.58706497680592], [79.13058381259746, 17.672299749144074], [79.02506985490989, 17.7135423809206], [78.99142772347327, 17.793278135688553], [78.8675635122748, 17.824897486717223], [78.92108508501488, 17.8647653641012], [79.09235411778312, 17.873013890456505], [79.15352162948606, 17.992617522608434], [79.22845183132218, 17.991242768215884], [79.26821071392908, 17.952749645224458], [79.50370563398542, 17.8647653641012], [79.51440994853344, 17.794652890081103]]]}}, {"type": "Feature", "properties": {"district": "Mulugu", "dt_code": "780", "st_nm": "Telangana", "st_code": "36", "year": "2019"}, "geometry": {"type": "Polygon", "coordinates": [[[80.37228430016722, 18.611256999256334], [80.4548604409662, 18.630503560752047], [80.63683378828246, 18.52327271813308], [80.70564723894827, 18.439412700187475], [80.74846449714033, 18.308811032895136], [80.7561104361032, 18.169960839247498], [80.5420241451429, 18.116345417938014], [80.4319226240776, 18.059980487843426], [80.39216374147068, 18.08197655812424], [80.2698287180648, 17.943126364476598], [80.14902288245148, 18.08335131251679], [80.07868024399309, 18.070978522983832], [79.9915165398164, 18.108096891582708], [79.93646577928375, 18.08335131251679], [79.84012694835161, 18.132842470648626], [79.85388963848477, 18.259319874763307], [79.92270308915059, 18.40641859476625], [80.21630714532472, 18.389921542055642], [80.23159902325045, 18.5562668235543], [80.37228430016722, 18.611256999256334]]]}}, {"type": "Feature", "properties": {"district": "Jogulamba Gadwal", "dt_code": "744", "st_nm": "Telangana", "st_code": "36", "year": "2016_c"}, "geometry": {"type": "Polygon", "coordinates": [[[77.51423231584715, 15.927736424996983], [77.50046962571399, 16.221933865002875], [77.59375008106099, 16.342912251547354], [77.66103434393422, 16.362158813043067], [77.77572342837725, 16.30716863734103], [77.93170058321975, 16.19306402275931], [77.94699246114548, 16.118827285561558], [78.15802037652065, 15.951107249670349], [78.24824245628248, 15.971728565558612], [78.17484144223896, 15.857623950976889], [78.08309017468454, 15.841126898266277], [77.88735413723512, 15.905740354716169], [77.80324880864357, 15.874121003687499], [77.65950515614165, 15.885119038827906], [77.51423231584715, 15.927736424996983]]]}}, {"type": "Feature", "properties": {"district": "Kamareddy", "dt_code": "736", "st_nm": "Telangana", "st_code": "36", "year": "2016_c"}, "geometry": {"type": "Polygon", "coordinates": [[[77.55093282286893, 18.292313980184527], [77.52493663039517, 18.37204973495248], [77.58457495430554, 18.446286472150227], [77.59680845664613, 18.549393051591544], [77.73902292135548, 18.5562668235543], [77.78948611851041, 18.497152384674614], [77.93781733439005, 18.49165336710441], [78.0219226629816, 18.436663191402374], [78.0387437286999, 18.517773700562877], [78.26047595862308, 18.453160244112983], [78.38281098202897, 18.453160244112983], [78.44550768152449, 18.483404840749103], [78.52961301011604, 18.46553303364594], [78.5494924514195, 18.33630612074616], [78.52196707115317, 18.27856643625902], [78.56784270493037, 18.22220150616443], [78.56784270493037, 18.183708383173006], [78.4332741791839, 18.163087067284742], [78.38434016982154, 18.123219189900766], [78.31399753136316, 18.179584119995354], [78.17942900561668, 18.0970988564423], [78.07085667234395, 18.059980487843426], [77.97604702920438, 18.114970663545463], [77.89805845178313, 18.0915998388721], [77.86900388372423, 18.18920740074321], [77.76960667720695, 18.18783264635066], [77.72220185563717, 18.257945120370756], [77.60139602002386, 18.27581692747392], [77.55093282286893, 18.292313980184527]]]}}, {"type": "Feature", "properties": {"district": "Karimnagar", "dt_code": "534", "st_nm": "Telangana", "st_code": "36", "year": "2016_c"}, "geometry": {"type": "Polygon", "coordinates": [[[78.95778559203664, 18.576888139442566], [78.98684016009554, 18.667621929350922], [79.110704371294, 18.66074815738817], [79.22998101911475, 18.567264858694706], [79.23609777028504, 18.447661226542778], [79.30644040874343, 18.480655331964], [79.48535538047454, 18.385797278877988], [79.56640233348094, 18.424290401869413], [79.5633439578958, 18.263444137940958], [79.47312187813395, 18.230450032519737], [79.46241756358593, 18.164461821677293], [79.3018528453657, 18.13009296186352], [79.24527289704048, 18.183708383173006], [79.1626967562415, 18.15758804971454], [79.10764599570885, 18.22082675177188], [79.1336421881826, 18.271692664296264], [79.01895310373959, 18.317059559250445], [79.02506985490989, 18.366550717382275], [78.92261427280745, 18.475156314393796], [78.95778559203664, 18.576888139442566]]]}}, {"type": "Feature", "properties": {"district": "Khammam", "dt_code": "541", "st_nm": "Telangana", "st_code": "36", "year": "2016_c"}, "geometry": {"type": "Polygon", "coordinates": [[[80.87691627171652, 17.07015732520678], [80.84480332807247, 17.03991272857066], [80.69953048777798, 17.08390486913229], [80.58025383995724, 17.152642588759832], [80.50532363812113, 17.06878257081423], [80.36310917341179, 16.97667402651332], [80.53437820618004, 16.96155172819526], [80.60166246905327, 16.918934342026184], [80.56343277423893, 16.832324815295472], [80.56954952540923, 16.76771135884558], [80.3218211030123, 16.879066464642207], [80.30652922508656, 16.973924517728214], [80.18725257726582, 17.02066616707495], [80.05574242710449, 16.971175008943113], [80.04045054917876, 17.050910763711066], [79.8814150187511, 17.173263904648095], [79.90129446005456, 17.2543744138086], [79.80342644132985, 17.323112133436144], [79.9915165398164, 17.39872362502644], [80.05268405151935, 17.34648295810951], [80.10926399984457, 17.35885574764247], [80.22854064766531, 17.53070004671133], [80.20254445519156, 17.558195134562347], [80.36922592458208, 17.567818415310207], [80.4319226240776, 17.497705941290107], [80.44721450200333, 17.411096414559402], [80.50073607474341, 17.367104273997775], [80.59248734229783, 17.382226572315833], [80.68270942205967, 17.296991799977675], [80.85856601820564, 17.364354765212674], [80.87691627171652, 17.26537244894901], [80.94114215900461, 17.218630799602277], [80.87997464730167, 17.160891115115138], [80.87691627171652, 17.07015732520678]]]}}, {"type": "Feature", "properties": {"district": "Komaram Bheem", "dt_code": "733", "st_nm": "Telangana", "st_code": "36", "year": "2016_c"}, "geometry": {"type": "Polygon", "coordinates": [[[79.806484816915, 19.579084091612167], [79.8645939530328, 19.510346371984625], [79.94411171824662, 19.47047849460065], [79.97775384968324, 19.398991266188], [79.92881984032088, 19.158409247491594], [79.67650385454624, 19.19965187926812], [79.61380715505072, 19.27663812525097], [79.51746832411858, 19.28626140599883], [79.54805207997006, 19.20240138805322], [79.46241756358593, 19.172156791417102], [79.35078685472806, 19.210649914408528], [79.31561553549886, 19.09242103664915], [79.26668152613651, 19.03330659776946], [79.15046325390092, 19.09242103664915], [79.05718279855392, 19.209275160015977], [78.95319802865892, 19.249143037399953], [78.8553300099342, 19.27801287964352], [78.85380082214164, 19.447107669927284], [78.92720183618518, 19.462229968245342], [78.93637696294061, 19.5502142493686], [79.09694168116084, 19.53234244226544], [79.19022213650783, 19.459480459460238], [79.25291883600335, 19.592831635537678], [79.36607873265379, 19.576334582827066], [79.47159269034137, 19.500723091236765], [79.74378811741948, 19.60932868824829], [79.806484816915, 19.579084091612167]]]}}, {"type": "Feature", "properties": {"district": "Mahabubabad", "dt_code": "751", "st_nm": "Telangana", "st_code": "36", "year": "2016_c"}, "geometry": {"type": "Polygon", "coordinates": [[[79.53887695321461, 17.523826274748576], [79.51135157294829, 17.58706497680592], [79.57251908465123, 17.621433836619687], [79.65356603765764, 17.628307608582446], [79.69179573247197, 17.68604729306958], [79.89364852109169, 17.730039433631212], [79.91046958681, 17.813899451576816], [79.99457491540154, 17.889510943167117], [79.9915165398164, 18.108096891582708], [80.07868024399309, 18.070978522983832], [80.14902288245148, 18.08335131251679], [80.2698287180648, 17.943126364476598], [80.24842008896877, 17.824897486717223], [80.25912440351678, 17.750660749519476], [80.20254445519156, 17.558195134562347], [80.22854064766531, 17.53070004671133], [80.10926399984457, 17.35885574764247], [80.05268405151935, 17.34648295810951], [79.9915165398164, 17.39872362502644], [79.80342644132985, 17.323112133436144], [79.75143405638235, 17.439966256802972], [79.53887695321461, 17.523826274748576]]]}}, {"type": "Feature", "properties": {"district": "Mahabubnagar", "dt_code": "538", "st_nm": "Telangana", "st_code": "36", "year": "2016_c"}, "geometry": {"type": "Polygon", "coordinates": [[[77.75125642369606, 16.403401444819593], [77.78795693071783, 16.573870989495905], [77.72678941901489, 16.850196622398634], [77.76043155045151, 17.002794359971787], [77.91487951750145, 16.921683850811284], [77.998984846093, 16.97942353529842], [78.02498103856675, 17.00966813193454], [78.27576783654881, 16.923058605203835], [78.34916885059235, 16.780084148378542], [78.34916885059235, 16.682476586507427], [78.23447976614932, 16.741591025387116], [78.12131986949888, 16.593117550991618], [78.00663078505586, 16.609614603702227], [77.98216378037468, 16.50238376108326], [77.91640870529402, 16.44189456781102], [77.75125642369606, 16.403401444819593]]]}}, {"type": "Feature", "properties": {"district": "Mancherial", "dt_code": "735", "st_nm": "Telangana", "st_code": "36", "year": "2016_c"}, "geometry": {"type": "Polygon", "coordinates": [[[79.92881984032088, 19.158409247491594], [79.8584772018625, 19.102044317397006], [79.9395241548689, 19.03468135216201], [79.96093278396494, 18.865586561878253], [79.91352796239515, 18.825718684494277], [79.86612314082537, 18.835341965242133], [79.80954319250014, 18.703365543557247], [79.67956223013138, 18.673120946921127], [79.6321574085616, 18.729485877015712], [79.4303046199419, 18.84771475477509], [79.3018528453657, 18.81609540374642], [79.18257619754496, 18.868336070663354], [79.11376274687915, 18.939823299076], [79.08470817882025, 19.023683317021607], [79.02201147932473, 19.075923983938537], [78.94708127748862, 19.073174475153436], [78.87826782682282, 19.159784001884145], [78.95319802865892, 19.249143037399953], [79.05718279855392, 19.209275160015977], [79.15046325390092, 19.09242103664915], [79.26668152613651, 19.03330659776946], [79.31561553549886, 19.09242103664915], [79.35078685472806, 19.210649914408528], [79.46241756358593, 19.172156791417102], [79.54805207997006, 19.20240138805322], [79.51746832411858, 19.28626140599883], [79.61380715505072, 19.27663812525097], [79.67650385454624, 19.19965187926812], [79.92881984032088, 19.158409247491594]]]}}, {"type": "Feature", "properties": {"district": "Medak", "dt_code": "535", "st_nm": "Telangana", "st_code": "36", "year": "2016_c"}, "geometry": {"type": "Polygon", "coordinates": [[[77.89805845178313, 18.0915998388721], [77.97604702920438, 18.114970663545463], [78.07085667234395, 18.059980487843426], [78.17942900561668, 18.0970988564423], [78.31399753136316, 18.179584119995354], [78.38434016982154, 18.123219189900766], [78.4332741791839, 18.163087067284742], [78.56784270493037, 18.183708383173006], [78.57854701947839, 18.106722137190157], [78.53114219790861, 17.951374890831907], [78.54031732466404, 17.83727027625018], [78.49902925426456, 17.68604729306958], [78.44856605710963, 17.703919100172744], [78.31858509474088, 17.74378697755672], [78.32011428253345, 17.680548275499376], [78.1488452497652, 17.80565092522151], [78.09991124040285, 17.815274205969367], [78.07850261130682, 17.904633241485175], [77.93628814659748, 17.889510943167117], [77.8246574377396, 17.98711850503823], [77.89805845178313, 18.0915998388721]]]}}, {"type": "Feature", "properties": {"district": "Medchal Malkajgiri", "dt_code": "742", "st_nm": "Telangana", "st_code": "36", "year": "2016_c"}, "geometry": {"type": "Polygon", "coordinates": [[[78.52808382232345, 17.373978045960527], [78.51737950777544, 17.441341011195522], [78.40727798671014, 17.438591502410418], [78.34763966279978, 17.522451520356025], [78.3812817942364, 17.642055152507954], [78.44856605710963, 17.703919100172744], [78.49902925426456, 17.68604729306958], [78.66876909924024, 17.69842008260254], [78.72381985977287, 17.668175485966422], [78.6764150382031, 17.57606694166551], [78.7513452400392, 17.471585607831642], [78.73758254990605, 17.386350835493488], [78.52808382232345, 17.373978045960527]]]}}, {"type": "Feature", "properties": {"district": "Nagarkurnool", "dt_code": "746", "st_nm": "Telangana", "st_code": "36", "year": "2016_c"}, "geometry": {"type": "Polygon", "coordinates": [[[79.21010157781129, 16.356659795472865], [79.21468914118901, 16.226058128180526], [79.15810919286379, 16.209561075469917], [79.0296574182876, 16.241180426498588], [78.90426401929656, 16.18344074201145], [78.92261427280745, 16.12295154873921], [78.74064092549119, 16.008846934157486], [78.60148483636699, 16.084458425747783], [78.55102163921207, 16.043215793971257], [78.4103363622953, 16.07483514499993], [78.25588839524536, 16.008846934157486], [78.20236682250528, 16.054213829111667], [78.22683382718645, 16.175192215656146], [78.19625007133499, 16.208186321077367], [78.31399753136316, 16.38003062014623], [78.09991124040285, 16.487261462765197], [78.12131986949888, 16.593117550991618], [78.23447976614932, 16.741591025387116], [78.34916885059235, 16.682476586507427], [78.34916885059235, 16.780084148378542], [78.5372589490789, 16.82132678015507], [78.65194803352192, 16.76633660445303], [78.75440361562435, 16.74983955174242], [78.69782366729913, 16.619237884450087], [78.72381985977287, 16.539502129682134], [78.80027924940157, 16.513381796223666], [78.8553300099342, 16.55050016482254], [79.1519924416935, 16.399277181641942], [79.21010157781129, 16.356659795472865]]]}}, {"type": "Feature", "properties": {"district": "Nalgonda", "dt_code": "539", "st_nm": "Telangana", "st_code": "36", "year": "2016_c"}, "geometry": {"type": "Polygon", "coordinates": [[[79.67956223013138, 16.693474621647834], [79.54193532879977, 16.632985428375594], [79.4471256856602, 16.619237884450087], [79.4180711176013, 16.58074476145866], [79.25750639938107, 16.5656224631406], [79.21927670456672, 16.512007041831115], [79.21010157781129, 16.356659795472865], [79.1519924416935, 16.399277181641942], [78.8553300099342, 16.55050016482254], [78.80027924940157, 16.513381796223666], [78.72381985977287, 16.539502129682134], [78.69782366729913, 16.619237884450087], [78.75440361562435, 16.74983955174242], [78.80180843719414, 16.82682579772527], [78.72993661094317, 16.863944166324146], [78.84156731980104, 17.07153207959933], [78.8905013291634, 17.044036991748314], [78.95166884086635, 17.13202127287157], [78.98225259671781, 17.279119992874516], [79.10305843233114, 17.24200162427564], [79.20551401443356, 17.262622940163908], [79.25138964821078, 17.35885574764247], [79.45018406124535, 17.34510820371696], [79.52511426308145, 17.185636694181056], [79.59239852595469, 17.08390486913229], [79.61686553063586, 16.923058605203835], [79.66732872779079, 16.841948096043332], [79.67956223013138, 16.693474621647834]]]}}, {"type": "Feature", "properties": {"district": "Nirmal", "dt_code": "734", "st_nm": "Telangana", "st_code": "36", "year": "2016_c"}, "geometry": {"type": "Polygon", "coordinates": [[[77.94852164893805, 18.84359049159744], [77.84300769125048, 18.90820394804733], [77.79713205747328, 19.073174475153436], [77.8598287569688, 19.180405317772408], [77.86288713255394, 19.304133213101988], [77.94393408556034, 19.342626336093414], [78.04180210428505, 19.271139107680767], [78.17484144223896, 19.238145002259543], [78.19319169574985, 19.316506002634945], [78.30023484123, 19.258766318147806], [78.38892773319927, 19.176281054594753], [78.50973356881258, 19.21477417758618], [78.57090108051553, 19.28626140599883], [78.67488585041053, 19.316506002634945], [78.75899117900207, 19.27801287964352], [78.8553300099342, 19.27801287964352], [78.95319802865892, 19.249143037399953], [78.87826782682282, 19.159784001884145], [78.94708127748862, 19.073174475153436], [78.8446256953862, 19.070424966368336], [78.76204955458722, 19.011310527488646], [78.69476529171398, 19.03193184337691], [78.63665615559619, 18.978316422067426], [78.53572976128633, 18.948071825431306], [78.4562119960725, 18.954945597394058], [78.4103363622953, 19.004436755525894], [78.31399753136316, 18.950821334216407], [78.24059651731962, 19.01680954505885], [78.05250641883306, 18.939823299076], [78.03721454090733, 18.87795935141121], [77.94852164893805, 18.84359049159744]]]}}, {"type": "Feature", "properties": {"district": "Nizamabad", "dt_code": "533", "st_nm": "Telangana", "st_code": "36", "year": "2016_c"}, "geometry": {"type": "Polygon", "coordinates": [[[77.73902292135548, 18.5562668235543], [77.72984779460003, 18.66624717495837], [77.78795693071783, 18.682744227668984], [77.83994931566534, 18.805097368606013], [77.94852164893805, 18.84359049159744], [78.03721454090733, 18.87795935141121], [78.05250641883306, 18.939823299076], [78.24059651731962, 19.01680954505885], [78.31399753136316, 18.950821334216407], [78.4103363622953, 19.004436755525894], [78.4562119960725, 18.954945597394058], [78.53572976128633, 18.948071825431306], [78.54184651245663, 18.81472064935387], [78.58160539506353, 18.72261210505296], [78.67029828703281, 18.623629788789295], [78.55408001479721, 18.53014649009583], [78.52961301011604, 18.46553303364594], [78.44550768152449, 18.483404840749103], [78.38281098202897, 18.453160244112983], [78.26047595862308, 18.453160244112983], [78.0387437286999, 18.517773700562877], [78.0219226629816, 18.436663191402374], [77.93781733439005, 18.49165336710441], [77.78948611851041, 18.497152384674614], [77.73902292135548, 18.5562668235543]]]}}, {"type": "Feature", "properties": {"district": "Peddapalli", "dt_code": "738", "st_nm": "Telangana", "st_code": "36", "year": "2016_c"}, "geometry": {"type": "Polygon", "coordinates": [[[79.110704371294, 18.66074815738817], [79.1626967562415, 18.75560621047418], [79.22998101911475, 18.750107192903975], [79.3018528453657, 18.81609540374642], [79.4303046199419, 18.84771475477509], [79.6321574085616, 18.729485877015712], [79.67956223013138, 18.673120946921127], [79.80954319250014, 18.703365543557247], [79.83095182159617, 18.655249139817965], [79.79119293898925, 18.57276387626491], [79.7254378639086, 18.574138630657462], [79.67038710337594, 18.480655331964], [79.56640233348094, 18.424290401869413], [79.48535538047454, 18.385797278877988], [79.30644040874343, 18.480655331964], [79.23609777028504, 18.447661226542778], [79.22998101911475, 18.567264858694706], [79.110704371294, 18.66074815738817]]]}}, {"type": "Feature", "properties": {"district": "Rajanna Sircilla", "dt_code": "739", "st_nm": "Telangana", "st_code": "36", "year": "2016_c"}, "geometry": {"type": "Polygon", "coordinates": [[[78.67029828703281, 18.623629788789295], [78.705469606262, 18.640126841499907], [78.8507424465565, 18.58788617458297], [78.95778559203664, 18.576888139442566], [78.92261427280745, 18.475156314393796], [79.02506985490989, 18.366550717382275], [79.01895310373959, 18.317059559250445], [78.98836934788811, 18.259319874763307], [78.74981605224663, 18.22082675177188], [78.64277290676648, 18.256570365978206], [78.56784270493037, 18.22220150616443], [78.52196707115317, 18.27856643625902], [78.5494924514195, 18.33630612074616], [78.52961301011604, 18.46553303364594], [78.55408001479721, 18.53014649009583], [78.67029828703281, 18.623629788789295]]]}}, {"type": "Feature", "properties": {"district": "Ranga Reddy", "dt_code": "537", "st_nm": "Telangana", "st_code": "36", "year": "2016_c"}, "geometry": {"type": "Polygon", "coordinates": [[[78.40727798671014, 17.438591502410418], [78.39504448436955, 17.386350835493488], [78.45162443269479, 17.323112133436144], [78.52808382232345, 17.373978045960527], [78.73758254990605, 17.386350835493488], [78.75287442783178, 17.261248185771354], [78.81862950291244, 17.232378343527785], [78.77581224472038, 17.15126783436728], [78.84156731980104, 17.07153207959933], [78.72993661094317, 16.863944166324146], [78.80180843719414, 16.82682579772527], [78.75440361562435, 16.74983955174242], [78.65194803352192, 16.76633660445303], [78.5372589490789, 16.82132678015507], [78.34916885059235, 16.780084148378542], [78.27576783654881, 16.923058605203835], [78.02498103856675, 17.00966813193454], [77.998984846093, 16.97942353529842], [77.92252545646431, 17.063283553244027], [77.98980971933756, 17.103151430628003], [78.06932748455138, 17.231003589135234], [78.00510159726329, 17.32861115100635], [78.06321073338108, 17.44958953755083], [78.07085667234395, 17.496331186897557], [78.21765870043102, 17.438591502410418], [78.2880013388894, 17.431717730447666], [78.34763966279978, 17.522451520356025], [78.40727798671014, 17.438591502410418]]]}}, {"type": "Feature", "properties": {"district": "Sangareddy", "dt_code": "740", "st_nm": "Telangana", "st_code": "36", "year": "2016_c"}, "geometry": {"type": "Polygon", "coordinates": [[[77.44388967738877, 17.584315468020815], [77.45306480414422, 17.694295819424887], [77.53717013273577, 17.77953059176304], [77.58610414209812, 17.907382750270276], [77.65644678055651, 17.969246697935066], [77.54787444728377, 18.055856224665774], [77.5983376444387, 18.09297459326465], [77.56316632520951, 18.196081172705966], [77.60139602002386, 18.27581692747392], [77.72220185563717, 18.257945120370756], [77.76960667720695, 18.18783264635066], [77.86900388372423, 18.18920740074321], [77.89805845178313, 18.0915998388721], [77.8246574377396, 17.98711850503823], [77.93628814659748, 17.889510943167117], [78.07850261130682, 17.904633241485175], [78.09991124040285, 17.815274205969367], [78.1488452497652, 17.80565092522151], [78.32011428253345, 17.680548275499376], [78.31858509474088, 17.74378697755672], [78.44856605710963, 17.703919100172744], [78.3812817942364, 17.642055152507954], [78.34763966279978, 17.522451520356025], [78.2880013388894, 17.431717730447666], [78.21765870043102, 17.438591502410418], [78.07085667234395, 17.496331186897557], [78.06321073338108, 17.44958953755083], [77.9806345925821, 17.4839583973646], [77.93017139542718, 17.569193169702757], [77.82312824994703, 17.632431871760097], [77.6855013486154, 17.51145348521562], [77.4943528745437, 17.566443660917656], [77.46682749427738, 17.57744169605806], [77.44388967738877, 17.584315468020815]]]}}, {"type": "Feature", "properties": {"district": "Siddipet", "dt_code": "741", "st_nm": "Telangana", "st_code": "36", "year": "2016_c"}, "geometry": {"type": "Polygon", "coordinates": [[[79.22845183132218, 17.991242768215884], [79.15352162948606, 17.992617522608434], [79.09235411778312, 17.873013890456505], [78.92108508501488, 17.8647653641012], [78.8675635122748, 17.824897486717223], [78.8155711273273, 17.702544345780193], [78.72381985977287, 17.668175485966422], [78.66876909924024, 17.69842008260254], [78.49902925426456, 17.68604729306958], [78.54031732466404, 17.83727027625018], [78.53114219790861, 17.951374890831907], [78.57854701947839, 18.106722137190157], [78.56784270493037, 18.183708383173006], [78.56784270493037, 18.22220150616443], [78.64277290676648, 18.256570365978206], [78.74981605224663, 18.22082675177188], [78.98836934788811, 18.259319874763307], [79.01895310373959, 18.317059559250445], [79.1336421881826, 18.271692664296264], [79.10764599570885, 18.22082675177188], [79.1626967562415, 18.15758804971454], [79.24527289704048, 18.183708383173006], [79.3018528453657, 18.13009296186352], [79.22845183132218, 17.991242768215884]]]}}, {"type": "Feature", "properties": {"district": "Suryapet", "dt_code": "748", "st_nm": "Telangana", "st_code": "36", "year": "2016_c"}, "geometry": {"type": "Polygon", "coordinates": [[[80.05574242710449, 16.971175008943113], [80.03892136138619, 16.91755958763363], [80.07256349282281, 16.817202516977414], [80.05574242710449, 16.744340534172217], [79.94869928162434, 16.635734937160695], [79.87682745537339, 16.69759888482549], [79.79272212678183, 16.725093972676504], [79.67956223013138, 16.693474621647834], [79.66732872779079, 16.841948096043332], [79.61686553063586, 16.923058605203835], [79.59239852595469, 17.08390486913229], [79.52511426308145, 17.185636694181056], [79.45018406124535, 17.34510820371696], [79.37066629603152, 17.48258364297205], [79.38289979837211, 17.51145348521562], [79.53887695321461, 17.523826274748576], [79.75143405638235, 17.439966256802972], [79.80342644132985, 17.323112133436144], [79.90129446005456, 17.2543744138086], [79.8814150187511, 17.173263904648095], [80.04045054917876, 17.050910763711066], [80.05574242710449, 16.971175008943113]]]}}, {"type": "Feature", "properties": {"district": "Vikarabad", "dt_code": "743", "st_nm": "Telangana", "st_code": "36", "year": "2016_c"}, "geometry": {"type": "Polygon", "coordinates": [[[77.46682749427738, 16.954677956232505], [77.49741125012885, 17.042662237355763], [77.46376911869223, 17.110025202590755], [77.36437191217495, 17.158141606330037], [77.37966379010068, 17.22275506277993], [77.48364855999569, 17.354731484464814], [77.51270312805458, 17.430342976055115], [77.6855013486154, 17.51145348521562], [77.82312824994703, 17.632431871760097], [77.93017139542718, 17.569193169702757], [77.9806345925821, 17.4839583973646], [78.06321073338108, 17.44958953755083], [78.00510159726329, 17.32861115100635], [78.06932748455138, 17.231003589135234], [77.98980971933756, 17.103151430628003], [77.92252545646431, 17.063283553244027], [77.998984846093, 16.97942353529842], [77.91487951750145, 16.921683850811284], [77.76043155045151, 17.002794359971787], [77.7145559166743, 17.03991272857066], [77.63503815146048, 17.00966813193454], [77.59680845664613, 16.91481007884853], [77.46682749427738, 16.954677956232505]]]}}, {"type": "Feature", "properties": {"district": "Wanaparthy", "dt_code": "745", "st_nm": "Telangana", "st_code": "36", "year": "2016_c"}, "geometry": {"type": "Polygon", "coordinates": [[[78.25588839524536, 16.008846934157486], [78.24824245628248, 15.971728565558612], [78.15802037652065, 15.951107249670349], [77.94699246114548, 16.118827285561558], [77.93170058321975, 16.19306402275931], [77.77572342837725, 16.30716863734103], [77.66103434393422, 16.362158813043067], [77.75125642369606, 16.403401444819593], [77.91640870529402, 16.44189456781102], [77.98216378037468, 16.50238376108326], [78.00663078505586, 16.609614603702227], [78.12131986949888, 16.593117550991618], [78.09991124040285, 16.487261462765197], [78.31399753136316, 16.38003062014623], [78.19625007133499, 16.208186321077367], [78.22683382718645, 16.175192215656146], [78.20236682250528, 16.054213829111667], [78.25588839524536, 16.008846934157486]]]}}, {"type": "Feature", "properties": {"district": "Warangal Rural", "dt_code": "749", "st_nm": "Telangana", "st_code": "36", "year": "2016_c"}, "geometry": {"type": "Polygon", "coordinates": [[[79.57251908465123, 17.621433836619687], [79.48994294385226, 17.662676468396217], [79.51440994853344, 17.794652890081103], [79.62145309401359, 17.829021749894878], [79.67191629116851, 18.026986382422205], [79.6031028405027, 18.0970988564423], [79.61227796725815, 18.18783264635066], [79.57863583582153, 18.242822822052695], [79.6963832958497, 18.27719168186647], [79.72390867611603, 18.194706418313416], [79.84012694835161, 18.132842470648626], [79.93646577928375, 18.08335131251679], [79.9915165398164, 18.108096891582708], [79.99457491540154, 17.889510943167117], [79.91046958681, 17.813899451576816], [79.89364852109169, 17.730039433631212], [79.69179573247197, 17.68604729306958], [79.65356603765764, 17.628307608582446], [79.57251908465123, 17.621433836619687]]]}}, {"type": "Feature", "properties": {"district": "Warangal Urban", "dt_code": "540", "st_nm": "Telangana", "st_code": "36", "year": "2016_c"}, "geometry": {"type": "Polygon", "coordinates": [[[79.51440994853344, 17.794652890081103], [79.50370563398542, 17.8647653641012], [79.26821071392908, 17.952749645224458], [79.22845183132218, 17.991242768215884], [79.3018528453657, 18.13009296186352], [79.46241756358593, 18.164461821677293], [79.47312187813395, 18.230450032519737], [79.5633439578958, 18.263444137940958], [79.57863583582153, 18.242822822052695], [79.61227796725815, 18.18783264635066], [79.6031028405027, 18.0970988564423], [79.67191629116851, 18.026986382422205], [79.62145309401359, 17.829021749894878], [79.51440994853344, 17.794652890081103]]]}}, {"type": "Feature", "properties": {"district": "Yadadri Bhuvanagiri", "dt_code": "747", "st_nm": "Telangana", "st_code": "36", "year": "2016_c"}, "geometry": {"type": "Polygon", "coordinates": [[[78.8675635122748, 17.824897486717223], [78.99142772347327, 17.793278135688553], [79.02506985490989, 17.7135423809206], [79.13058381259746, 17.672299749144074], [79.1519924416935, 17.58706497680592], [79.2559772115885, 17.471585607831642], [79.37066629603152, 17.48258364297205], [79.45018406124535, 17.34510820371696], [79.25138964821078, 17.35885574764247], [79.20551401443356, 17.262622940163908], [79.10305843233114, 17.24200162427564], [78.98225259671781, 17.279119992874516], [78.95166884086635, 17.13202127287157], [78.8905013291634, 17.044036991748314], [78.84156731980104, 17.07153207959933], [78.77581224472038, 17.15126783436728], [78.81862950291244, 17.232378343527785], [78.75287442783178, 17.261248185771354], [78.73758254990605, 17.386350835493488], [78.7513452400392, 17.471585607831642], [78.6764150382031, 17.57606694166551], [78.72381985977287, 17.668175485966422], [78.8155711273273, 17.702544345780193], [78.8675635122748, 17.824897486717223]]]}}, {"type": "Feature", "properties": {"district": "Bhadradri Kothagudem", "dt_code": "753", "st_nm": "Telangana", "st_code": "36", "year": "2016_c"}, "geometry": {"type": "Polygon", "coordinates": [[[81.08488581150652, 17.797402398866204], [81.05888961903278, 17.732788942416313], [80.97325510264866, 17.77953059176304], [80.88609139847196, 17.735538451201414], [80.91055840315315, 17.6379308893303], [81.02065992421844, 17.51970201157092], [81.30967641701486, 17.409721660166852], [81.27450509778566, 17.31761311586594], [81.1903997691941, 17.324486887828698], [81.1735787034758, 17.231003589135234], [80.99466373174468, 17.191135711751258], [80.94114215900461, 17.218630799602277], [80.87691627171652, 17.26537244894901], [80.85856601820564, 17.364354765212674], [80.68270942205967, 17.296991799977675], [80.59248734229783, 17.382226572315833], [80.50073607474341, 17.367104273997775], [80.44721450200333, 17.411096414559402], [80.4319226240776, 17.497705941290107], [80.36922592458208, 17.567818415310207], [80.20254445519156, 17.558195134562347], [80.25912440351678, 17.750660749519476], [80.24842008896877, 17.824897486717223], [80.2698287180648, 17.943126364476598], [80.39216374147068, 18.08197655812424], [80.4319226240776, 18.059980487843426], [80.5420241451429, 18.116345417938014], [80.7561104361032, 18.169960839247498], [80.85244926703534, 18.20570445345382], [80.8662119571685, 18.139716242611378], [80.97937185381895, 18.165836576069843], [80.97019672706351, 18.04760769831047], [81.01607236084072, 17.794652890081103], [81.08488581150652, 17.797402398866204]]]}}, {"type": "Feature", "properties": {"district": "Jayashankar Bhupalapally", "dt_code": "750", "st_nm": "Telangana", "st_code": "36", "year": "2016_c"}, "geometry": {"type": "Polygon", "coordinates": [[[79.91352796239515, 18.825718684494277], [80.01904192008273, 18.77072850879224], [80.11843912660001, 18.679994718883883], [80.2759454692351, 18.71986259626786], [80.37228430016722, 18.611256999256334], [80.23159902325045, 18.5562668235543], [80.21630714532472, 18.389921542055642], [79.92270308915059, 18.40641859476625], [79.85388963848477, 18.259319874763307], [79.84012694835161, 18.132842470648626], [79.72390867611603, 18.194706418313416], [79.6963832958497, 18.27719168186647], [79.57863583582153, 18.242822822052695], [79.5633439578958, 18.263444137940958], [79.56640233348094, 18.424290401869413], [79.67038710337594, 18.480655331964], [79.7254378639086, 18.574138630657462], [79.79119293898925, 18.57276387626491], [79.83095182159617, 18.655249139817965], [79.80954319250014, 18.703365543557247], [79.86612314082537, 18.835341965242133], [79.91352796239515, 18.825718684494277]]]}}, {"type": "Feature", "properties": {"district": "Narayanpet", "dt_code": "781", "st_nm": "Telangana", "st_code": "36", "year": "2019"}, "geometry": {"type": "Polygon", "coordinates": [[[77.4591815553145, 16.88456548221241], [77.46682749427738, 16.954677956232505], [77.59680845664613, 16.91481007884853], [77.63503815146048, 17.00966813193454], [77.7145559166743, 17.03991272857066], [77.76043155045151, 17.002794359971787], [77.72678941901489, 16.850196622398634], [77.78795693071783, 16.573870989495905], [77.75125642369606, 16.403401444819593], [77.66103434393422, 16.362158813043067], [77.59375008106099, 16.342912251547354], [77.48976531116598, 16.38552963771643], [77.41483510932987, 16.36765783061327], [77.28791252254626, 16.4089004623898], [77.24203688876905, 16.47351391883969], [77.41636429712244, 16.51750605940132], [77.45306480414422, 16.616488375664986], [77.4255394238779, 16.720969709498853], [77.47600262103282, 16.788332674733844], [77.4591815553145, 16.88456548221241]]]}}], "metadata": {"source": "udit-001/india-maps-data (Census 2011)", "url": "https://github.com/udit-001/india-maps-data", "license": "ODbL (Open Database License)", "feature_count": 34}}