{"type": "FeatureCollection", "features": [{"type": "Feature", "properties": {"district": "Uttarkashi", "dt_code": "056", "st_nm": "Uttarakhand", "st_code": "05", "year": "2011_c"}, "geometry": {"type": "Polygon", "coordinates": [[[78.310939155778, 31.28374298979051], [78.37057747968838, 31.286492498575612], [78.48373737633882, 31.198508217452357], [78.60913077532986, 31.228752814088477], [78.67182747482538, 31.197133463059807], [78.809454376157, 31.198508217452357], [78.88591376578569, 31.09815114679614], [79.00824878919157, 31.1105239363291], [78.98531097230297, 31.17376263838644], [78.88132620240796, 31.28374298979051], [78.94402290190348, 31.366228253343564], [79.006719601399, 31.378601042876525], [79.07247467647966, 31.455587288859373], [79.13822975156033, 31.43359121857856], [79.16728431961923, 31.360729235773363], [79.23303939469989, 31.333234147922344], [79.22233508015188, 31.260372165117147], [79.2957360941954, 31.21775477894807], [79.31867391108402, 31.135269515395013], [79.40736680305328, 31.073405567730223], [79.29267771861026, 30.968924233896356], [79.22539345573702, 30.810827478753], [79.27432746509938, 30.724217952022297], [79.19939726326328, 30.732466478377603], [79.03271579387275, 30.80945272436045], [79.00366122581386, 30.858943882492284], [78.87979701461539, 30.875440935202896], [78.84768407097134, 30.737965495947805], [78.71923229639516, 30.733841232770153], [78.59995564857442, 30.671977285105363], [78.54643407583434, 30.53312709145772], [78.45315362048736, 30.542750372205578], [78.39351529657698, 30.505632003606703], [78.2772970243414, 30.611488091833124], [78.20542519809042, 30.5784939864119], [78.15802037652065, 30.627985144543732], [78.01274753622616, 30.616987109403325], [78.07850261130682, 30.740715004732905], [77.97451784141181, 30.889188479128403], [77.9638135268638, 30.977172760251662], [77.8537120057985, 30.953801935578298], [77.82924500111733, 31.029413427168596], [77.86441632034652, 31.109149181936548], [77.96687190244894, 31.17376263838644], [78.102969615988, 31.1861354279194], [78.24671326848991, 31.230127568481027], [78.310939155778, 31.28374298979051]]]}}, {"type": "Feature", "properties": {"district": "Chamoli", "dt_code": "057", "st_nm": "Uttarakhand", "st_code": "05", "year": "2011_c"}, "geometry": {"type": "Polygon", "coordinates": [[[79.27432746509938, 30.724217952022297], [79.22539345573702, 30.810827478753], [79.29267771861026, 30.968924233896356], [79.40736680305328, 31.073405567730223], [79.50676400957057, 31.032162935953696], [79.60157365271013, 30.933180619690035], [79.73155461507889, 30.978547514644212], [79.8645939530328, 30.973048497074007], [79.88906095771397, 30.918058321371973], [80.05421323931192, 30.843821584174226], [80.1016180608817, 30.788831408472188], [79.98387060085354, 30.689849092208522], [80.0435089247639, 30.597740547907613], [79.99610410319413, 30.537251354635373], [80.03739217359362, 30.443768055941913], [79.98692897643868, 30.318665406219782], [79.87376907978823, 30.2705490024805], [79.76366755872293, 30.13307356322541], [79.81260156808528, 30.023093211821337], [79.72085030053087, 30.001097141540523], [79.61074877946558, 30.020343703036236], [79.47159269034137, 29.97910107125971], [79.4241878687716, 29.93510893069808], [79.32479066225432, 29.929609913127877], [79.22998101911475, 29.974976808082058], [79.19328051209298, 30.083582405093576], [79.07706223985738, 30.221057844348667], [79.15963838065636, 30.32828868696764], [79.16728431961923, 30.446517564727014], [79.24527289704048, 30.55924742491619], [79.33549497680232, 30.596365793515062], [79.34772847914292, 30.649981214824546], [79.27432746509938, 30.724217952022297]]]}}, {"type": "Feature", "properties": {"district": "Dehradun", "dt_code": "060", "st_nm": "Uttarakhand", "st_code": "05", "year": "2011_c"}, "geometry": {"type": "Polygon", "coordinates": [[[77.70385160212629, 30.764085829406273], [77.80630718422871, 30.853444864922082], [77.82924500111733, 31.029413427168596], [77.8537120057985, 30.953801935578298], [77.9638135268638, 30.977172760251662], [77.97451784141181, 30.889188479128403], [78.07850261130682, 30.740715004732905], [78.01274753622616, 30.616987109403325], [77.97298865361924, 30.48638544211099], [78.10602799157314, 30.478136915755684], [78.22377545160131, 30.405274932950487], [78.13355337183947, 30.343410985285697], [78.2772970243414, 30.27192375687305], [78.23447976614932, 30.185314230142346], [78.30176402902256, 30.112452247337146], [78.20236682250528, 29.966728281726752], [78.1488452497652, 29.968103036119302], [78.06932748455138, 30.04233977331705], [77.95922596348608, 30.24167916023693], [77.72220185563717, 30.32966344136019], [77.65797596834908, 30.401150669772836], [77.5753998275501, 30.401150669772836], [77.81548231098415, 30.505632003606703], [77.8185406865693, 30.56062217930874], [77.70385160212629, 30.764085829406273]]]}}, {"type": "Feature", "properties": {"district": "Tehri Garhwal", "dt_code": "059", "st_nm": "Uttarakhand", "st_code": "05", "year": "2011_c"}, "geometry": {"type": "Polygon", "coordinates": [[[78.01274753622616, 30.616987109403325], [78.15802037652065, 30.627985144543732], [78.20542519809042, 30.5784939864119], [78.2772970243414, 30.611488091833124], [78.39351529657698, 30.505632003606703], [78.45315362048736, 30.542750372205578], [78.54643407583434, 30.53312709145772], [78.59995564857442, 30.671977285105363], [78.71923229639516, 30.733841232770153], [78.84768407097134, 30.737965495947805], [78.87979701461539, 30.875440935202896], [79.00366122581386, 30.858943882492284], [79.03271579387275, 30.80945272436045], [79.02812823049503, 30.768210092583924], [78.91038077046686, 30.691223846601076], [78.86297594889707, 30.567495951271493], [78.83545056863076, 30.35715852921121], [78.89967645591885, 30.24442866902203], [78.80639600057185, 30.219683089956117], [78.71617392081001, 30.23755489705928], [78.6473604701442, 30.20731030042316], [78.57854701947839, 30.104203720981843], [78.51126275660515, 30.05471256285001], [78.4103363622953, 30.135823072010513], [78.30176402902256, 30.112452247337146], [78.23447976614932, 30.185314230142346], [78.2772970243414, 30.27192375687305], [78.13355337183947, 30.343410985285697], [78.22377545160131, 30.405274932950487], [78.10602799157314, 30.478136915755684], [77.97298865361924, 30.48638544211099], [78.01274753622616, 30.616987109403325]]]}}, {"type": "Feature", "properties": {"district": "Rudraprayag", "dt_code": "058", "st_nm": "Uttarakhand", "st_code": "05", "year": "2011_c"}, "geometry": {"type": "Polygon", "coordinates": [[[79.03271579387275, 30.80945272436045], [79.19939726326328, 30.732466478377603], [79.27432746509938, 30.724217952022297], [79.34772847914292, 30.649981214824546], [79.33549497680232, 30.596365793515062], [79.24527289704048, 30.55924742491619], [79.16728431961923, 30.446517564727014], [79.15963838065636, 30.32828868696764], [79.07706223985738, 30.221057844348667], [78.98225259671781, 30.17844045817959], [78.89967645591885, 30.24442866902203], [78.83545056863076, 30.35715852921121], [78.86297594889707, 30.567495951271493], [78.91038077046686, 30.691223846601076], [79.02812823049503, 30.768210092583924], [79.03271579387275, 30.80945272436045]]]}}, {"type": "Feature", "properties": {"district": "Pithoragarh", "dt_code": "062", "st_nm": "Uttarakhand", "st_code": "05", "year": "2011_c"}, "geometry": {"type": "Polygon", "coordinates": [[[79.98692897643868, 30.318665406219782], [80.03739217359362, 30.443768055941913], [79.99610410319413, 30.537251354635373], [80.0435089247639, 30.597740547907613], [79.98387060085354, 30.689849092208522], [80.1016180608817, 30.788831408472188], [80.17348988713266, 30.8080779699679], [80.24994927676134, 30.74483926791056], [80.21324876973958, 30.583993003982105], [80.41815993394444, 30.524878565102416], [80.54049495735032, 30.447892319119568], [80.60777922022356, 30.47126314379293], [80.70870561453343, 30.417647722483448], [80.80351525767298, 30.324164423789984], [80.9992512951224, 30.2677994936954], [81.04512692889962, 30.21005980920826], [80.92890865666402, 30.174316195001936], [80.7622271872735, 30.049213545279805], [80.6750634830968, 29.957105000978896], [80.60166246905327, 29.957105000978896], [80.5542576474835, 29.849874158359924], [80.43498099966274, 29.804507263405746], [80.36616754899694, 29.739893806955852], [80.408984807189, 29.59554459573801], [80.34170054431576, 29.510309823399854], [80.24230333779848, 29.44432161255741], [80.07562186840795, 29.52130785854026], [79.99916247877927, 29.559800981531687], [79.95175765720948, 29.680779368076166], [79.89059014550654, 29.712398719104836], [79.98692897643868, 29.76463938602177], [80.05421323931192, 29.90211482527686], [80.15819800920693, 29.904864334061962], [80.06797592944508, 30.018968948643685], [80.11538075101487, 30.226556861918873], [79.98692897643868, 30.318665406219782]]]}}, {"type": "Feature", "properties": {"district": "Bageshwar", "dt_code": "063", "st_nm": "Uttarakhand", "st_code": "05", "year": "2011_c"}, "geometry": {"type": "Polygon", "coordinates": [[[79.47159269034137, 29.97910107125971], [79.61074877946558, 30.020343703036236], [79.72085030053087, 30.001097141540523], [79.81260156808528, 30.023093211821337], [79.76366755872293, 30.13307356322541], [79.87376907978823, 30.2705490024805], [79.98692897643868, 30.318665406219782], [80.11538075101487, 30.226556861918873], [80.06797592944508, 30.018968948643685], [80.15819800920693, 29.904864334061962], [80.05421323931192, 29.90211482527686], [79.98692897643868, 29.76463938602177], [79.89059014550654, 29.712398719104836], [79.75907999534522, 29.70140068396443], [79.6963832958497, 29.76601414041432], [79.70861679819029, 29.82650333368656], [79.50829319736314, 29.873244983033292], [79.47159269034137, 29.97910107125971]]]}}, {"type": "Feature", "properties": {"district": "Haridwar", "dt_code": "068", "st_nm": "Uttarakhand", "st_code": "05", "year": "2011_c"}, "geometry": {"type": "Polygon", "coordinates": [[[77.95922596348608, 30.24167916023693], [78.06932748455138, 30.04233977331705], [78.1488452497652, 29.968103036119302], [78.20236682250528, 29.966728281726752], [78.31552671915573, 29.862246947892885], [78.33540616045919, 29.79763349144299], [78.20389601029785, 29.73714429817075], [78.13049499625433, 29.651909525832597], [78.02039347518902, 29.5817970518125], [77.92711301984204, 29.713773473497387], [77.82006987436188, 29.67390559611341], [77.71608510446687, 29.88561777256625], [77.801719620851, 30.095955194626537], [77.8598287569688, 30.113827001729696], [77.95922596348608, 30.24167916023693]]]}}, {"type": "Feature", "properties": {"district": "Pauri Garhwal", "dt_code": "061", "st_nm": "Uttarakhand", "st_code": "05", "year": "2011_c"}, "geometry": {"type": "Polygon", "coordinates": [[[79.07706223985738, 30.221057844348667], [79.19328051209298, 30.083582405093576], [79.22998101911475, 29.974976808082058], [79.08470817882025, 29.88836728135135], [79.12140868584201, 29.717897736675038], [79.06024117413908, 29.588670823775256], [79.00977797698414, 29.585921314990152], [78.92567264839259, 29.438822594987208], [78.80027924940157, 29.464942928445673], [78.61677671429273, 29.558426227139137], [78.53267138570118, 29.63953673629964], [78.51126275660515, 29.724771508637794], [78.33540616045919, 29.79763349144299], [78.31552671915573, 29.862246947892885], [78.20236682250528, 29.966728281726752], [78.30176402902256, 30.112452247337146], [78.4103363622953, 30.135823072010513], [78.51126275660515, 30.05471256285001], [78.57854701947839, 30.104203720981843], [78.6473604701442, 30.20731030042316], [78.71617392081001, 30.23755489705928], [78.80639600057185, 30.219683089956117], [78.89967645591885, 30.24442866902203], [78.98225259671781, 30.17844045817959], [79.07706223985738, 30.221057844348667]]]}}, {"type": "Feature", "properties": {"district": "Almora", "dt_code": "064", "st_nm": "Uttarakhand", "st_code": "05", "year": "2011_c"}, "geometry": {"type": "Polygon", "coordinates": [[[79.22998101911475, 29.974976808082058], [79.32479066225432, 29.929609913127877], [79.4241878687716, 29.93510893069808], [79.47159269034137, 29.97910107125971], [79.50829319736314, 29.873244983033292], [79.70861679819029, 29.82650333368656], [79.6963832958497, 29.76601414041432], [79.75907999534522, 29.70140068396443], [79.89059014550654, 29.712398719104836], [79.95175765720948, 29.680779368076166], [79.99916247877927, 29.559800981531687], [80.07562186840795, 29.52130785854026], [79.84930207510706, 29.431948823024452], [79.68873735688683, 29.47319145480098], [79.62145309401359, 29.555676718354032], [79.52664345087402, 29.54880294639128], [79.48229700488939, 29.496562279474343], [79.33549497680232, 29.61204164844862], [79.21927670456672, 29.52268261293281], [79.06024117413908, 29.588670823775256], [79.12140868584201, 29.717897736675038], [79.08470817882025, 29.88836728135135], [79.22998101911475, 29.974976808082058]]]}}, {"type": "Feature", "properties": {"district": "Nainital", "dt_code": "066", "st_nm": "Uttarakhand", "st_code": "05", "year": "2011_c"}, "geometry": {"type": "Polygon", "coordinates": [[[78.92567264839259, 29.438822594987208], [79.00977797698414, 29.585921314990152], [79.06024117413908, 29.588670823775256], [79.21927670456672, 29.52268261293281], [79.33549497680232, 29.61204164844862], [79.48229700488939, 29.496562279474343], [79.52664345087402, 29.54880294639128], [79.62145309401359, 29.555676718354032], [79.68873735688683, 29.47319145480098], [79.84930207510706, 29.431948823024452], [79.89211933329912, 29.370084875359662], [79.85541882627734, 29.276601576666202], [79.92729065252831, 29.214737629001412], [79.87835664316596, 29.158372698906824], [79.9746954740981, 29.12125433030795], [79.97163709851294, 29.055266119465507], [79.89670689667683, 28.993402171800717], [79.8003680657447, 29.025021522829388], [79.4348921833196, 29.084135961709077], [79.27738584068453, 29.239483208067327], [79.0128363525693, 29.29034912059171], [78.92720183618518, 29.341215033116093], [78.8507424465565, 29.34808880507885], [78.92567264839259, 29.438822594987208]]]}}, {"type": "Feature", "properties": {"district": "Champawat", "dt_code": "065", "st_nm": "Uttarakhand", "st_code": "05", "year": "2011_c"}, "geometry": {"type": "Polygon", "coordinates": [[[80.07562186840795, 29.52130785854026], [80.24230333779848, 29.44432161255741], [80.31876272742716, 29.301347155732117], [80.25912440351678, 29.187242541150393], [80.14443531907376, 29.102007768812236], [80.11843912660001, 28.981029382267756], [80.07409268061538, 28.94116150488378], [80.05880080268965, 29.004400206941124], [79.97163709851294, 29.055266119465507], [79.9746954740981, 29.12125433030795], [79.87835664316596, 29.158372698906824], [79.92729065252831, 29.214737629001412], [79.85541882627734, 29.276601576666202], [79.89211933329912, 29.370084875359662], [79.84930207510706, 29.431948823024452], [80.07562186840795, 29.52130785854026]]]}}, {"type": "Feature", "properties": {"district": "Udham Singh Nagar", "dt_code": "067", "st_nm": "Uttarakhand", "st_code": "05", "year": "2011_c"}, "geometry": {"type": "Polygon", "coordinates": [[[79.68262060571654, 28.854551978153076], [79.58475258699183, 28.84630345179777], [79.42265868097903, 28.897169364322153], [79.40736680305328, 28.95215954002419], [79.25903558717364, 28.992027417408163], [79.14281731493804, 29.067638908998465], [79.15352162948606, 29.115755312737747], [79.0357741694579, 29.16937073404723], [78.97460665775495, 29.130877611055805], [78.92720183618518, 29.118504821522848], [78.87520945123767, 29.205114348253556], [78.76052036679465, 29.26422878713324], [78.8507424465565, 29.34808880507885], [78.92720183618518, 29.341215033116093], [79.0128363525693, 29.29034912059171], [79.27738584068453, 29.239483208067327], [79.4348921833196, 29.084135961709077], [79.8003680657447, 29.025021522829388], [79.89670689667683, 28.993402171800717], [79.97163709851294, 29.055266119465507], [80.05880080268965, 29.004400206941124], [80.07409268061538, 28.94116150488378], [80.06491755385994, 28.836680171049913], [80.02974623463074, 28.748695889926655], [79.95481603279464, 28.72257555646819], [79.82024750704815, 28.887546083574296], [79.68262060571654, 28.854551978153076]]]}}], "metadata": {"source": "udit-001/india-maps-data (Census 2011)", "url": "https://github.com/udit-001/india-maps-data", "license": "ODbL (Open Database License)", "feature_count": 14}}