{"type": "FeatureCollection", "features": [{"type": "Feature", "properties": {"district": "Amroha", "dt_code": "137", "st_nm": "Uttar Pradesh", "st_code": "09", "year": "2011_c"}, "geometry": {"type": "Polygon", "coordinates": [[[78.07238586013652, 29.082761207316523], [78.21460032484588, 29.02914578600704], [78.38586935761411, 29.020897259651733], [78.53267138570118, 29.064889400213364], [78.52808382232345, 28.9659070839497], [78.61371833870759, 28.945285768061435], [78.65959397248479, 28.84905296058287], [78.62289346546302, 28.806435574413793], [78.40727798671014, 28.78168999534788], [78.4393909303542, 28.589224380390753], [78.41186555008787, 28.46274697627607], [78.3048224046077, 28.438001397210154], [78.21001276146815, 28.528735187118514], [78.21001276146815, 28.626342748989625], [78.1320241840469, 28.78168999534788], [78.12131986949888, 28.87792280282644], [78.07697342351425, 28.976905119090105], [78.07238586013652, 29.082761207316523]]]}}, {"type": "Feature", "properties": {"district": "Hapur", "dt_code": "705", "st_nm": "Uttar Pradesh", "st_code": "09", "year": "update2014"}, "geometry": {"type": "Polygon", "coordinates": [[[78.12131986949888, 28.87792280282644], [78.1320241840469, 28.78168999534788], [78.21001276146815, 28.626342748989625], [78.13049499625433, 28.63596602973748], [77.96228433907123, 28.715701784505434], [77.90111682736828, 28.63321652095238], [77.85524119359107, 28.655212591233195], [77.74819804811092, 28.558979783754634], [77.68397216082283, 28.557605029362083], [77.56622470079466, 28.652463082448094], [77.5463452594912, 28.685457187869314], [77.69008891199312, 28.744571626749003], [78.02498103856675, 28.87654804843389], [78.12131986949888, 28.87792280282644]]]}}, {"type": "Feature", "properties": {"district": "Bareilly", "dt_code": "150", "st_nm": "Uttar Pradesh", "st_code": "09", "year": "2011_c"}, "geometry": {"type": "Polygon", "coordinates": [[[79.68262060571654, 28.854551978153076], [79.6902665446794, 28.75282015310431], [79.62145309401359, 28.642839801700237], [79.78201781223382, 28.503989608052596], [79.76978430989323, 28.4338771340325], [79.6963832958497, 28.31014923870292], [79.70250004702, 28.256533817393436], [79.60157365271013, 28.086064272717124], [79.50370563398542, 28.015951798697028], [79.49605969502255, 28.121807886923445], [79.4241878687716, 28.174048553840382], [79.17645944637466, 28.18642134337334], [79.10152924453857, 28.22079020318711], [79.0587119863465, 28.383011221508117], [78.9715482821698, 28.421504344499542], [79.07553305206481, 28.50811387123025], [79.20551401443356, 28.57135257328759], [79.23456858249247, 28.65933685441085], [79.30644040874343, 28.743196872356453], [79.35996198148351, 28.75282015310431], [79.42265868097903, 28.897169364322153], [79.58475258699183, 28.84630345179777], [79.68262060571654, 28.854551978153076]]]}}, {"type": "Feature", "properties": {"district": "Pilibhit", "dt_code": "151", "st_nm": "Uttar Pradesh", "st_code": "09", "year": "2011_c"}, "geometry": {"type": "Polygon", "coordinates": [[[79.70250004702, 28.256533817393436], [79.6963832958497, 28.31014923870292], [79.76978430989323, 28.4338771340325], [79.78201781223382, 28.503989608052596], [79.62145309401359, 28.642839801700237], [79.6902665446794, 28.75282015310431], [79.68262060571654, 28.854551978153076], [79.82024750704815, 28.887546083574296], [79.95481603279464, 28.72257555646819], [80.02974623463074, 28.748695889926655], [80.06491755385994, 28.836680171049913], [80.11996831439258, 28.827056890302057], [80.27747465702767, 28.711577521327783], [80.31417516404943, 28.62909225777473], [80.44721450200333, 28.517737151978107], [80.35546323444892, 28.41875483571444], [80.35852161003407, 28.329395800198633], [80.22242389649502, 28.300525957955063], [80.14902288245148, 28.345892852909245], [80.01598354449757, 28.378886958330465], [79.9853997886461, 28.28127939645935], [79.9853997886461, 28.106685588605387], [79.88906095771397, 28.193295115336092], [79.79730969015955, 28.15892625552232], [79.70250004702, 28.256533817393436]]]}}, {"type": "Feature", "properties": {"district": "Bulandshahr", "dt_code": "142", "st_nm": "Uttar Pradesh", "st_code": "09", "year": "2011_c"}, "geometry": {"type": "Polygon", "coordinates": [[[78.21001276146815, 28.626342748989625], [78.21001276146815, 28.528735187118514], [78.3048224046077, 28.438001397210154], [78.27882621213396, 28.38851023907832], [78.31246834357059, 28.274405624496598], [78.47914981296111, 28.11218460617559], [78.41186555008787, 28.083314763932023], [78.33999372383691, 28.146553465989363], [78.17942900561668, 28.076440991969267], [78.03109778973703, 28.1286816588862], [77.99439728271527, 28.077815746361818], [77.91487951750145, 28.09981181664263], [77.8414785034579, 28.178172817018034], [77.73290617018519, 28.1286816588862], [77.68855972420054, 28.2799046420668], [77.7374937335629, 28.318397765058226], [77.63350896366791, 28.427003362069748], [77.68397216082283, 28.557605029362083], [77.74819804811092, 28.558979783754634], [77.85524119359107, 28.655212591233195], [77.90111682736828, 28.63321652095238], [77.96228433907123, 28.715701784505434], [78.13049499625433, 28.63596602973748], [78.21001276146815, 28.626342748989625]]]}}, {"type": "Feature", "properties": {"district": "Gautam Buddha Nagar", "dt_code": "141", "st_nm": "Uttar Pradesh", "st_code": "09", "year": "2011_c"}, "geometry": {"type": "Polygon", "coordinates": [[[77.56622470079466, 28.652463082448094], [77.68397216082283, 28.557605029362083], [77.63350896366791, 28.427003362069748], [77.7374937335629, 28.318397765058226], [77.68855972420054, 28.2799046420668], [77.73290617018519, 28.1286816588862], [77.56775388858723, 28.087439027109674], [77.47600262103282, 28.084689518324573], [77.50046962571399, 28.205667904869053], [77.50505718909172, 28.37063843197516], [77.34755084645664, 28.520486660763208], [77.2970876493017, 28.567228310109936], [77.34143409528635, 28.609845696279017], [77.56622470079466, 28.652463082448094]]]}}, {"type": "Feature", "properties": {"district": "Lakhimpur Kheri", "dt_code": "153", "st_nm": "Uttar Pradesh", "st_code": "09", "year": "2011_c"}, "geometry": {"type": "Polygon", "coordinates": [[[80.35852161003407, 28.329395800198633], [80.35546323444892, 28.41875483571444], [80.44721450200333, 28.517737151978107], [80.31417516404943, 28.62909225777473], [80.45944800434393, 28.624967994597075], [80.55272845969091, 28.69095620543952], [80.66741754413394, 28.642839801700237], [80.71482236570372, 28.56860306450249], [81.05277286786249, 28.40500729178893], [81.0405393655219, 28.285403659637005], [81.1965165203644, 28.102561325427736], [81.19498733257183, 28.007703272341722], [81.30508885363713, 27.907346201685506], [81.28215103674853, 27.68188648130716], [81.1796954546461, 27.784993060748477], [80.99007616836697, 27.824860938132453], [80.95796322472292, 27.8990976753302], [80.82645307456158, 27.79049207831868], [80.64142135166018, 27.83860848205796], [80.60472084463842, 27.750624200934705], [80.51755714046172, 27.809738639814395], [80.45027287758849, 27.749249446542155], [80.31111678846429, 27.68051172691461], [80.25300765234648, 27.757497972897458], [80.09091374633368, 27.783618306355926], [80.06032999048222, 27.760247481682562], [80.02974623463074, 27.901847184115304], [80.1245558777703, 28.00220425477152], [80.25453684013907, 28.090188535894775], [80.2988832861237, 28.163050518699972], [80.31111678846429, 28.2771551332817], [80.35852161003407, 28.329395800198633]]]}}, {"type": "Feature", "properties": {"district": "Budaun", "dt_code": "149", "st_nm": "Uttar Pradesh", "st_code": "09", "year": "2011_c"}, "geometry": {"type": "Polygon", "coordinates": [[[78.9715482821698, 28.421504344499542], [79.0587119863465, 28.383011221508117], [79.10152924453857, 28.22079020318711], [79.17645944637466, 28.18642134337334], [79.4241878687716, 28.174048553840382], [79.49605969502255, 28.121807886923445], [79.50370563398542, 28.015951798697028], [79.43336299552703, 27.844107499628166], [79.35843279369092, 27.80286486785164], [79.35078685472806, 27.658515656633796], [79.18410538533753, 27.71350583233583], [79.16422594403409, 27.797365850281434], [79.09694168116084, 27.830359955702658], [78.91802670942972, 27.849606517198367], [78.88744295357826, 27.915594728040812], [78.60760158753729, 28.01870130748213], [78.57854701947839, 28.06269344804376], [78.65194803352192, 28.318397765058226], [78.79416249823127, 28.398133519826178], [78.87215107565252, 28.468245993846274], [78.93943533852575, 28.459997467490968], [78.9715482821698, 28.421504344499542]]]}}, {"type": "Feature", "properties": {"district": "Bahraich", "dt_code": "180", "st_nm": "Uttar Pradesh", "st_code": "09", "year": "2011_c"}, "geometry": {"type": "Polygon", "coordinates": [[[81.28215103674853, 27.68188648130716], [81.30508885363713, 27.907346201685506], [81.19498733257183, 28.007703272341722], [81.1965165203644, 28.102561325427736], [81.0405393655219, 28.285403659637005], [81.05277286786249, 28.40500729178893], [81.21333758608272, 28.358265642442202], [81.23321702738617, 28.289527922814656], [81.32038073156286, 28.197419378513747], [81.42589468925044, 28.171299045055278], [81.47788707419795, 28.083314763932023], [81.74243656231317, 27.952713096639688], [81.67668148723251, 27.86610356990898], [81.64456854358846, 27.77536978000062], [81.69656092853597, 27.727253376261338], [81.68126905061024, 27.571906129903088], [81.7760786937498, 27.525164480556356], [81.9030012805334, 27.5127916910234], [81.98098985795467, 27.434430690647996], [81.81430838856414, 27.26533590036424], [81.74243656231317, 27.325825093636478], [81.66444798489192, 27.23371654933557], [81.64151016800332, 27.158105057745267], [81.51458758121971, 27.08386832054752], [81.43659900379846, 27.17872637363353], [81.41213199911728, 27.33407361999178], [81.26532997103021, 27.5911526913988], [81.28215103674853, 27.68188648130716]]]}}, {"type": "Feature", "properties": {"district": "Shahjahanpur", "dt_code": "152", "st_nm": "Uttar Pradesh", "st_code": "09", "year": "2011_c"}, "geometry": {"type": "Polygon", "coordinates": [[[79.50370563398542, 28.015951798697028], [79.60157365271013, 28.086064272717124], [79.70250004702, 28.256533817393436], [79.79730969015955, 28.15892625552232], [79.88906095771397, 28.193295115336092], [79.9853997886461, 28.106685588605387], [79.9853997886461, 28.28127939645935], [80.01598354449757, 28.378886958330465], [80.14902288245148, 28.345892852909245], [80.22242389649502, 28.300525957955063], [80.35852161003407, 28.329395800198633], [80.31111678846429, 28.2771551332817], [80.2988832861237, 28.163050518699972], [80.25453684013907, 28.090188535894775], [80.1245558777703, 28.00220425477152], [80.02974623463074, 27.901847184115304], [80.06032999048222, 27.760247481682562], [79.96552034734265, 27.732752393831543], [79.86153557744764, 27.64889237588594], [79.7651967465155, 27.71350583233583], [79.68567898130168, 27.637894340745532], [79.73767136624919, 27.505917919060643], [79.7361421784566, 27.445428725788407], [79.65356603765764, 27.504543164668092], [79.59086933816212, 27.598026463361556], [79.35078685472806, 27.658515656633796], [79.35843279369092, 27.80286486785164], [79.43336299552703, 27.844107499628166], [79.50370563398542, 28.015951798697028]]]}}, {"type": "Feature", "properties": {"district": "Aligarh", "dt_code": "143", "st_nm": "Uttar Pradesh", "st_code": "09", "year": "2011_c"}, "geometry": {"type": "Polygon", "coordinates": [[[77.73290617018519, 28.1286816588862], [77.8414785034579, 28.178172817018034], [77.91487951750145, 28.09981181664263], [77.99439728271527, 28.077815746361818], [78.03109778973703, 28.1286816588862], [78.17942900561668, 28.076440991969267], [78.33999372383691, 28.146553465989363], [78.41186555008787, 28.083314763932023], [78.47914981296111, 28.11218460617559], [78.57854701947839, 28.06269344804376], [78.60760158753729, 28.01870130748213], [78.47456224958339, 27.80836388542184], [78.40574879891757, 27.83173471009521], [78.37057747968838, 27.7478746921496], [78.24059651731962, 27.665389428596548], [78.13508255963204, 27.77262027121552], [78.02345185077417, 27.764371744860213], [78.02345185077417, 27.668138937381652], [77.97145946582667, 27.595276954576452], [77.89958763957571, 27.578779901865843], [77.80019043305842, 27.701133042802873], [77.81395312319158, 27.813862902992046], [77.76501911382923, 27.903221938507855], [77.64268409042334, 27.967835394957746], [77.5295241937729, 27.92659276318122], [77.54175769611348, 27.98983146523856], [77.47600262103282, 28.084689518324573], [77.56775388858723, 28.087439027109674], [77.73290617018519, 28.1286816588862]]]}}, {"type": "Feature", "properties": {"district": "Kasganj", "dt_code": "202", "st_nm": "Uttar Pradesh", "st_code": "09", "year": "2011_c"}, "geometry": {"type": "Polygon", "coordinates": [[[78.60760158753729, 28.01870130748213], [78.88744295357826, 27.915594728040812], [78.91802670942972, 27.849606517198367], [79.09694168116084, 27.830359955702658], [79.16422594403409, 27.797365850281434], [79.18410538533753, 27.71350583233583], [79.1290546248049, 27.635144831960428], [79.21621832898158, 27.578779901865843], [79.07553305206481, 27.55815858597758], [78.99601528685099, 27.647517621493385], [78.95166884086635, 27.57465563868819], [78.88591376578569, 27.58702842822115], [78.69629447950656, 27.68601074448481], [78.68711935275111, 27.7423756745794], [78.59995564857442, 27.77124551682297], [78.51126275660515, 27.74100092018685], [78.47456224958339, 27.80836388542184], [78.60760158753729, 28.01870130748213]]]}}, {"type": "Feature", "properties": {"district": "Mathura", "dt_code": "145", "st_nm": "Uttar Pradesh", "st_code": "09", "year": "2011_c"}, "geometry": {"type": "Polygon", "coordinates": [[[77.28332495916854, 27.798740604673984], [77.34449247087149, 27.849606517198367], [77.42095186050017, 27.855105534768573], [77.5295241937729, 27.92659276318122], [77.64268409042334, 27.967835394957746], [77.76501911382923, 27.903221938507855], [77.81395312319158, 27.813862902992046], [77.80019043305842, 27.701133042802873], [77.89958763957571, 27.578779901865843], [77.88735413723512, 27.338197883169435], [77.98216378037468, 27.325825093636478], [77.92864220763461, 27.26533590036424], [77.85218281800593, 27.29695525139291], [77.74055210914806, 27.24059032129832], [77.64574246600849, 27.24196507569087], [77.43777292621847, 27.456426760928814], [77.33990490749376, 27.52653923494891], [77.35213840983435, 27.65164188467104], [77.28332495916854, 27.798740604673984]]]}}, {"type": "Feature", "properties": {"district": "Shrawasti", "dt_code": "181", "st_nm": "Uttar Pradesh", "st_code": "09", "year": "2011_c"}, "geometry": {"type": "Polygon", "coordinates": [[[81.98098985795467, 27.434430690647996], [81.9030012805334, 27.5127916910234], [81.7760786937498, 27.525164480556356], [81.68126905061024, 27.571906129903088], [81.69656092853597, 27.727253376261338], [81.64456854358846, 27.77536978000062], [81.67668148723251, 27.86610356990898], [81.74243656231317, 27.952713096639688], [81.88465102702253, 27.856480289161123], [81.96111041665121, 27.923843254396118], [82.06968274992393, 27.923843254396118], [82.12167513487144, 27.86610356990898], [82.20730965125556, 27.844107499628166], [82.12473351045658, 27.735501902616644], [82.08497462784968, 27.633770077567878], [82.02227792835416, 27.580154656258394], [82.07427031330165, 27.401436585226776], [81.98098985795467, 27.434430690647996]]]}}, {"type": "Feature", "properties": {"district": "Sitapur", "dt_code": "154", "st_nm": "Uttar Pradesh", "st_code": "09", "year": "2011_c"}, "geometry": {"type": "Polygon", "coordinates": [[[80.31111678846429, 27.68051172691461], [80.45027287758849, 27.749249446542155], [80.51755714046172, 27.809738639814395], [80.60472084463842, 27.750624200934705], [80.64142135166018, 27.83860848205796], [80.82645307456158, 27.79049207831868], [80.95796322472292, 27.8990976753302], [80.99007616836697, 27.824860938132453], [81.1796954546461, 27.784993060748477], [81.28215103674853, 27.68188648130716], [81.26532997103021, 27.5911526913988], [81.41213199911728, 27.33407361999178], [81.35861042637721, 27.257087374008933], [81.25768403206735, 27.335448374384335], [81.18275383023123, 27.244714584475975], [81.11241119177285, 27.274959181112095], [81.06653555799565, 27.218594251017507], [80.96866753927094, 27.23921556690577], [80.93043784445659, 27.158105057745267], [80.82645307456158, 27.101740127650682], [80.79739850650269, 27.199347689521794], [80.69341373660768, 27.215844742232406], [80.60166246905327, 27.262586391579134], [80.51755714046172, 27.26808540914934], [80.45180206538106, 27.401436585226776], [80.32487947859745, 27.522414971771255], [80.31111678846429, 27.68051172691461]]]}}, {"type": "Feature", "properties": {"district": "Hathras", "dt_code": "144", "st_nm": "Uttar Pradesh", "st_code": "09", "year": "2011_c"}, "geometry": {"type": "Polygon", "coordinates": [[[77.89958763957571, 27.578779901865843], [77.97145946582667, 27.595276954576452], [78.02345185077417, 27.668138937381652], [78.02345185077417, 27.764371744860213], [78.13508255963204, 27.77262027121552], [78.24059651731962, 27.665389428596548], [78.37057747968838, 27.7478746921496], [78.40574879891757, 27.83173471009521], [78.47456224958339, 27.80836388542184], [78.51126275660515, 27.74100092018685], [78.51585031998287, 27.669513691774203], [78.41492392567301, 27.580154656258394], [78.33234778487403, 27.582904165043495], [78.20389601029785, 27.50179365588299], [78.19777925912756, 27.40693560279698], [78.13508255963204, 27.3643182166279], [77.98216378037468, 27.325825093636478], [77.88735413723512, 27.338197883169435], [77.89958763957571, 27.578779901865843]]]}}, {"type": "Feature", "properties": {"district": "Etah", "dt_code": "201", "st_nm": "Uttar Pradesh", "st_code": "09", "year": "2011_c"}, "geometry": {"type": "Polygon", "coordinates": [[[78.51126275660515, 27.74100092018685], [78.59995564857442, 27.77124551682297], [78.68711935275111, 27.7423756745794], [78.69629447950656, 27.68601074448481], [78.88591376578569, 27.58702842822115], [78.95166884086635, 27.57465563868819], [78.99601528685099, 27.647517621493385], [79.07553305206481, 27.55815858597758], [79.21621832898158, 27.578779901865843], [79.2727982773068, 27.51416644541595], [79.25444802379593, 27.32857460242158], [79.06941630089452, 27.417933637937388], [78.93790615073318, 27.431681181862896], [78.88744295357826, 27.472923813639422], [78.83392138083818, 27.3615687078428], [78.71770310860259, 27.343696900739637], [78.66418153586251, 27.472923813639422], [78.59689727298927, 27.508667427845747], [78.49138331530169, 27.387689041301268], [78.38739854540668, 27.3615687078428], [78.28953052668197, 27.386314286908718], [78.19777925912756, 27.40693560279698], [78.20389601029785, 27.50179365588299], [78.33234778487403, 27.582904165043495], [78.41492392567301, 27.580154656258394], [78.51585031998287, 27.669513691774203], [78.51126275660515, 27.74100092018685]]]}}, {"type": "Feature", "properties": {"district": "Hardoi", "dt_code": "155", "st_nm": "Uttar Pradesh", "st_code": "09", "year": "2011_c"}, "geometry": {"type": "Polygon", "coordinates": [[[80.06032999048222, 27.760247481682562], [80.09091374633368, 27.783618306355926], [80.25300765234648, 27.757497972897458], [80.31111678846429, 27.68051172691461], [80.32487947859745, 27.522414971771255], [80.45180206538106, 27.401436585226776], [80.51755714046172, 27.26808540914934], [80.60166246905327, 27.262586391579134], [80.69341373660768, 27.215844742232406], [80.79739850650269, 27.199347689521794], [80.82645307456158, 27.101740127650682], [80.64600891503791, 27.078369302977315], [80.54967008410577, 27.013755846527424], [80.36310917341179, 26.921647302226514], [80.30805841287913, 27.02612863606038], [80.17807745051039, 26.957390916432836], [80.11538075101487, 26.99450928503171], [80.0435089247639, 26.924396811011615], [80.01292516891243, 26.956016162040285], [79.92881984032088, 27.14298275942721], [79.80495562912242, 27.171852601670775], [79.72237948832344, 27.221343759802608], [79.68720816909425, 27.37806576055341], [79.7361421784566, 27.445428725788407], [79.73767136624919, 27.505917919060643], [79.68567898130168, 27.637894340745532], [79.7651967465155, 27.71350583233583], [79.86153557744764, 27.64889237588594], [79.96552034734265, 27.732752393831543], [80.06032999048222, 27.760247481682562]]]}}, {"type": "Feature", "properties": {"district": "Farrukhabad", "dt_code": "159", "st_nm": "Uttar Pradesh", "st_code": "09", "year": "2011_c"}, "geometry": {"type": "Polygon", "coordinates": [[[79.18410538533753, 27.71350583233583], [79.35078685472806, 27.658515656633796], [79.59086933816212, 27.598026463361556], [79.65356603765764, 27.504543164668092], [79.7361421784566, 27.445428725788407], [79.68720816909425, 27.37806576055341], [79.72237948832344, 27.221343759802608], [79.66885791558337, 27.166353584100573], [79.51899751191115, 27.20897097026965], [79.39360411292012, 27.196598180736693], [79.31561553549886, 27.243339830083425], [79.25444802379593, 27.32857460242158], [79.2727982773068, 27.51416644541595], [79.21621832898158, 27.578779901865843], [79.1290546248049, 27.635144831960428], [79.18410538533753, 27.71350583233583]]]}}, {"type": "Feature", "properties": {"district": "Firozabad", "dt_code": "147", "st_nm": "Uttar Pradesh", "st_code": "09", "year": "2011_c"}, "geometry": {"type": "Polygon", "coordinates": [[[78.28953052668197, 27.386314286908718], [78.38739854540668, 27.3615687078428], [78.49138331530169, 27.387689041301268], [78.59689727298927, 27.508667427845747], [78.66418153586251, 27.472923813639422], [78.71770310860259, 27.343696900739637], [78.72534904756546, 27.195223426344143], [78.81404193953472, 27.14848177699741], [78.76357874237979, 27.05224896951885], [78.809454376157, 26.957390916432836], [78.73911173769862, 26.920272547833964], [78.67182747482538, 26.880404670449987], [78.45315362048736, 27.00825682895722], [78.33387697266662, 27.098990618865578], [78.22836301497904, 27.094866355687927], [78.19472088354242, 27.191099163166488], [78.2360089539419, 27.313452304103517], [78.28953052668197, 27.386314286908718]]]}}, {"type": "Feature", "properties": {"district": "Siddharthnagar", "dt_code": "184", "st_nm": "Uttar Pradesh", "st_code": "09", "year": "2011_c"}, "geometry": {"type": "Polygon", "coordinates": [[[83.14776014368833, 27.11411291718364], [83.120234763422, 27.10036537325813], [82.90461928466912, 27.004132565779567], [82.79298857581125, 27.048124706341195], [82.76393400775235, 27.111363408398535], [82.58501903602124, 27.104489636435783], [82.55902284354748, 27.08249356615497], [82.45656726144506, 27.15123128578251], [82.51161802197771, 27.21172047905475], [82.49326776846682, 27.3588191990577], [82.57737309705837, 27.42205790111504], [82.71499999839, 27.401436585226776], [82.7318210641083, 27.486671357564934], [82.9290862893503, 27.50041890149044], [83.03460024703787, 27.448178234573508], [83.18904821408782, 27.45367725214371], [83.29150379619024, 27.335448374384335], [83.1661103971992, 27.225468022980262], [83.14776014368833, 27.11411291718364]]]}}, {"type": "Feature", "properties": {"district": "Mainpuri", "dt_code": "148", "st_nm": "Uttar Pradesh", "st_code": "09", "year": "2011_c"}, "geometry": {"type": "Polygon", "coordinates": [[[78.71770310860259, 27.343696900739637], [78.83392138083818, 27.3615687078428], [78.88744295357826, 27.472923813639422], [78.93790615073318, 27.431681181862896], [79.06941630089452, 27.417933637937388], [79.25444802379593, 27.32857460242158], [79.31561553549886, 27.243339830083425], [79.39360411292012, 27.196598180736693], [79.41348355422357, 27.138858496249554], [79.38137061057954, 26.987635513068955], [79.32479066225432, 26.96014042521794], [79.17951782195982, 27.005507320172118], [78.809454376157, 26.957390916432836], [78.76357874237979, 27.05224896951885], [78.81404193953472, 27.14848177699741], [78.72534904756546, 27.195223426344143], [78.71770310860259, 27.343696900739637]]]}}, {"type": "Feature", "properties": {"district": "Maharajganj", "dt_code": "187", "st_nm": "Uttar Pradesh", "st_code": "09", "year": "2011_c"}, "geometry": {"type": "Polygon", "coordinates": [[[83.8618908428202, 27.335448374384335], [83.9077664765974, 27.274959181112095], [83.81754439683557, 27.24059032129832], [83.80072333111725, 27.109988654005985], [83.72426394148857, 26.951891898862634], [83.62486673497129, 26.956016162040285], [83.54534896975747, 26.88865319680529], [83.43830582427731, 26.958765670825386], [83.32361673983429, 26.968388951573242], [83.38937181491495, 27.08249356615497], [83.22269034552443, 27.090742092510272], [83.14776014368833, 27.11411291718364], [83.1661103971992, 27.225468022980262], [83.29150379619024, 27.335448374384335], [83.34349618113775, 27.335448374384335], [83.40925125621841, 27.413809374759733], [83.39548856608525, 27.479797585602178], [83.61416242042327, 27.46879955046177], [83.83130708696874, 27.369817234198106], [83.8618908428202, 27.335448374384335]]]}}, {"type": "Feature", "properties": {"district": "Agra", "dt_code": "146", "st_nm": "Uttar Pradesh", "st_code": "09", "year": "2011_c"}, "geometry": {"type": "Polygon", "coordinates": [[[77.64574246600849, 27.24196507569087], [77.74055210914806, 27.24059032129832], [77.85218281800593, 27.29695525139291], [77.92864220763461, 27.26533590036424], [77.98216378037468, 27.325825093636478], [78.13508255963204, 27.3643182166279], [78.19777925912756, 27.40693560279698], [78.28953052668197, 27.386314286908718], [78.2360089539419, 27.313452304103517], [78.19472088354242, 27.191099163166488], [78.22836301497904, 27.094866355687927], [78.33387697266662, 27.098990618865578], [78.45315362048736, 27.00825682895722], [78.67182747482538, 26.880404670449987], [78.73911173769862, 26.920272547833964], [78.85380082214164, 26.811666950822442], [78.78039980809811, 26.769049564653365], [78.54490488804177, 26.76355054708316], [78.39504448436955, 26.817165968392644], [78.35834397734779, 26.86940663530958], [78.22224626380874, 26.832288266710705], [78.2711802731711, 26.920272547833964], [78.1488452497652, 26.94914239007753], [78.11061555495087, 26.895526968768046], [77.9867513437524, 26.88865319680529], [77.76043155045151, 26.93264533736692], [77.72220185563717, 26.874905652879782], [77.52493663039517, 26.818540722785194], [77.45459399193679, 26.742929231194896], [77.39801404361157, 26.830913512318155], [77.48976531116598, 26.90102598633825], [77.66103434393422, 26.971138460358347], [77.55093282286893, 27.111363408398535], [77.65797596834908, 27.170477847278224], [77.64574246600849, 27.24196507569087]]]}}, {"type": "Feature", "properties": {"district": "Gonda", "dt_code": "183", "st_nm": "Uttar Pradesh", "st_code": "09", "year": "2011_c"}, "geometry": {"type": "Polygon", "coordinates": [[[81.51458758121971, 27.08386832054752], [81.64151016800332, 27.158105057745267], [81.66444798489192, 27.23371654933557], [81.74243656231317, 27.325825093636478], [81.81430838856414, 27.26533590036424], [81.98098985795467, 27.434430690647996], [82.07427031330165, 27.401436585226776], [82.2975317310174, 27.247464093261076], [82.22871828035159, 27.169103092885674], [82.32505711128373, 27.065996513444357], [82.42139594221587, 27.08524307494007], [82.45656726144506, 27.15123128578251], [82.55902284354748, 27.08249356615497], [82.56208121913264, 26.96426468839559], [82.4886802050891, 26.90377549512335], [82.31588198452829, 26.9780122323211], [82.23024746814416, 26.868031880917027], [82.22871828035159, 26.811666950822442], [82.19201777332982, 26.836412529888356], [81.97640229457694, 26.781422354186322], [81.8922969659854, 26.8267892491405], [81.74855331348347, 26.868031880917027], [81.72255712100973, 26.925771565404165], [81.613984787737, 27.031627653630586], [81.51458758121971, 27.08386832054752]]]}}, {"type": "Feature", "properties": {"district": "Barabanki", "dt_code": "176", "st_nm": "Uttar Pradesh", "st_code": "09", "year": "2011_c"}, "geometry": {"type": "Polygon", "coordinates": [[[81.41213199911728, 27.33407361999178], [81.43659900379846, 27.17872637363353], [81.51458758121971, 27.08386832054752], [81.613984787737, 27.031627653630586], [81.72255712100973, 26.925771565404165], [81.74855331348347, 26.868031880917027], [81.64151016800332, 26.82266498596285], [81.55893402720434, 26.64119740614613], [81.53599621031574, 26.543589844275015], [81.38154824326581, 26.590331493621747], [81.34484773624405, 26.543589844275015], [81.18122464243866, 26.60682854633236], [81.1613452011352, 26.587581984836646], [81.21639596166786, 26.70718561698857], [80.97172591485608, 27.05499847830395], [81.011484797463, 27.141608005034655], [80.93043784445659, 27.158105057745267], [80.96866753927094, 27.23921556690577], [81.06653555799565, 27.218594251017507], [81.11241119177285, 27.274959181112095], [81.18275383023123, 27.244714584475975], [81.25768403206735, 27.335448374384335], [81.35861042637721, 27.257087374008933], [81.41213199911728, 27.33407361999178]]]}}, {"type": "Feature", "properties": {"district": "Kushinagar", "dt_code": "189", "st_nm": "Uttar Pradesh", "st_code": "09", "year": "2011_c"}, "geometry": {"type": "Polygon", "coordinates": [[[83.9077664765974, 27.274959181112095], [83.99340099298153, 27.17460211045588], [83.96434642492264, 27.08386832054752], [84.04998094130676, 27.044000443163544], [84.06068525585476, 26.88727844241274], [84.25947966888934, 26.804793178859686], [84.32982230734773, 26.683814792315207], [84.418515199317, 26.631574125398274], [84.28088829798537, 26.599954774369603], [84.11267764080227, 26.630199371005723], [84.05151012909933, 26.55183837063032], [83.84048221372417, 26.75942628390551], [83.77013957526579, 26.70031184502582], [83.62792511055643, 26.661818722034393], [83.62180835938614, 26.753927266335303], [83.52394034066143, 26.85290958259897], [83.54534896975747, 26.88865319680529], [83.62486673497129, 26.956016162040285], [83.72426394148857, 26.951891898862634], [83.80072333111725, 27.109988654005985], [83.81754439683557, 27.24059032129832], [83.9077664765974, 27.274959181112095]]]}}, {"type": "Feature", "properties": {"district": "Kannauj", "dt_code": "160", "st_nm": "Uttar Pradesh", "st_code": "09", "year": "2011_c"}, "geometry": {"type": "Polygon", "coordinates": [[[79.72237948832344, 27.221343759802608], [79.80495562912242, 27.171852601670775], [79.92881984032088, 27.14298275942721], [80.01292516891243, 26.956016162040285], [79.94105334266148, 26.939519109329673], [79.89670689667683, 26.817165968392644], [79.8416561361442, 26.773173827831016], [79.75602161976006, 26.79379514371928], [79.60004446491756, 26.892777459982945], [79.49605969502255, 26.881779424842538], [79.43642137111217, 26.940893863722227], [79.34619929135035, 26.92989582858182], [79.32479066225432, 26.96014042521794], [79.38137061057954, 26.987635513068955], [79.41348355422357, 27.138858496249554], [79.39360411292012, 27.196598180736693], [79.51899751191115, 27.20897097026965], [79.66885791558337, 27.166353584100573], [79.72237948832344, 27.221343759802608]]]}}, {"type": "Feature", "properties": {"district": "Lucknow", "dt_code": "157", "st_nm": "Uttar Pradesh", "st_code": "09", "year": "2011_c"}, "geometry": {"type": "Polygon", "coordinates": [[[80.82645307456158, 27.101740127650682], [80.93043784445659, 27.158105057745267], [81.011484797463, 27.141608005034655], [80.97172591485608, 27.05499847830395], [81.21639596166786, 26.70718561698857], [81.1613452011352, 26.587581984836646], [81.04818530448476, 26.50509672128359], [80.9992512951224, 26.53259180913461], [80.84174495248733, 26.665942985212045], [80.79281094312498, 26.64532166932378], [80.71940992908144, 26.70168659941837], [80.720939116874, 26.800668915682035], [80.62765866152702, 26.879029916057434], [80.6001332812607, 26.986260758676405], [80.54967008410577, 27.013755846527424], [80.64600891503791, 27.078369302977315], [80.82645307456158, 27.101740127650682]]]}}, {"type": "Feature", "properties": {"district": "Basti", "dt_code": "185", "st_nm": "Uttar Pradesh", "st_code": "09", "year": "2011_c"}, "geometry": {"type": "Polygon", "coordinates": [[[82.55902284354748, 27.08249356615497], [82.58501903602124, 27.104489636435783], [82.76393400775235, 27.111363408398535], [82.79298857581125, 27.048124706341195], [82.90461928466912, 27.004132565779567], [82.86944796543993, 26.939519109329673], [82.88626903115824, 26.77867284540122], [82.97802029871265, 26.70718561698857], [82.8939149701211, 26.60957805511746], [82.818984768285, 26.568335423340933], [82.71194162280484, 26.554587879415422], [82.66300761344249, 26.604079037547255], [82.57737309705837, 26.604079037547255], [82.47338832716336, 26.652195441286537], [82.39234137415697, 26.652195441286537], [82.28223985309167, 26.73743021362469], [82.22871828035159, 26.811666950822442], [82.23024746814416, 26.868031880917027], [82.31588198452829, 26.9780122323211], [82.4886802050891, 26.90377549512335], [82.56208121913264, 26.96426468839559], [82.55902284354748, 27.08249356615497]]]}}, {"type": "Feature", "properties": {"district": "Gorakhpur", "dt_code": "188", "st_nm": "Uttar Pradesh", "st_code": "09", "year": "2011_c"}, "geometry": {"type": "Polygon", "coordinates": [[[83.120234763422, 27.10036537325813], [83.14776014368833, 27.11411291718364], [83.22269034552443, 27.090742092510272], [83.38937181491495, 27.08249356615497], [83.32361673983429, 26.968388951573242], [83.43830582427731, 26.958765670825386], [83.54534896975747, 26.88865319680529], [83.52394034066143, 26.85290958259897], [83.62180835938614, 26.753927266335303], [83.62792511055643, 26.661818722034393], [83.60039973029012, 26.514720002031446], [83.49641496039511, 26.492723931750632], [83.50559008715055, 26.417112440160334], [83.62333754717872, 26.32087963268177], [83.62945429834902, 26.219147807633004], [83.53464465520945, 26.27413798333504], [83.46736039233622, 26.275512737727592], [83.41842638297385, 26.27413798333504], [83.33737942996746, 26.34974947492534], [83.22880709669472, 26.39511636987952], [83.13246826576258, 26.385493089131664], [83.07130075405965, 26.41023866819758], [83.1554060826512, 26.539465581097364], [83.11105963666657, 26.619201335865316], [83.09729694653339, 26.806167933252237], [83.15234770706604, 26.87215614409468], [83.21657359435414, 26.881779424842538], [83.22421953331701, 26.980761741106203], [83.120234763422, 27.10036537325813]]]}}, {"type": "Feature", "properties": {"district": "Sant Kabir Nagar", "dt_code": "186", "st_nm": "Uttar Pradesh", "st_code": "09", "year": "2011_c"}, "geometry": {"type": "Polygon", "coordinates": [[[82.90461928466912, 27.004132565779567], [83.120234763422, 27.10036537325813], [83.22421953331701, 26.980761741106203], [83.21657359435414, 26.881779424842538], [83.15234770706604, 26.87215614409468], [83.09729694653339, 26.806167933252237], [83.11105963666657, 26.619201335865316], [83.1554060826512, 26.539465581097364], [83.07130075405965, 26.41023866819758], [83.01930836911214, 26.474852124647473], [82.9000317212914, 26.514720002031446], [82.818984768285, 26.568335423340933], [82.8939149701211, 26.60957805511746], [82.97802029871265, 26.70718561698857], [82.88626903115824, 26.77867284540122], [82.86944796543993, 26.939519109329673], [82.90461928466912, 27.004132565779567]]]}}, {"type": "Feature", "properties": {"district": "Unnao", "dt_code": "156", "st_nm": "Uttar Pradesh", "st_code": "09", "year": "2011_c"}, "geometry": {"type": "Polygon", "coordinates": [[[80.0435089247639, 26.924396811011615], [80.11538075101487, 26.99450928503171], [80.17807745051039, 26.957390916432836], [80.30805841287913, 27.02612863606038], [80.36310917341179, 26.921647302226514], [80.54967008410577, 27.013755846527424], [80.6001332812607, 26.986260758676405], [80.62765866152702, 26.879029916057434], [80.720939116874, 26.800668915682035], [80.71940992908144, 26.70168659941837], [80.79281094312498, 26.64532166932378], [80.84174495248733, 26.665942985212045], [80.9992512951224, 26.53259180913461], [81.00995560967043, 26.423986212123086], [81.04971449227733, 26.375869808383808], [80.81880713559872, 26.20127600052984], [80.69341373660768, 26.161408123145865], [80.67353429530424, 26.122915000154443], [80.59095815450526, 26.176530421463927], [80.59095815450526, 26.23152059716596], [80.51755714046172, 26.357998001280645], [80.3095876006717, 26.542215089882465], [80.24689090117619, 26.687939055492862], [80.16431476037722, 26.714059388951327], [80.11690993880744, 26.777298091008667], [80.1429061312812, 26.859783354561724], [80.0435089247639, 26.924396811011615]]]}}, {"type": "Feature", "properties": {"district": "Etawah", "dt_code": "161", "st_nm": "Uttar Pradesh", "st_code": "09", "year": "2011_c"}, "geometry": {"type": "Polygon", "coordinates": [[[78.73911173769862, 26.920272547833964], [78.809454376157, 26.957390916432836], [79.17951782195982, 27.005507320172118], [79.32479066225432, 26.96014042521794], [79.34619929135035, 26.92989582858182], [79.31867391108402, 26.659069213249293], [79.21927670456672, 26.56421116016328], [79.26973990172166, 26.480351142217675], [79.21468914118901, 26.436359001656047], [79.13517137597518, 26.4404832648337], [78.9898985356807, 26.57933345848134], [79.006719601399, 26.67144200278225], [78.87215107565252, 26.69756233624072], [78.78039980809811, 26.769049564653365], [78.85380082214164, 26.811666950822442], [78.73911173769862, 26.920272547833964]]]}}, {"type": "Feature", "properties": {"district": "Kanpur Nagar", "dt_code": "164", "st_nm": "Uttar Pradesh", "st_code": "09", "year": "2011_c"}, "geometry": {"type": "Polygon", "coordinates": [[[80.01292516891243, 26.956016162040285], [80.0435089247639, 26.924396811011615], [80.1429061312812, 26.859783354561724], [80.11690993880744, 26.777298091008667], [80.16431476037722, 26.714059388951327], [80.24689090117619, 26.687939055492862], [80.3095876006717, 26.542215089882465], [80.51755714046172, 26.357998001280645], [80.59095815450526, 26.23152059716596], [80.32487947859745, 26.114666473799137], [80.25453684013907, 26.04592875417159], [80.23618658662818, 25.926325122019662], [80.08479699516339, 25.99781235043231], [80.11232237542971, 26.04592875417159], [79.95634522058721, 26.07754810520026], [79.9624619717575, 26.149035333612908], [80.0083376055347, 26.26039043940953], [80.1765482627178, 26.344250457355137], [80.11996831439258, 26.465228843899617], [80.17501907492523, 26.50372196689104], [80.13373100452574, 26.571084932126034], [80.02210029566787, 26.60957805511746], [80.003750042157, 26.69756233624072], [79.89670689667683, 26.817165968392644], [79.94105334266148, 26.939519109329673], [80.01292516891243, 26.956016162040285]]]}}, {"type": "Feature", "properties": {"district": "Auraiya", "dt_code": "162", "st_nm": "Uttar Pradesh", "st_code": "09", "year": "2011_c"}, "geometry": {"type": "Polygon", "coordinates": [[[79.34619929135035, 26.92989582858182], [79.43642137111217, 26.940893863722227], [79.49605969502255, 26.881779424842538], [79.60004446491756, 26.892777459982945], [79.75602161976006, 26.79379514371928], [79.71779192494573, 26.657694458856742], [79.63980334752448, 26.60682854633236], [79.59851527712499, 26.466603598292167], [79.50676400957057, 26.3648717732434], [79.47312187813395, 26.432234738478392], [79.32479066225432, 26.39786587866462], [79.21468914118901, 26.436359001656047], [79.26973990172166, 26.480351142217675], [79.21927670456672, 26.56421116016328], [79.31867391108402, 26.659069213249293], [79.34619929135035, 26.92989582858182]]]}}, {"type": "Feature", "properties": {"district": "Ayodhya", "dt_code": "177", "st_nm": "Uttar Pradesh", "st_code": "09", "year": "2011_c"}, "geometry": {"type": "Polygon", "coordinates": [[[81.74855331348347, 26.868031880917027], [81.8922969659854, 26.8267892491405], [81.97640229457694, 26.781422354186322], [82.19201777332982, 26.836412529888356], [82.22871828035159, 26.811666950822442], [82.28223985309167, 26.73743021362469], [82.39234137415697, 26.652195441286537], [82.47338832716336, 26.652195441286537], [82.42751269338616, 26.54633935306012], [82.33576142583175, 26.57795870408879], [82.25318528503277, 26.421236703337986], [82.22260152918129, 26.41023866819758], [82.09720813019025, 26.477601633432574], [81.93970178755518, 26.507846230068694], [81.69809011632854, 26.543589844275015], [81.64151016800332, 26.63982265175358], [81.55893402720434, 26.64119740614613], [81.64151016800332, 26.82266498596285], [81.74855331348347, 26.868031880917027]]]}}, {"type": "Feature", "properties": {"district": "Kanpur Dehat", "dt_code": "163", "st_nm": "Uttar Pradesh", "st_code": "09", "year": "2011_c"}, "geometry": {"type": "Polygon", "coordinates": [[[79.75602161976006, 26.79379514371928], [79.8416561361442, 26.773173827831016], [79.89670689667683, 26.817165968392644], [80.003750042157, 26.69756233624072], [80.02210029566787, 26.60957805511746], [80.13373100452574, 26.571084932126034], [80.17501907492523, 26.50372196689104], [80.11996831439258, 26.465228843899617], [80.1765482627178, 26.344250457355137], [80.0083376055347, 26.26039043940953], [79.9624619717575, 26.149035333612908], [79.91658633798029, 26.08992089473322], [79.78201781223382, 26.11054221062148], [79.76213837093036, 26.183404193426682], [79.64897847427991, 26.210899281277698], [79.55263964334777, 26.270013720157387], [79.50676400957057, 26.3648717732434], [79.59851527712499, 26.466603598292167], [79.63980334752448, 26.60682854633236], [79.71779192494573, 26.657694458856742], [79.75602161976006, 26.79379514371928]]]}}, {"type": "Feature", "properties": {"district": "Deoria", "dt_code": "190", "st_nm": "Uttar Pradesh", "st_code": "09", "year": "2011_c"}, "geometry": {"type": "Polygon", "coordinates": [[[83.62792511055643, 26.661818722034393], [83.77013957526579, 26.70031184502582], [83.84048221372417, 26.75942628390551], [84.05151012909933, 26.55183837063032], [83.91541241556028, 26.50234721249849], [83.9077664765974, 26.447357036796454], [84.1570240867869, 26.375869808383808], [84.17690352809036, 26.264514702587185], [84.08668144832852, 26.219147807633004], [84.05609769247705, 26.099544175481075], [83.90623728880483, 26.122915000154443], [83.85883246723506, 26.184778947819233], [83.83436546255388, 26.232895351558515], [83.74261419499946, 26.265889456979735], [83.62945429834902, 26.219147807633004], [83.62333754717872, 26.32087963268177], [83.50559008715055, 26.417112440160334], [83.49641496039511, 26.492723931750632], [83.60039973029012, 26.514720002031446], [83.62792511055643, 26.661818722034393]]]}}, {"type": "Feature", "properties": {"district": "Sultanpur", "dt_code": "179", "st_nm": "Uttar Pradesh", "st_code": "09", "year": "2011_c"}, "geometry": {"type": "Polygon", "coordinates": [[[81.93970178755518, 26.507846230068694], [82.09720813019025, 26.477601633432574], [82.22260152918129, 26.41023866819758], [82.37857868402381, 26.37999407156146], [82.39845812532727, 26.300258316793506], [82.54984771679204, 26.28788552726055], [82.67829949136822, 26.25626617623188], [82.67829949136822, 26.151784842398012], [82.57890228485094, 26.186153702211783], [82.43515863234903, 26.098169421088524], [82.43362944455646, 26.006060876787615], [82.35869924272035, 26.004686122395064], [82.24248097048475, 26.056926789311998], [82.19813452450012, 26.018433666320572], [82.10026650577541, 26.07204908763006], [82.0482741208279, 26.058301543704548], [82.04980330862048, 26.149035333612908], [81.85253808337848, 26.283761264082898], [81.88159265143739, 26.388242597916765], [81.94887691431062, 26.419861948945435], [81.93970178755518, 26.507846230068694]]]}}, {"type": "Feature", "properties": {"district": "Ambedkar Nagar", "dt_code": "178", "st_nm": "Uttar Pradesh", "st_code": "09", "year": "2011_c"}, "geometry": {"type": "Polygon", "coordinates": [[[82.47338832716336, 26.652195441286537], [82.57737309705837, 26.604079037547255], [82.66300761344249, 26.604079037547255], [82.71194162280484, 26.554587879415422], [82.818984768285, 26.568335423340933], [82.9000317212914, 26.514720002031446], [83.01930836911214, 26.474852124647473], [83.07130075405965, 26.41023866819758], [83.13246826576258, 26.385493089131664], [83.10953044887398, 26.283761264082898], [83.06365481509678, 26.279637000905243], [82.93520304052059, 26.41023866819758], [82.88168146778052, 26.38274358034656], [82.88626903115824, 26.245268141091472], [82.82204314387015, 26.187528456604333], [82.67829949136822, 26.25626617623188], [82.54984771679204, 26.28788552726055], [82.39845812532727, 26.300258316793506], [82.37857868402381, 26.37999407156146], [82.22260152918129, 26.41023866819758], [82.25318528503277, 26.421236703337986], [82.33576142583175, 26.57795870408879], [82.42751269338616, 26.54633935306012], [82.47338832716336, 26.652195441286537]]]}}, {"type": "Feature", "properties": {"district": "Rae Bareli", "dt_code": "158", "st_nm": "Uttar Pradesh", "st_code": "09", "year": "2011_c"}, "geometry": {"type": "Polygon", "coordinates": [[[81.1613452011352, 26.587581984836646], [81.18122464243866, 26.60682854633236], [81.34484773624405, 26.543589844275015], [81.40754443573957, 26.315380615111568], [81.35708123858463, 26.278262246512693], [81.37390230430294, 26.188903210996884], [81.33873098507375, 26.04730350856414], [81.3066180414297, 26.018433666320572], [81.4457741305539, 25.93457364837497], [81.33261423390346, 25.869960191925077], [81.33873098507375, 25.81084575304539], [81.21945433725301, 25.865835928747423], [81.21639596166786, 25.940072665945173], [81.0634771824105, 26.000561859217413], [81.01454317304814, 26.07479859641516], [80.87538708392395, 26.055552034919447], [80.67353429530424, 26.122915000154443], [80.69341373660768, 26.161408123145865], [80.81880713559872, 26.20127600052984], [81.04971449227733, 26.375869808383808], [81.00995560967043, 26.423986212123086], [80.9992512951224, 26.53259180913461], [81.04818530448476, 26.50509672128359], [81.1613452011352, 26.587581984836646]]]}}, {"type": "Feature", "properties": {"district": "Jalaun", "dt_code": "165", "st_nm": "Uttar Pradesh", "st_code": "09", "year": "2011_c"}, "geometry": {"type": "Polygon", "coordinates": [[[79.13517137597518, 26.4404832648337], [79.21468914118901, 26.436359001656047], [79.32479066225432, 26.39786587866462], [79.47312187813395, 26.432234738478392], [79.50676400957057, 26.3648717732434], [79.55263964334777, 26.270013720157387], [79.64897847427991, 26.210899281277698], [79.76213837093036, 26.183404193426682], [79.78201781223382, 26.11054221062148], [79.91658633798029, 26.08992089473322], [79.95481603279464, 26.023932683890777], [79.86612314082537, 25.93594840276752], [79.87071070420309, 25.882332981458035], [79.78507618781896, 25.863086419962322], [79.7483756807972, 25.9084533149165], [79.61074877946558, 25.897455279776093], [79.5511104555552, 25.821843788185795], [79.49758888281512, 25.857587402392117], [79.39819167629784, 25.788849682764575], [79.32479066225432, 25.766853612483757], [79.21163076560386, 25.788849682764575], [79.03883254504305, 25.868585437532527], [78.93790615073318, 25.95244545547813], [78.9486104652812, 26.02805694706843], [79.01130716477672, 26.083047122770466], [78.9944860990584, 26.19715173735219], [79.13822975156033, 26.338751439784932], [79.13517137597518, 26.4404832648337]]]}}, {"type": "Feature", "properties": {"district": "Azamgarh", "dt_code": "191", "st_nm": "Uttar Pradesh", "st_code": "09", "year": "2011_c"}, "geometry": {"type": "Polygon", "coordinates": [[[83.13246826576258, 26.385493089131664], [83.22880709669472, 26.39511636987952], [83.33737942996746, 26.34974947492534], [83.41842638297385, 26.27413798333504], [83.46736039233622, 26.275512737727592], [83.40925125621841, 26.16828189510862], [83.41842638297385, 26.11054221062148], [83.31902917645657, 26.04867826295669], [83.29609135956797, 25.945571683515375], [83.34808374451546, 25.819094279400694], [83.21810278214672, 25.758605086128455], [83.18751902629523, 25.677494576967952], [83.06671319068192, 25.652748997902034], [82.98260786209038, 25.680244085753053], [82.89850253349883, 25.775102138839063], [82.8251015194553, 25.76960312126886], [82.75475888099692, 25.836966086503853], [82.77310913450779, 25.896080525383542], [82.67829949136822, 26.151784842398012], [82.67829949136822, 26.25626617623188], [82.82204314387015, 26.187528456604333], [82.88626903115824, 26.245268141091472], [82.88168146778052, 26.38274358034656], [82.93520304052059, 26.41023866819758], [83.06365481509678, 26.279637000905243], [83.10953044887398, 26.283761264082898], [83.13246826576258, 26.385493089131664]]]}}, {"type": "Feature", "properties": {"district": "Mau", "dt_code": "192", "st_nm": "Uttar Pradesh", "st_code": "09", "year": "2011_c"}, "geometry": {"type": "Polygon", "coordinates": [[[83.46736039233622, 26.275512737727592], [83.53464465520945, 26.27413798333504], [83.62945429834902, 26.219147807633004], [83.74261419499946, 26.265889456979735], [83.83436546255388, 26.232895351558515], [83.85883246723506, 26.184778947819233], [83.79460657994696, 26.10779270183638], [83.68144668329651, 26.07342384202261], [83.67685911991879, 26.01155989435782], [83.78848982877666, 25.977191034544045], [83.79766495553211, 25.902954297346298], [83.72120556590343, 25.856212647999566], [83.64627536406732, 25.900204788561197], [83.34808374451546, 25.819094279400694], [83.29609135956797, 25.945571683515375], [83.31902917645657, 26.04867826295669], [83.41842638297385, 26.11054221062148], [83.40925125621841, 26.16828189510862], [83.46736039233622, 26.275512737727592]]]}}, {"type": "Feature", "properties": {"district": "Fatehpur", "dt_code": "172", "st_nm": "Uttar Pradesh", "st_code": "09", "year": "2011_c"}, "geometry": {"type": "Polygon", "coordinates": [[[80.59095815450526, 26.23152059716596], [80.59095815450526, 26.176530421463927], [80.67353429530424, 26.122915000154443], [80.87538708392395, 26.055552034919447], [81.01454317304814, 26.07479859641516], [81.0634771824105, 26.000561859217413], [81.21639596166786, 25.940072665945173], [81.21945433725301, 25.865835928747423], [81.33873098507375, 25.81084575304539], [81.22710027621588, 25.714612945566824], [81.20722083491242, 25.5977588222], [81.2607424076525, 25.548267664068167], [81.19345814477926, 25.44791059341195], [81.18887058140153, 25.490527979581028], [81.01913073642586, 25.546892909675616], [80.95490484913778, 25.608756857340406], [80.93196703224916, 25.69261687528601], [80.83868657690218, 25.72561098070723], [80.72399749245916, 25.681618840145603], [80.57260790099437, 25.717362454351928], [80.52214470383944, 25.773727384446513], [80.55272845969091, 25.871334946317628], [80.40592643160385, 25.913952332486705], [80.34628810769348, 25.898830034168647], [80.23618658662818, 25.926325122019662], [80.25453684013907, 26.04592875417159], [80.32487947859745, 26.114666473799137], [80.59095815450526, 26.23152059716596]]]}}, {"type": "Feature", "properties": {"district": "Ballia", "dt_code": "193", "st_nm": "Uttar Pradesh", "st_code": "09", "year": "2011_c"}, "geometry": {"type": "Polygon", "coordinates": [[[83.85883246723506, 26.184778947819233], [83.90623728880483, 26.122915000154443], [84.05609769247705, 26.099544175481075], [84.2961801759111, 25.945571683515375], [84.3542893120289, 25.959319227440886], [84.47203677205707, 25.882332981458035], [84.62495555131443, 25.791599191549675], [84.60048854663326, 25.732484752669986], [84.55767128844118, 25.680244085753053], [84.33593905851802, 25.743482787810393], [84.3191179927997, 25.667871296220095], [84.20595809614926, 25.669246050612646], [84.1402030210686, 25.731109998277436], [84.07444794598793, 25.69536638407111], [84.08056469715822, 25.636251945191425], [83.93070429348602, 25.557890944816023], [83.95364211037462, 25.7489818053806], [83.82060277242071, 25.78610017397947], [83.72120556590343, 25.856212647999566], [83.79766495553211, 25.902954297346298], [83.78848982877666, 25.977191034544045], [83.67685911991879, 26.01155989435782], [83.68144668329651, 26.07342384202261], [83.79460657994696, 26.10779270183638], [83.85883246723506, 26.184778947819233]]]}}, {"type": "Feature", "properties": {"district": "Jaunpur", "dt_code": "194", "st_nm": "Uttar Pradesh", "st_code": "09", "year": "2011_c"}, "geometry": {"type": "Polygon", "coordinates": [[[82.43362944455646, 26.006060876787615], [82.43515863234903, 26.098169421088524], [82.57890228485094, 26.186153702211783], [82.67829949136822, 26.151784842398012], [82.77310913450779, 25.896080525383542], [82.75475888099692, 25.836966086503853], [82.8251015194553, 25.76960312126886], [82.89850253349883, 25.775102138839063], [82.98260786209038, 25.680244085753053], [83.06671319068192, 25.652748997902034], [83.07130075405965, 25.548267664068167], [83.02083755690472, 25.577137506311736], [82.94131979169089, 25.531770611357555], [82.87403552881764, 25.56613947117133], [82.73946700307117, 25.546892909675616], [82.69359136929397, 25.394295172102467], [82.62019035525043, 25.394295172102467], [82.51620558535542, 25.441036821449195], [82.4428045713119, 25.518023067432047], [82.32964467466145, 25.533145365750105], [82.22413071697386, 25.589510295844693], [82.15072970293033, 25.673370313790297], [82.1874302099521, 25.70773917360407], [82.21801396580358, 25.839715595288958], [82.27918147750651, 25.84246510407406], [82.35411167934262, 25.90432905173885], [82.36940355726836, 25.98269005211425], [82.43362944455646, 26.006060876787615]]]}}, {"type": "Feature", "properties": {"district": "Jhansi", "dt_code": "166", "st_nm": "Uttar Pradesh", "st_code": "09", "year": "2011_c"}, "geometry": {"type": "Polygon", "coordinates": [[[78.88591376578569, 25.912577578094155], [78.93790615073318, 25.95244545547813], [79.03883254504305, 25.868585437532527], [79.21163076560386, 25.788849682764575], [79.32479066225432, 25.766853612483757], [79.39819167629784, 25.788849682764575], [79.35537441810578, 25.644500471546728], [79.39360411292012, 25.519397821824597], [79.28044421626967, 25.32418269808237], [79.26362315055137, 25.273316785557988], [79.2789150284771, 25.243072188921868], [79.29267771861026, 25.18395775004218], [79.30491122095086, 25.179833486864524], [79.32326147446173, 25.149588890228404], [79.24527289704048, 25.113845276022083], [79.13058381259746, 25.109721012844428], [79.06329954972422, 25.222450873033605], [78.93026021177032, 25.207328574715543], [78.87979701461539, 25.15783741658371], [78.87062188785995, 25.18670725882728], [78.96084396762178, 25.344804013970634], [78.87979701461539, 25.38604664574716], [78.94249371411091, 25.49190273397358], [78.8843845779931, 25.515273558646946], [78.73146579873575, 25.457533874159807], [78.77428305692781, 25.35305254032594], [78.65959397248479, 25.38329713696206], [78.51279194439772, 25.27606629434309], [78.55866757817493, 25.21282759228575], [78.44703686931706, 25.12209380237739], [78.39045692099184, 25.205953820322993], [78.34458128721462, 25.328306961260022], [78.33999372383691, 25.41629124238328], [78.33999372383691, 25.43278829509389], [78.35528560176265, 25.452034856589602], [78.39504448436955, 25.4437863302343], [78.4164531134656, 25.47678043565552], [78.41951148905073, 25.531770611357555], [78.45162443269479, 25.57163848874153], [78.65806478469221, 25.559265699208574], [78.71770310860259, 25.60463259416275], [78.81098356394958, 25.619754892480813], [78.76357874237979, 25.72011196313703], [78.88591376578569, 25.912577578094155]]]}}, {"type": "Feature", "properties": {"district": "Banda", "dt_code": "170", "st_nm": "Uttar Pradesh", "st_code": "09", "year": "2011_c"}, "geometry": {"type": "Polygon", "coordinates": [[[80.34628810769348, 25.898830034168647], [80.40592643160385, 25.913952332486705], [80.55272845969091, 25.871334946317628], [80.52214470383944, 25.773727384446513], [80.57260790099437, 25.717362454351928], [80.72399749245916, 25.681618840145603], [80.83868657690218, 25.72561098070723], [80.93196703224916, 25.69261687528601], [80.95490484913778, 25.608756857340406], [81.01913073642586, 25.546892909675616], [81.02524748759616, 25.50565027789909], [80.88303302288682, 25.41491648799073], [80.8371573891096, 25.350303031540836], [80.69188454881511, 25.269192522380333], [80.71482236570372, 25.0657288722828], [80.59248734229783, 25.09047445134872], [80.50073607474341, 25.040983293216886], [80.4777982578548, 24.97636983676699], [80.40133886822613, 25.069853135460455], [80.34170054431576, 25.013488205365867], [80.2637119668945, 25.024486240506274], [80.29123734716083, 25.058855100320045], [80.35240485886378, 25.12346855676994], [80.43039343628503, 25.174334469294323], [80.40439724381127, 25.243072188921868], [80.31111678846429, 25.285689575090945], [80.315704351842, 25.388796154532262], [80.22089470870245, 25.397044680887568], [80.10467643646685, 25.350303031540836], [80.1429061312812, 25.458908628552358], [80.21477795753215, 25.515273558646946], [80.27900384482024, 25.62662866444357], [80.32029191521973, 25.7517313141657], [80.23159902325045, 25.79847296351243], [80.34628810769348, 25.898830034168647]]]}}, {"type": "Feature", "properties": {"district": "Ghazipur", "dt_code": "195", "st_nm": "Uttar Pradesh", "st_code": "09", "year": "2011_c"}, "geometry": {"type": "Polygon", "coordinates": [[[83.06671319068192, 25.652748997902034], [83.18751902629523, 25.677494576967952], [83.21810278214672, 25.758605086128455], [83.34808374451546, 25.819094279400694], [83.64627536406732, 25.900204788561197], [83.72120556590343, 25.856212647999566], [83.82060277242071, 25.78610017397947], [83.95364211037462, 25.7489818053806], [83.93070429348602, 25.557890944816023], [83.84659896489447, 25.434163049486443], [83.77931470202122, 25.39841943528012], [83.74108500720689, 25.410792224813076], [83.64933373965246, 25.33930499640043], [83.5377030307946, 25.30906039976431], [83.5315862796243, 25.392920417709913], [83.4046636928407, 25.49327748836613], [83.33585024217489, 25.46303289173001], [83.24409897462047, 25.52352208500225], [83.17375633616207, 25.526271593787353], [83.07130075405965, 25.548267664068167], [83.06671319068192, 25.652748997902034]]]}}, {"type": "Feature", "properties": {"district": "Kaushambi", "dt_code": "174", "st_nm": "Uttar Pradesh", "st_code": "09", "year": "2011_c"}, "geometry": {"type": "Polygon", "coordinates": [[[81.19345814477926, 25.44791059341195], [81.2607424076525, 25.548267664068167], [81.20722083491242, 25.5977588222], [81.22710027621588, 25.714612945566824], [81.33873098507375, 25.81084575304539], [81.39225255781382, 25.772352630053962], [81.37390230430294, 25.69536638407111], [81.4687119474425, 25.619754892480813], [81.61092641215185, 25.5977588222], [81.67056473606222, 25.50565027789909], [81.62927666566273, 25.350303031540836], [81.54975890044891, 25.2925633470537], [81.45494925730934, 25.258194487239926], [81.40142768456927, 25.317308926119615], [81.15217007437977, 25.395669926495017], [81.19345814477926, 25.44791059341195]]]}}, {"type": "Feature", "properties": {"district": "Prayagraj", "dt_code": "175", "st_nm": "Uttar Pradesh", "st_code": "09", "year": "2011_c"}, "geometry": {"type": "Polygon", "coordinates": [[[82.15072970293033, 25.673370313790297], [82.22413071697386, 25.589510295844693], [82.32964467466145, 25.533145365750105], [82.29906091880997, 25.302186627801557], [82.22260152918129, 25.27744104873564], [82.19813452450012, 25.223825627426155], [82.2684771629585, 25.18258299564963], [82.32505711128373, 25.071227889853006], [82.22565990476645, 24.929628187420263], [82.15072970293033, 24.89525932760649], [82.09414975460511, 24.81689832723109], [81.94276016314032, 24.845768169474656], [81.8922969659854, 24.98874262629995], [81.79289975946811, 25.00386492461801], [81.66750636047708, 25.06160460910515], [81.62621829007759, 25.16058692536881], [81.54058377369347, 25.18808201321983], [81.54975890044891, 25.2925633470537], [81.62927666566273, 25.350303031540836], [81.67056473606222, 25.50565027789909], [81.61092641215185, 25.5977588222], [81.75161168906862, 25.669246050612646], [81.79748732284583, 25.75035655977315], [81.8861802148151, 25.711863436781723], [82.02227792835416, 25.743482787810393], [82.06356599875363, 25.655498506687135], [82.15072970293033, 25.673370313790297]]]}}, {"type": "Feature", "properties": {"district": "Varanasi", "dt_code": "197", "st_nm": "Uttar Pradesh", "st_code": "09", "year": "2011_c"}, "geometry": {"type": "Polygon", "coordinates": [[[82.69359136929397, 25.394295172102467], [82.73946700307117, 25.546892909675616], [82.87403552881764, 25.56613947117133], [82.94131979169089, 25.531770611357555], [83.02083755690472, 25.577137506311736], [83.07130075405965, 25.548267664068167], [83.17375633616207, 25.526271593787353], [83.12482232679972, 25.45066010219705], [83.18751902629523, 25.41629124238328], [83.14164339251803, 25.321433189297267], [83.02083755690472, 25.314559417334515], [83.03001268366016, 25.243072188921868], [83.00554567897898, 25.205953820322993], [82.78381344905581, 25.203204311537892], [82.77616751009293, 25.270567276772884], [82.66759517682021, 25.255444978454825], [82.70429568384198, 25.32280794368982], [82.69359136929397, 25.394295172102467]]]}}, {"type": "Feature", "properties": {"district": "Chitrakoot", "dt_code": "171", "st_nm": "Uttar Pradesh", "st_code": "09", "year": "2011_c"}, "geometry": {"type": "Polygon", "coordinates": [[[81.01913073642586, 25.546892909675616], [81.18887058140153, 25.490527979581028], [81.19345814477926, 25.44791059341195], [81.15217007437977, 25.395669926495017], [81.40142768456927, 25.317308926119615], [81.45494925730934, 25.258194487239926], [81.54975890044891, 25.2925633470537], [81.54058377369347, 25.18808201321983], [81.49929570329398, 25.148214135835854], [81.39225255781382, 25.131717083125245], [81.2775634733708, 25.166085942939016], [81.26380078323764, 25.053356082749843], [81.15981601334263, 24.91313113470965], [81.12005713073572, 24.903507853961795], [81.0344226143516, 24.952999012093628], [80.94572972238234, 24.966746556019135], [80.8600952059982, 24.928253433027713], [80.83104063793931, 25.03273476686158], [80.8784454595091, 25.0657288722828], [80.84480332807247, 25.18670725882728], [80.72399749245916, 25.117969539199734], [80.71482236570372, 25.0657288722828], [80.69188454881511, 25.269192522380333], [80.8371573891096, 25.350303031540836], [80.88303302288682, 25.41491648799073], [81.02524748759616, 25.50565027789909], [81.01913073642586, 25.546892909675616]]]}}, {"type": "Feature", "properties": {"district": "Chandauli", "dt_code": "196", "st_nm": "Uttar Pradesh", "st_code": "09", "year": "2011_c"}, "geometry": {"type": "Polygon", "coordinates": [[[83.17375633616207, 25.526271593787353], [83.24409897462047, 25.52352208500225], [83.33585024217489, 25.46303289173001], [83.4046636928407, 25.49327748836613], [83.5315862796243, 25.392920417709913], [83.5377030307946, 25.30906039976431], [83.34961293230805, 25.18395775004218], [83.35114212010062, 25.009363942188216], [83.39548856608525, 24.781154713024765], [83.28997460839767, 24.720665519752526], [83.18598983850266, 24.719290765359975], [83.08659263198538, 24.781154713024765], [83.06059643951163, 24.95712327527128], [83.0621256273042, 25.0629793634977], [83.13246826576258, 25.0602298547126], [83.15846445823634, 25.18945676761238], [83.03001268366016, 25.243072188921868], [83.02083755690472, 25.314559417334515], [83.14164339251803, 25.321433189297267], [83.18751902629523, 25.41629124238328], [83.12482232679972, 25.45066010219705], [83.17375633616207, 25.526271593787353]]]}}, {"type": "Feature", "properties": {"district": "Bhadohi", "dt_code": "198", "st_nm": "Uttar Pradesh", "st_code": "09", "year": "2011_c"}, "geometry": {"type": "Polygon", "coordinates": [[[82.32964467466145, 25.533145365750105], [82.4428045713119, 25.518023067432047], [82.51620558535542, 25.441036821449195], [82.62019035525043, 25.394295172102467], [82.69359136929397, 25.394295172102467], [82.70429568384198, 25.32280794368982], [82.66759517682021, 25.255444978454825], [82.51773477314799, 25.23207415378146], [82.3036484821877, 25.269192522380333], [82.2684771629585, 25.18258299564963], [82.19813452450012, 25.223825627426155], [82.22260152918129, 25.27744104873564], [82.29906091880997, 25.302186627801557], [82.32964467466145, 25.533145365750105]]]}}, {"type": "Feature", "properties": {"district": "Mirzapur", "dt_code": "199", "st_nm": "Uttar Pradesh", "st_code": "09", "year": "2011_c"}, "geometry": {"type": "Polygon", "coordinates": [[[82.09414975460511, 24.81689832723109], [82.15072970293033, 24.89525932760649], [82.22565990476645, 24.929628187420263], [82.32505711128373, 25.071227889853006], [82.2684771629585, 25.18258299564963], [82.3036484821877, 25.269192522380333], [82.51773477314799, 25.23207415378146], [82.66759517682021, 25.255444978454825], [82.77616751009293, 25.270567276772884], [82.78381344905581, 25.203204311537892], [83.00554567897898, 25.205953820322993], [83.03001268366016, 25.243072188921868], [83.15846445823634, 25.18945676761238], [83.13246826576258, 25.0602298547126], [83.0621256273042, 25.0629793634977], [83.06059643951163, 24.95712327527128], [82.95355329403148, 24.8361448887268], [82.80675126594441, 24.85126718704486], [82.65842005006478, 24.781154713024765], [82.54526015341432, 24.80452553769813], [82.52385152431829, 24.6766733791909], [82.41833756663071, 24.65192780012498], [82.41833756663071, 24.59418811563784], [82.2975317310174, 24.606560905170802], [82.216484778011, 24.793527502557723], [82.09414975460511, 24.81689832723109]]]}}, {"type": "Feature", "properties": {"district": "Lalitpur", "dt_code": "167", "st_nm": "Uttar Pradesh", "st_code": "09", "year": "2011_c"}, "geometry": {"type": "Polygon", "coordinates": [[[78.44703686931706, 25.12209380237739], [78.55866757817493, 25.21282759228575], [78.63971453118134, 25.071227889853006], [78.63206859221846, 24.95712327527128], [78.6764150382031, 24.898008836391593], [78.76969549355009, 24.859515713400167], [78.78039980809811, 24.705543221434464], [78.7513452400392, 24.599687133208047], [78.88285539020053, 24.640929764984573], [78.95319802865892, 24.547446466291113], [78.91496833384458, 24.459462185167855], [78.98531097230297, 24.441590378064692], [78.99142772347327, 24.416844798998778], [78.9715482821698, 24.348107079371232], [78.80639600057185, 24.17901228908747], [78.70241123067686, 24.227128692826753], [78.58619295844126, 24.353606096941437], [78.50208762984971, 24.39072446554031], [78.38892773319927, 24.262872307033078], [78.32928940928889, 24.32748576348297], [78.36904829189581, 24.3742274128297], [78.26812189758594, 24.449838904419998], [78.27576783654881, 24.662925835265387], [78.19013332016469, 24.841643906297005], [78.1717830666538, 24.876012766110776], [78.34611047500721, 25.012113450973317], [78.33540616045919, 25.0684783810679], [78.33693534825176, 25.084975433778514], [78.37363585527352, 25.09872297770402], [78.44703686931706, 25.12209380237739]]]}}, {"type": "Feature", "properties": {"district": "Sonbhadra", "dt_code": "200", "st_nm": "Uttar Pradesh", "st_code": "09", "year": "2011_c"}, "geometry": {"type": "Polygon", "coordinates": [[[83.06059643951163, 24.95712327527128], [83.08659263198538, 24.781154713024765], [83.18598983850266, 24.719290765359975], [83.28997460839767, 24.720665519752526], [83.39548856608525, 24.781154713024765], [83.48876902143223, 24.735787818070584], [83.53005709183172, 24.643679273769674], [83.52394034066143, 24.550195975076214], [83.50253171156541, 24.5254503960103], [83.40007612946297, 24.49795530815928], [83.38019668815951, 24.31373821955746], [83.40925125621841, 24.26699657021073], [83.32973349100459, 24.102026043104622], [83.2073984675987, 23.921933217680454], [83.09118019536311, 23.87106730515607], [82.94743654286118, 23.87106730515607], [82.81286801711471, 23.96180109506443], [82.66453680123507, 24.128146376563087], [82.7440545664489, 24.165264745161963], [82.77005075892265, 24.370103149652046], [82.71347081059741, 24.379726430399902], [82.7440545664489, 24.49658055376673], [82.79757613918898, 24.576316308534683], [82.77310913450779, 24.642304519377124], [82.70735405942713, 24.636805501806922], [82.67065355240535, 24.69729469507916], [82.52385152431829, 24.6766733791909], [82.54526015341432, 24.80452553769813], [82.65842005006478, 24.781154713024765], [82.80675126594441, 24.85126718704486], [82.95355329403148, 24.8361448887268], [83.06059643951163, 24.95712327527128]]]}}, {"type": "Feature", "properties": {"district": "Amethi", "dt_code": "706", "st_nm": "Uttar Pradesh", "st_code": "09", "year": "update2014"}, "geometry": {"type": "Polygon", "coordinates": [[[81.34484773624405, 26.543589844275015], [81.38154824326581, 26.590331493621747], [81.53599621031574, 26.543589844275015], [81.55893402720434, 26.64119740614613], [81.64151016800332, 26.63982265175358], [81.69809011632854, 26.543589844275015], [81.93970178755518, 26.507846230068694], [81.94887691431062, 26.419861948945435], [81.88159265143739, 26.388242597916765], [81.85253808337848, 26.283761264082898], [82.04980330862048, 26.149035333612908], [82.0482741208279, 26.058301543704548], [81.88465102702253, 26.081672368377916], [81.76843275478693, 26.067924824452405], [81.60022209760383, 26.143536316042706], [81.56657996616721, 26.07342384202261], [81.56963834175237, 25.975816280151495], [81.4457741305539, 25.93457364837497], [81.3066180414297, 26.018433666320572], [81.33873098507375, 26.04730350856414], [81.37390230430294, 26.188903210996884], [81.35708123858463, 26.278262246512693], [81.40754443573957, 26.315380615111568], [81.34484773624405, 26.543589844275015]]]}}, {"type": "Feature", "properties": {"district": "Ghaziabad", "dt_code": "140", "st_nm": "Uttar Pradesh", "st_code": "09", "year": "2011_c"}, "geometry": {"type": "Polygon", "coordinates": [[[77.69008891199312, 28.744571626749003], [77.5463452594912, 28.685457187869314], [77.56622470079466, 28.652463082448094], [77.34143409528635, 28.609845696279017], [77.31696709060516, 28.641465047307687], [77.29861683709427, 28.70882801254268], [77.22827419863589, 28.769317205814918], [77.20839475733244, 28.791313276095735], [77.2221574474656, 28.83118115347971], [77.3903681046487, 28.828431644694607], [77.44694805297392, 28.927413960958273], [77.53105338156547, 28.887546083574296], [77.68397216082283, 28.87379853964879], [77.69008891199312, 28.744571626749003]]]}}, {"type": "Feature", "properties": {"district": "Sambhal", "dt_code": "754", "st_nm": "Uttar Pradesh", "st_code": "09", "year": "2011_c"}, "geometry": {"type": "Polygon", "coordinates": [[[78.3048224046077, 28.438001397210154], [78.41186555008787, 28.46274697627607], [78.4393909303542, 28.589224380390753], [78.40727798671014, 28.78168999534788], [78.62289346546302, 28.806435574413793], [78.68100260158081, 28.763818188244716], [78.64430209455905, 28.668960135158706], [78.75440361562435, 28.644214556092788], [78.80180843719414, 28.534234204688715], [78.87215107565252, 28.468245993846274], [78.79416249823127, 28.398133519826178], [78.65194803352192, 28.318397765058226], [78.57854701947839, 28.06269344804376], [78.47914981296111, 28.11218460617559], [78.31246834357059, 28.274405624496598], [78.27882621213396, 28.38851023907832], [78.3048224046077, 28.438001397210154]]]}}, {"type": "Feature", "properties": {"district": "Mahoba", "dt_code": "169", "st_nm": "Uttar Pradesh", "st_code": "09", "year": "2011_c"}, "geometry": {"type": "Polygon", "coordinates": [[[79.28044421626967, 25.32418269808237], [79.39360411292012, 25.519397821824597], [79.5281726386666, 25.482279453225722], [79.63980334752448, 25.485028962010826], [79.69944167143484, 25.551017172853268], [79.78660537561154, 25.589510295844693], [79.87071070420309, 25.577137506311736], [80.07409268061538, 25.588135541452143], [80.21477795753215, 25.515273558646946], [80.1429061312812, 25.458908628552358], [80.10467643646685, 25.350303031540836], [80.03280461021589, 25.34205450518553], [79.85541882627734, 25.193581030790035], [79.84012694835161, 25.09872297770402], [79.7483756807972, 25.139965609480548], [79.67344547896109, 25.12071904798484], [79.56946070906608, 25.17158496050922], [79.49147213164483, 25.07947641620831], [79.40583761526071, 25.106971504059327], [79.39054573733497, 25.170210206116668], [79.43642137111217, 25.254070224062275], [79.35231604252064, 25.329681715652573], [79.28044421626967, 25.32418269808237]]]}}, {"type": "Feature", "properties": {"district": "Saharanpur", "dt_code": "132", "st_nm": "Uttar Pradesh", "st_code": "09", "year": "2011_c"}, "geometry": {"type": "Polygon", "coordinates": [[[77.5753998275501, 30.401150669772836], [77.65797596834908, 30.401150669772836], [77.72220185563717, 30.32966344136019], [77.95922596348608, 30.24167916023693], [77.8598287569688, 30.113827001729696], [77.801719620851, 30.095955194626537], [77.71608510446687, 29.88561777256625], [77.82006987436188, 29.67390559611341], [77.74055210914806, 29.60929213966352], [77.48670693558083, 29.634037718729434], [77.43930211401106, 29.66978133293576], [77.33684653190862, 29.64366099947729], [77.22368663525818, 29.695901666394224], [77.15181480900722, 29.68765314003892], [77.11970186536317, 29.755016105273913], [77.17322343810325, 29.804507263405746], [77.22674501084332, 29.939233193875733], [77.45612317972936, 30.16331815986153], [77.58304576651297, 30.307667371079376], [77.57998739092783, 30.379154599492022], [77.5753998275501, 30.401150669772836]]]}}, {"type": "Feature", "properties": {"district": "Bijnor", "dt_code": "134", "st_nm": "Uttar Pradesh", "st_code": "09", "year": "2011_c"}, "geometry": {"type": "Polygon", "coordinates": [[[78.53267138570118, 29.064889400213364], [78.38586935761411, 29.020897259651733], [78.21460032484588, 29.02914578600704], [78.07238586013652, 29.082761207316523], [78.12437824508403, 29.17212024283233], [78.11367393053601, 29.25598026077794], [78.02651022635932, 29.386581928070274], [77.9867513437524, 29.528181630503017], [78.02039347518902, 29.5817970518125], [78.13049499625433, 29.651909525832597], [78.20389601029785, 29.73714429817075], [78.33540616045919, 29.79763349144299], [78.51126275660515, 29.724771508637794], [78.53267138570118, 29.63953673629964], [78.61677671429273, 29.558426227139137], [78.80027924940157, 29.464942928445673], [78.92567264839259, 29.438822594987208], [78.8507424465565, 29.34808880507885], [78.76052036679465, 29.26422878713324], [78.68864854054368, 29.239483208067327], [78.65041884572935, 29.1226290847005], [78.53267138570118, 29.064889400213364]]]}}, {"type": "Feature", "properties": {"district": "Muzaffarnagar", "dt_code": "133", "st_nm": "Uttar Pradesh", "st_code": "09", "year": "2011_c"}, "geometry": {"type": "Polygon", "coordinates": [[[77.48670693558083, 29.634037718729434], [77.74055210914806, 29.60929213966352], [77.82006987436188, 29.67390559611341], [77.92711301984204, 29.713773473497387], [78.02039347518902, 29.5817970518125], [77.9867513437524, 29.528181630503017], [78.02651022635932, 29.386581928070274], [78.11367393053601, 29.25598026077794], [77.98980971933756, 29.25598026077794], [77.7956028696807, 29.184493032365292], [77.64421327821591, 29.22573566414182], [77.58610414209812, 29.265603541525795], [77.50505718909172, 29.191366804328045], [77.40413079478186, 29.249106488815183], [77.27720820799826, 29.268353050310896], [77.42401023608531, 29.390706191247926], [77.46376911869223, 29.451195384520165], [77.48670693558083, 29.634037718729434]]]}}, {"type": "Feature", "properties": {"district": "Baghpat", "dt_code": "139", "st_nm": "Uttar Pradesh", "st_code": "09", "year": "2011_c"}, "geometry": {"type": "Polygon", "coordinates": [[[77.2221574474656, 28.83118115347971], [77.21604069629531, 28.853177223760525], [77.23286176201361, 28.919165434602967], [77.16710668693295, 29.033270049184694], [77.14263968225177, 29.16662122526213], [77.15487318459236, 29.297222892554466], [77.27720820799826, 29.268353050310896], [77.40413079478186, 29.249106488815183], [77.50505718909172, 29.191366804328045], [77.4301269872556, 29.10613203198989], [77.47600262103282, 28.9659070839497], [77.44694805297392, 28.927413960958273], [77.3903681046487, 28.828431644694607], [77.2221574474656, 28.83118115347971]]]}}, {"type": "Feature", "properties": {"district": "Meerut", "dt_code": "138", "st_nm": "Uttar Pradesh", "st_code": "09", "year": "2011_c"}, "geometry": {"type": "Polygon", "coordinates": [[[78.07238586013652, 29.082761207316523], [78.07697342351425, 28.976905119090105], [78.12131986949888, 28.87792280282644], [78.02498103856675, 28.87654804843389], [77.69008891199312, 28.744571626749003], [77.68397216082283, 28.87379853964879], [77.53105338156547, 28.887546083574296], [77.44694805297392, 28.927413960958273], [77.47600262103282, 28.9659070839497], [77.4301269872556, 29.10613203198989], [77.50505718909172, 29.191366804328045], [77.58610414209812, 29.265603541525795], [77.64421327821591, 29.22573566414182], [77.7956028696807, 29.184493032365292], [77.98980971933756, 29.25598026077794], [78.11367393053601, 29.25598026077794], [78.12437824508403, 29.17212024283233], [78.07238586013652, 29.082761207316523]]]}}, {"type": "Feature", "properties": {"district": "Moradabad", "dt_code": "135", "st_nm": "Uttar Pradesh", "st_code": "09", "year": "2011_c"}, "geometry": {"type": "Polygon", "coordinates": [[[78.62289346546302, 28.806435574413793], [78.65959397248479, 28.84905296058287], [78.61371833870759, 28.945285768061435], [78.52808382232345, 28.9659070839497], [78.53267138570118, 29.064889400213364], [78.65041884572935, 29.1226290847005], [78.68864854054368, 29.239483208067327], [78.76052036679465, 29.26422878713324], [78.87520945123767, 29.205114348253556], [78.92720183618518, 29.118504821522848], [78.97460665775495, 29.130877611055805], [78.90273483150399, 28.996151680585818], [78.91802670942972, 28.897169364322153], [79.0006028502287, 28.763818188244716], [78.95931477982921, 28.701954240579926], [78.85991757331193, 28.65933685441085], [78.95931477982921, 28.549356503006777], [78.93943533852575, 28.459997467490968], [78.87215107565252, 28.468245993846274], [78.80180843719414, 28.534234204688715], [78.75440361562435, 28.644214556092788], [78.64430209455905, 28.668960135158706], [78.68100260158081, 28.763818188244716], [78.62289346546302, 28.806435574413793]]]}}, {"type": "Feature", "properties": {"district": "Rampur", "dt_code": "136", "st_nm": "Uttar Pradesh", "st_code": "09", "year": "2011_c"}, "geometry": {"type": "Polygon", "coordinates": [[[79.42265868097903, 28.897169364322153], [79.35996198148351, 28.75282015310431], [79.30644040874343, 28.743196872356453], [79.23456858249247, 28.65933685441085], [79.20551401443356, 28.57135257328759], [79.07553305206481, 28.50811387123025], [78.9715482821698, 28.421504344499542], [78.93943533852575, 28.459997467490968], [78.95931477982921, 28.549356503006777], [78.85991757331193, 28.65933685441085], [78.95931477982921, 28.701954240579926], [79.0006028502287, 28.763818188244716], [78.91802670942972, 28.897169364322153], [78.90273483150399, 28.996151680585818], [78.97460665775495, 29.130877611055805], [79.0357741694579, 29.16937073404723], [79.15352162948606, 29.115755312737747], [79.14281731493804, 29.067638908998465], [79.25903558717364, 28.992027417408163], [79.40736680305328, 28.95215954002419], [79.42265868097903, 28.897169364322153]]]}}, {"type": "Feature", "properties": {"district": "Shamli", "dt_code": "704", "st_nm": "Uttar Pradesh", "st_code": "09", "year": "update2014"}, "geometry": {"type": "Polygon", "coordinates": [[[77.15181480900722, 29.68765314003892], [77.22368663525818, 29.695901666394224], [77.33684653190862, 29.64366099947729], [77.43930211401106, 29.66978133293576], [77.48670693558083, 29.634037718729434], [77.46376911869223, 29.451195384520165], [77.42401023608531, 29.390706191247926], [77.27720820799826, 29.268353050310896], [77.15487318459236, 29.297222892554466], [77.12734780432604, 29.3494635594714], [77.13193536770376, 29.484189489941386], [77.10593917523, 29.632662964336884], [77.15181480900722, 29.68765314003892]]]}}, {"type": "Feature", "properties": {"district": "Balrampur", "dt_code": "182", "st_nm": "Uttar Pradesh", "st_code": "09", "year": "2011_c"}, "geometry": {"type": "Polygon", "coordinates": [[[82.07427031330165, 27.401436585226776], [82.02227792835416, 27.580154656258394], [82.08497462784968, 27.633770077567878], [82.12473351045658, 27.735501902616644], [82.20730965125556, 27.844107499628166], [82.44892132248219, 27.67913697252206], [82.66453680123507, 27.723129113083687], [82.70582487163455, 27.703882551587974], [82.75322969320433, 27.58702842822115], [82.7318210641083, 27.486671357564934], [82.71499999839, 27.401436585226776], [82.57737309705837, 27.42205790111504], [82.49326776846682, 27.3588191990577], [82.51161802197771, 27.21172047905475], [82.45656726144506, 27.15123128578251], [82.42139594221587, 27.08524307494007], [82.32505711128373, 27.065996513444357], [82.22871828035159, 27.169103092885674], [82.2975317310174, 27.247464093261076], [82.07427031330165, 27.401436585226776]]]}}, {"type": "Feature", "properties": {"district": "Hamirpur", "dt_code": "168", "st_nm": "Uttar Pradesh", "st_code": "09", "year": "2011_c"}, "geometry": {"type": "Polygon", "coordinates": [[[79.9624619717575, 26.149035333612908], [79.95634522058721, 26.07754810520026], [80.11232237542971, 26.04592875417159], [80.08479699516339, 25.99781235043231], [80.23618658662818, 25.926325122019662], [80.34628810769348, 25.898830034168647], [80.23159902325045, 25.79847296351243], [80.32029191521973, 25.7517313141657], [80.27900384482024, 25.62662866444357], [80.21477795753215, 25.515273558646946], [80.07409268061538, 25.588135541452143], [79.87071070420309, 25.577137506311736], [79.78660537561154, 25.589510295844693], [79.69944167143484, 25.551017172853268], [79.63980334752448, 25.485028962010826], [79.5281726386666, 25.482279453225722], [79.39360411292012, 25.519397821824597], [79.35537441810578, 25.644500471546728], [79.39819167629784, 25.788849682764575], [79.49758888281512, 25.857587402392117], [79.5511104555552, 25.821843788185795], [79.61074877946558, 25.897455279776093], [79.7483756807972, 25.9084533149165], [79.78507618781896, 25.863086419962322], [79.87071070420309, 25.882332981458035], [79.86612314082537, 25.93594840276752], [79.95481603279464, 26.023932683890777], [79.91658633798029, 26.08992089473322], [79.9624619717575, 26.149035333612908]]]}}, {"type": "Feature", "properties": {"district": "Pratapgarh", "dt_code": "173", "st_nm": "Uttar Pradesh", "st_code": "09", "year": "2011_c"}, "geometry": {"type": "Polygon", "coordinates": [[[82.0482741208279, 26.058301543704548], [82.10026650577541, 26.07204908763006], [82.19813452450012, 26.018433666320572], [82.24248097048475, 26.056926789311998], [82.35869924272035, 26.004686122395064], [82.43362944455646, 26.006060876787615], [82.36940355726836, 25.98269005211425], [82.35411167934262, 25.90432905173885], [82.27918147750651, 25.84246510407406], [82.21801396580358, 25.839715595288958], [82.1874302099521, 25.70773917360407], [82.15072970293033, 25.673370313790297], [82.06356599875363, 25.655498506687135], [82.02227792835416, 25.743482787810393], [81.8861802148151, 25.711863436781723], [81.79748732284583, 25.75035655977315], [81.75161168906862, 25.669246050612646], [81.61092641215185, 25.5977588222], [81.4687119474425, 25.619754892480813], [81.37390230430294, 25.69536638407111], [81.39225255781382, 25.772352630053962], [81.33873098507375, 25.81084575304539], [81.33261423390346, 25.869960191925077], [81.4457741305539, 25.93457364837497], [81.56963834175237, 25.975816280151495], [81.56657996616721, 26.07342384202261], [81.60022209760383, 26.143536316042706], [81.76843275478693, 26.067924824452405], [81.88465102702253, 26.081672368377916], [82.0482741208279, 26.058301543704548]]]}}], "metadata": {"source": "udit-001/india-maps-data (Census 2011)", "url": "https://github.com/udit-001/india-maps-data", "license": "ODbL (Open Database License)", "feature_count": 76}}