{"type": "FeatureCollection", "features": [{"type": "Feature", "properties": {"district": "South 24 Parganas", "dt_code": "343", "st_nm": "West Bengal", "st_code": "19", "year": "2011_c"}, "geometry": {"type": "MultiPolygon", "coordinates": [[[[88.12526640851542, 21.674209785859738], [88.03198595316843, 21.687957329785245], [88.10385777941939, 21.841929821750945], [88.1665544789149, 21.822683260255232], [88.17114204229263, 21.737448487917078], [88.12526640851542, 21.674209785859738]]], [[[89.01525370379326, 21.778691119693605], [89.09324228121451, 21.652213715578924], [89.03819152068186, 21.610971083802397], [89.01525370379326, 21.778691119693605]]], [[[88.08244915032336, 22.26122991147897], [88.09009508928622, 22.362961736527737], [88.16961285450006, 22.482565368679666], [88.23842630516586, 22.544429316344456], [88.34241107506087, 22.50456143896048], [88.41428290131182, 22.556802105877413], [88.52132604679198, 22.562301123447618], [88.5610849293989, 22.624165071112408], [88.62378162889442, 22.58017293055078], [88.70329939410824, 22.434448964940383], [88.82257604192898, 22.37121026288304], [88.8042257884181, 22.328592876713962], [89.05501258640017, 22.12787873540153], [89.06877527653333, 21.949160664369916], [89.0076077648304, 21.902419015023185], [88.93267756299429, 21.94228689240716], [88.85315979778045, 21.923040330911448], [88.7629377180186, 21.95465968194012], [88.7629377180186, 22.01514887521236], [88.63295675564986, 21.95465968194012], [88.53203036133999, 21.852927856891355], [88.4448666571633, 21.917541313341246], [88.39134508442322, 21.896919997452983], [88.35923214077917, 21.80481145315207], [88.26748087322477, 21.72782520716922], [88.30265219245396, 21.670085522682083], [88.2598349342619, 21.55598090810036], [88.21243011269212, 21.782815382871256], [88.14514584981887, 21.95465968194012], [88.20784254931439, 22.026146910352765], [88.2185468638624, 22.103133156335616], [88.18337554463321, 22.18699317428122], [88.08244915032336, 22.26122991147897]]], [[[88.77670040815177, 21.868050155209414], [88.80881335179582, 21.668710768289532], [88.7461166523003, 21.661836996326777], [88.69106589176765, 21.75119603184259], [88.71553289644882, 21.905168523808285], [88.77670040815177, 21.868050155209414]]], [[[88.9433818775423, 21.914791804556145], [88.94796944092002, 21.769067838945748], [88.82104685413641, 21.9271645940891], [88.88221436583936, 21.913417050163595], [88.9433818775423, 21.914791804556145]]]]}}, {"type": "Feature", "properties": {"district": "Paschim Medinipur", "dt_code": "344", "st_nm": "West Bengal", "st_code": "19", "year": "2011_c"}, "geometry": {"type": "Polygon", "coordinates": [[[87.52276641824142, 22.927985791866156], [87.51053291590082, 22.897741195230036], [87.62980956372157, 22.81250642289188], [87.74144027257944, 22.776762808685557], [87.81331209883041, 22.614541790364548], [87.85307098143731, 22.595295228868835], [87.89282986404423, 22.51968373727854], [87.64663062943987, 22.435823719332934], [87.64663062943987, 22.332717139891617], [87.72309001906856, 22.31896959596611], [87.70168138997252, 22.12650398100898], [87.53805829616715, 22.082511840447353], [87.4600697187459, 22.008275103249602], [87.4768907844642, 21.899669506238084], [87.44171946523501, 21.767693084553198], [87.28268393480735, 21.80343669875952], [87.24904180337074, 21.854302611283906], [87.24292505220045, 21.964282962687975], [87.13741109451287, 22.12650398100898], [87.1817575404975, 22.191117437458875], [87.2046953573861, 22.303847297648048], [87.16187809919404, 22.424825684192527], [87.08236033398022, 22.471567333539255], [87.09918139969852, 22.6942775451325], [87.07624358280992, 22.725896896161174], [87.06401008046933, 22.850999545883305], [87.27045043246677, 22.903240212800238], [87.35761413664346, 22.95410612532462], [87.45701134316076, 22.912863493548095], [87.52276641824142, 22.927985791866156]]]}}, {"type": "Feature", "properties": {"district": "Purba Medinipur", "dt_code": "345", "st_nm": "West Bengal", "st_code": "19", "year": "2011_c"}, "geometry": {"type": "Polygon", "coordinates": [[[87.44171946523501, 21.767693084553198], [87.4768907844642, 21.899669506238084], [87.4600697187459, 22.008275103249602], [87.53805829616715, 22.082511840447353], [87.70168138997252, 22.12650398100898], [87.72309001906856, 22.31896959596611], [87.64663062943987, 22.332717139891617], [87.64663062943987, 22.435823719332934], [87.89282986404423, 22.51968373727854], [87.93717631002886, 22.422076175407426], [87.9524681879546, 22.27635220979703], [87.99834382173181, 22.24473285876836], [88.01516488745011, 22.20211547259928], [88.13597072306344, 22.18561841988867], [88.18643392021836, 22.104507910728167], [88.06409889681247, 22.017898383997462], [87.95552656353975, 21.830931786610538], [87.78884509414922, 21.698955364925652], [87.6741560097062, 21.650838961186373], [87.48453672342708, 21.61509534698005], [87.44171946523501, 21.767693084553198]]]}}, {"type": "Feature", "properties": {"district": "Jhargram", "dt_code": "776", "st_nm": "West Bengal", "st_code": "19", "year": "2017_c"}, "geometry": {"type": "Polygon", "coordinates": [[[87.07624358280992, 22.725896896161174], [87.09918139969852, 22.6942775451325], [87.08236033398022, 22.471567333539255], [87.16187809919404, 22.424825684192527], [87.2046953573861, 22.303847297648048], [87.1817575404975, 22.191117437458875], [87.13741109451287, 22.12650398100898], [87.24292505220045, 21.964282962687975], [87.10835652645397, 21.924415085304], [87.10071058749111, 21.86392589203176], [87.00131338097381, 21.913417050163595], [87.02883876124014, 22.038519699885725], [86.96461287395205, 22.085261349232454], [86.83769028716844, 22.097634138765414], [86.72758876610314, 22.21586301652479], [86.83310272379072, 22.32584336792886], [86.84533622613131, 22.400080105126612], [86.7642892731249, 22.426200438585077], [86.80098978014666, 22.488064386249867], [86.76581846091747, 22.576048667373126], [86.65877531543732, 22.576048667373126], [86.64195424971902, 22.65715917653363], [86.55937810892004, 22.713524106628213], [86.60984130607497, 22.79875887896637], [86.69547582245909, 22.76851428233025], [86.89427023549366, 22.651660158963423], [87.01507607110698, 22.650285404570873], [87.07624358280992, 22.725896896161174]]]}}, {"type": "Feature", "properties": {"district": "Darjeeling", "dt_code": "327", "st_nm": "West Bengal", "st_code": "19", "year": "2011_c"}, "geometry": {"type": "Polygon", "coordinates": [[[88.03810270433873, 27.219969005410057], [88.09621184045652, 27.133359478679353], [88.15432097657431, 27.109988654005985], [88.28124356335792, 27.131984724286802], [88.42498721585984, 27.071495531014563], [88.42345802806727, 26.956016162040285], [88.47850878859992, 26.880404670449987], [88.43110396703014, 26.819915477177748], [88.44945422054101, 26.70306135381092], [88.40052021117867, 26.64394691493123], [88.33323594830543, 26.496848194928287], [88.23995549295844, 26.45835507193686], [88.10997453058968, 26.54771410745267], [88.16043772774461, 26.63707314296848], [88.18643392021836, 26.771799073438466], [88.12067884513769, 26.950517144470084], [87.99222707056151, 27.108613899613434], [88.03810270433873, 27.219969005410057]]]}}, {"type": "Feature", "properties": {"district": "Jalpaiguri", "dt_code": "328", "st_nm": "West Bengal", "st_code": "19", "year": "2011_c"}, "geometry": {"type": "Polygon", "coordinates": [[[88.40052021117867, 26.64394691493123], [88.44945422054101, 26.70306135381092], [88.43110396703014, 26.819915477177748], [88.47850878859992, 26.880404670449987], [88.60237299979838, 26.880404670449987], [88.66354051150132, 26.925771565404165], [88.75987934243346, 26.925771565404165], [88.78893391049236, 26.99175977624661], [88.86845167570618, 26.96563944278814], [88.9204440606537, 26.99450928503171], [89.08865471783679, 26.88865319680529], [89.09018390562936, 26.84053679306601], [89.04277908405959, 26.631574125398274], [89.10547578355511, 26.593081002406848], [89.11923847368826, 26.524343282779302], [88.96173213105318, 26.538090826704813], [88.92656081182399, 26.452856054366656], [88.75987934243346, 26.329128159037076], [88.70177020631567, 26.386867843524215], [88.53050117354742, 26.478976387825124], [88.42039965248212, 26.562836405770728], [88.40052021117867, 26.64394691493123]]]}}, {"type": "Feature", "properties": {"district": "Dakshin Dinajpur", "dt_code": "331", "st_nm": "West Bengal", "st_code": "19", "year": "2011_c"}, "geometry": {"type": "Polygon", "coordinates": [[[88.44639584495587, 25.595009313414895], [88.64671944578302, 25.47815519004807], [88.81187172738098, 25.52352208500225], [88.83939710764729, 25.364050575466347], [88.98772832352694, 25.273316785557988], [88.90973974610569, 25.179833486864524], [88.80575497621066, 25.170210206116668], [88.73388314995971, 25.199080048360237], [88.43569153040787, 25.200454802752787], [88.44945422054101, 25.30768564537176], [88.26901006101734, 25.303561382194108], [88.1787879812555, 25.344804013970634], [88.1665544789149, 25.425914523131137], [88.35923214077917, 25.56613947117133], [88.44639584495587, 25.595009313414895]]]}}, {"type": "Feature", "properties": {"district": "Malda", "dt_code": "332", "st_nm": "West Bengal", "st_code": "19", "year": "2011_c"}, "geometry": {"type": "Polygon", "coordinates": [[[87.71085651672797, 25.258194487239926], [87.76284890167547, 25.265068259202682], [87.81789966220812, 25.241697434529318], [87.84695423026702, 25.298062364623902], [87.7842575307715, 25.34067975079298], [87.7674364650532, 25.41629124238328], [87.86683367157048, 25.497401751543784], [87.96011412691746, 25.53864438332031], [88.06715727239762, 25.483654207618272], [88.10844534279711, 25.326932206867472], [88.1497334131966, 25.271942031165437], [88.26901006101734, 25.303561382194108], [88.44945422054101, 25.30768564537176], [88.43569153040787, 25.200454802752787], [88.45251259612617, 25.07947641620831], [88.39440346000838, 24.96949606480424], [88.27818518777278, 24.889760310036287], [88.22619280282527, 24.959872784056383], [88.14055828644115, 24.9145058891022], [88.17420041787777, 24.860890467792718], [88.0686864601902, 24.77015667788436], [88.0273983897907, 24.690420923116406], [87.89130067625166, 24.855391450222513], [87.96011412691746, 24.921379661064957], [87.95399737574718, 24.97362032798189], [87.79496184531952, 25.087724942563614], [87.77966996739379, 25.144089872658203], [87.77814077960122, 25.24994596088462], [87.71085651672797, 25.258194487239926]]]}}, {"type": "Feature", "properties": {"district": "Murshidabad", "dt_code": "333", "st_nm": "West Bengal", "st_code": "19", "year": "2011_c"}, "geometry": {"type": "Polygon", "coordinates": [[[87.89130067625166, 24.855391450222513], [88.0273983897907, 24.690420923116406], [88.13291234747828, 24.510328097692238], [88.334765136098, 24.442965132457246], [88.38216995766778, 24.396223483110514], [88.55955574160632, 24.308239201987256], [88.68341995280478, 24.324736254697868], [88.74152908892258, 24.254623780677772], [88.7461166523003, 24.1473929380588], [88.70024101852309, 24.096527025534417], [88.63142756785729, 24.030538814691976], [88.51215092003653, 23.99204569170055], [88.40816615014154, 23.820201392631688], [88.23842630516586, 23.802329585528526], [88.17725879346293, 23.761086953752], [88.06104052122733, 23.722593830760573], [88.00904813627983, 23.844946971697603], [87.96623087808776, 23.80920335749128], [87.89130067625166, 23.8394479541274], [87.84389585468188, 23.909560428147497], [87.86071692040018, 24.02503979712177], [87.89741742742194, 24.044286358617484], [87.89894661521453, 24.162515236376862], [87.98458113159865, 24.190010324227877], [88.0166940752427, 24.310988710772357], [87.95705575133232, 24.341233307408476], [87.97846438042835, 24.416844798998778], [87.94788062457688, 24.517201869654993], [87.88977148845908, 24.565318273394276], [87.90812174196996, 24.722040274145076], [87.83930829130415, 24.74541109881844], [87.89130067625166, 24.855391450222513]]]}}, {"type": "Feature", "properties": {"district": "Birbhum", "dt_code": "334", "st_nm": "West Bengal", "st_code": "19", "year": "2011_c"}, "geometry": {"type": "Polygon", "coordinates": [[[87.88977148845908, 24.565318273394276], [87.94788062457688, 24.517201869654993], [87.97846438042835, 24.416844798998778], [87.95705575133232, 24.341233307408476], [88.0166940752427, 24.310988710772357], [87.98458113159865, 24.190010324227877], [87.89894661521453, 24.162515236376862], [87.89741742742194, 24.044286358617484], [87.86071692040018, 24.02503979712177], [87.84389585468188, 23.909560428147497], [87.89130067625166, 23.8394479541274], [87.96623087808776, 23.80920335749128], [87.90965092976253, 23.718469567582922], [87.95858493912489, 23.630485286459663], [87.929530371066, 23.569996093187424], [87.84542504247445, 23.55074953169171], [87.70779814114283, 23.619487251319256], [87.53347073278943, 23.60848921617885], [87.44630702861274, 23.613988233749055], [87.40960652159097, 23.68685021655425], [87.26433368129648, 23.74871416421904], [87.15423216023117, 23.74871416421904], [87.08541870956536, 23.811952866276382], [87.12976515555, 23.85319549805291], [87.23374992544501, 23.85594500683801], [87.29491743714794, 23.90131190179219], [87.23374992544501, 24.02503979712177], [87.33620550754743, 24.034663077869627], [87.44019027744244, 23.982422410952694], [87.63133875151414, 24.163889990769412], [87.638984690477, 24.254623780677772], [87.70626895335025, 24.260122798247973], [87.80107859648982, 24.382475939185007], [87.79343265752695, 24.583190080497435], [87.88977148845908, 24.565318273394276]]]}}, {"type": "Feature", "properties": {"district": "Nadia", "dt_code": "336", "st_nm": "West Bengal", "st_code": "19", "year": "2011_c"}, "geometry": {"type": "Polygon", "coordinates": [[[88.17725879346293, 23.761086953752], [88.23842630516586, 23.802329585528526], [88.40816615014154, 23.820201392631688], [88.51215092003653, 23.99204569170055], [88.63142756785729, 24.030538814691976], [88.70024101852309, 24.096527025534417], [88.74305827671515, 24.034663077869627], [88.73235396216714, 23.910935182540047], [88.6069605631761, 23.861444024408215], [88.56414330498404, 23.712970550012717], [88.59319787304294, 23.616737742534156], [88.7231788354117, 23.512256408700285], [88.7629377180186, 23.446268197857844], [88.70941614527854, 23.231806512619904], [88.67424482604935, 23.094331073364813], [88.68800751618251, 23.025593353737268], [88.65436538474589, 22.91973726551085], [88.61154812655383, 22.907364475977893], [88.40663696234895, 22.943108090184214], [88.40969533793411, 22.989849739530946], [88.50144660548852, 23.10532910850522], [88.41428290131182, 23.20981044233909], [88.32559000934256, 23.315666530565508], [88.3867575210455, 23.497134110382227], [88.25677655867675, 23.619487251319256], [88.13444153527087, 23.664854146273438], [88.17725879346293, 23.761086953752]]]}}, {"type": "Feature", "properties": {"district": "Purba Bardhaman", "dt_code": "335", "st_nm": "West Bengal", "st_code": "19", "year": "2011_c"}, "geometry": {"type": "Polygon", "coordinates": [[[87.96623087808776, 23.80920335749128], [88.00904813627983, 23.844946971697603], [88.06104052122733, 23.722593830760573], [88.17725879346293, 23.761086953752], [88.13444153527087, 23.664854146273438], [88.25677655867675, 23.619487251319256], [88.3867575210455, 23.497134110382227], [88.32559000934256, 23.315666530565508], [88.41428290131182, 23.20981044233909], [88.36076132857175, 23.117701898038177], [88.16961285450006, 23.156195021029603], [88.14667503761144, 23.0778340206542], [88.0503362066793, 22.989849739530946], [87.94023468561402, 22.943108090184214], [87.83930829130415, 22.93623431822146], [87.74296946037202, 22.965104160465028], [87.71238570452054, 23.01047105541921], [87.76437808946804, 23.0750845118691], [87.64510144164731, 23.19606289841358], [87.55640854967804, 23.312917021780407], [87.44936540419789, 23.402276057296216], [87.44936540419789, 23.480637057671615], [87.53347073278943, 23.60848921617885], [87.70779814114283, 23.619487251319256], [87.84542504247445, 23.55074953169171], [87.929530371066, 23.569996093187424], [87.95858493912489, 23.630485286459663], [87.90965092976253, 23.718469567582922], [87.96623087808776, 23.80920335749128]]]}}, {"type": "Feature", "properties": {"district": "Purulia", "dt_code": "340", "st_nm": "West Bengal", "st_code": "19", "year": "2011_c"}, "geometry": {"type": "Polygon", "coordinates": [[[86.60984130607497, 22.79875887896637], [86.55937810892004, 22.713524106628213], [86.41869283200327, 22.790510352611065], [86.43551389772158, 22.926611037473606], [86.50126897280225, 22.993974002708597], [86.24130704806473, 22.9967235114937], [86.04404182282273, 23.145196985889196], [85.88500629239508, 23.16719305617001], [85.81925121731442, 23.268924881218776], [85.8834771046025, 23.35003539037928], [85.85901009992133, 23.42977114514723], [85.88500629239508, 23.48338656645672], [86.03945425944502, 23.498508864774777], [86.08227151763708, 23.565871830009772], [86.15873090726576, 23.558998058047017], [86.17708116077664, 23.469639022531208], [86.31012049873054, 23.411899338044073], [86.36517125926319, 23.531502970195998], [86.48597709487652, 23.63598430402987], [86.7122968881774, 23.69922300608721], [86.80098978014666, 23.69922300608721], [86.90191617445653, 23.63873381281497], [86.89427023549366, 23.512256408700285], [86.8514529773016, 23.387153758978155], [86.78722709001352, 23.339037355238872], [86.78263952663579, 23.260676354863474], [86.71688445155513, 23.121826161215832], [86.75205577078432, 23.08883205579461], [86.6893590712888, 22.930735300651257], [86.70618013700711, 22.879869388126874], [86.60984130607497, 22.79875887896637]]]}}, {"type": "Feature", "properties": {"district": "Bankura", "dt_code": "339", "st_nm": "West Bengal", "st_code": "19", "year": "2011_c"}, "geometry": {"type": "Polygon", "coordinates": [[[87.52276641824142, 22.927985791866156], [87.45701134316076, 22.912863493548095], [87.35761413664346, 22.95410612532462], [87.27045043246677, 22.903240212800238], [87.06401008046933, 22.850999545883305], [87.07624358280992, 22.725896896161174], [87.01507607110698, 22.650285404570873], [86.89427023549366, 22.651660158963423], [86.69547582245909, 22.76851428233025], [86.60984130607497, 22.79875887896637], [86.70618013700711, 22.879869388126874], [86.6893590712888, 22.930735300651257], [86.75205577078432, 23.08883205579461], [86.71688445155513, 23.121826161215832], [86.78263952663579, 23.260676354863474], [86.78722709001352, 23.339037355238872], [86.8514529773016, 23.387153758978155], [86.89427023549366, 23.512256408700285], [86.90191617445653, 23.63873381281497], [87.01507607110698, 23.631860040852214], [87.20928292076383, 23.557623303654466], [87.27809637142964, 23.499883619167328], [87.44936540419789, 23.402276057296216], [87.55640854967804, 23.312917021780407], [87.64510144164731, 23.19606289841358], [87.76437808946804, 23.0750845118691], [87.71238570452054, 23.01047105541921], [87.64204306606216, 22.98160121317564], [87.63133875151414, 22.899115949622587], [87.52276641824142, 22.927985791866156]]]}}, {"type": "Feature", "properties": {"district": "North 24 Parganas", "dt_code": "337", "st_nm": "West Bengal", "st_code": "19", "year": "2011_c"}, "geometry": {"type": "Polygon", "coordinates": [[[89.05501258640017, 22.12787873540153], [88.8042257884181, 22.328592876713962], [88.82257604192898, 22.37121026288304], [88.70329939410824, 22.434448964940383], [88.62378162889442, 22.58017293055078], [88.5610849293989, 22.624165071112408], [88.52132604679198, 22.562301123447618], [88.41428290131182, 22.556802105877413], [88.35770295298661, 22.63241359746771], [88.35005701402373, 22.654409667748524], [88.35311538960889, 22.79600937018127], [88.40663696234895, 22.943108090184214], [88.61154812655383, 22.907364475977893], [88.65436538474589, 22.91973726551085], [88.68800751618251, 23.025593353737268], [88.67424482604935, 23.094331073364813], [88.70941614527854, 23.231806512619904], [88.81034253958839, 23.25517733729327], [88.94185268974972, 23.205686179161436], [88.85774736115818, 22.967853669250132], [88.96937807001605, 22.84412577392055], [88.91279812169083, 22.757516247189844], [88.96326131884575, 22.69290279073995], [88.92656081182399, 22.650285404570873], [88.99996182586752, 22.428949947370178], [88.9953742624898, 22.287350244937436], [89.06571690094819, 22.207614490169483], [89.05501258640017, 22.12787873540153]]]}}, {"type": "Feature", "properties": {"district": "Hooghly", "dt_code": "338", "st_nm": "West Bengal", "st_code": "19", "year": "2011_c"}, "geometry": {"type": "Polygon", "coordinates": [[[87.85307098143731, 22.595295228868835], [87.81331209883041, 22.614541790364548], [87.74144027257944, 22.776762808685557], [87.62980956372157, 22.81250642289188], [87.51053291590082, 22.897741195230036], [87.52276641824142, 22.927985791866156], [87.63133875151414, 22.899115949622587], [87.64204306606216, 22.98160121317564], [87.71238570452054, 23.01047105541921], [87.74296946037202, 22.965104160465028], [87.83930829130415, 22.93623431822146], [87.94023468561402, 22.943108090184214], [88.0503362066793, 22.989849739530946], [88.14667503761144, 23.0778340206542], [88.16961285450006, 23.156195021029603], [88.36076132857175, 23.117701898038177], [88.41428290131182, 23.20981044233909], [88.50144660548852, 23.10532910850522], [88.40969533793411, 22.989849739530946], [88.40663696234895, 22.943108090184214], [88.35311538960889, 22.79600937018127], [88.35005701402373, 22.654409667748524], [88.19713823476638, 22.662658194103834], [87.99222707056151, 22.70390082588036], [87.85307098143731, 22.595295228868835]]]}}, {"type": "Feature", "properties": {"district": "Howrah", "dt_code": "341", "st_nm": "West Bengal", "st_code": "19", "year": "2011_c"}, "geometry": {"type": "Polygon", "coordinates": [[[88.23842630516586, 22.544429316344456], [88.16961285450006, 22.482565368679666], [88.09009508928622, 22.362961736527737], [88.08244915032336, 22.26122991147897], [87.99834382173181, 22.24473285876836], [87.9524681879546, 22.27635220979703], [87.93717631002886, 22.422076175407426], [87.89282986404423, 22.51968373727854], [87.85307098143731, 22.595295228868835], [87.99222707056151, 22.70390082588036], [88.19713823476638, 22.662658194103834], [88.35005701402373, 22.654409667748524], [88.35770295298661, 22.63241359746771], [88.32100244596484, 22.552677842699758], [88.23842630516586, 22.544429316344456]]]}}, {"type": "Feature", "properties": {"district": "Kolkata", "dt_code": "342", "st_nm": "West Bengal", "st_code": "19", "year": "2011_c"}, "geometry": {"type": "Polygon", "coordinates": [[[88.41428290131182, 22.556802105877413], [88.34241107506087, 22.50456143896048], [88.23842630516586, 22.544429316344456], [88.32100244596484, 22.552677842699758], [88.35770295298661, 22.63241359746771], [88.41428290131182, 22.556802105877413]]]}}, {"type": "Feature", "properties": {"district": "Alipurduar", "dt_code": "774", "st_nm": "West Bengal", "st_code": "19", "year": "2014_c"}, "geometry": {"type": "Polygon", "coordinates": [[[89.85171942633102, 26.69756233624072], [89.8700696798419, 26.61370231829511], [89.83489836061271, 26.414362931375234], [89.74926384422858, 26.465228843899617], [89.69727145928108, 26.42811047530074], [89.53670674106085, 26.44185801922625], [89.45107222467674, 26.48722491418043], [89.39143390076636, 26.462479335114512], [89.11923847368826, 26.524343282779302], [89.10547578355511, 26.593081002406848], [89.04277908405959, 26.631574125398274], [89.09018390562936, 26.84053679306601], [89.12841360044371, 26.806167933252237], [89.25533618722731, 26.807542687644787], [89.37461283504805, 26.85428433699152], [89.45413060026188, 26.79791940689693], [89.54741105560888, 26.813041705214992], [89.63610394757814, 26.751177757550202], [89.76302653436176, 26.69893709063327], [89.85171942633102, 26.69756233624072]]]}}, {"type": "Feature", "properties": {"district": "Paschim Bardhaman", "dt_code": "777", "st_nm": "West Bengal", "st_code": "19", "year": "2017_c"}, "geometry": {"type": "Polygon", "coordinates": [[[87.08541870956536, 23.811952866276382], [87.15423216023117, 23.74871416421904], [87.26433368129648, 23.74871416421904], [87.40960652159097, 23.68685021655425], [87.44630702861274, 23.613988233749055], [87.53347073278943, 23.60848921617885], [87.44936540419789, 23.480637057671615], [87.44936540419789, 23.402276057296216], [87.27809637142964, 23.499883619167328], [87.20928292076383, 23.557623303654466], [87.01507607110698, 23.631860040852214], [86.90191617445653, 23.63873381281497], [86.80098978014666, 23.69922300608721], [86.82698597262042, 23.76521121692965], [86.80098978014666, 23.833948936557196], [86.9156788645897, 23.882065340296478], [87.08541870956536, 23.811952866276382]]]}}, {"type": "Feature", "properties": {"district": "Kalimpong", "dt_code": "775", "st_nm": "West Bengal", "st_code": "19", "year": "2017_c"}, "geometry": {"type": "Polygon", "coordinates": [[[88.42498721585984, 27.071495531014563], [88.53203036133999, 27.17597686484843], [88.59778543642066, 27.188349654381387], [88.72164964761913, 27.138858496249554], [88.86539330012104, 27.108613899613434], [88.86845167570618, 26.96563944278814], [88.78893391049236, 26.99175977624661], [88.75987934243346, 26.925771565404165], [88.66354051150132, 26.925771565404165], [88.60237299979838, 26.880404670449987], [88.47850878859992, 26.880404670449987], [88.42345802806727, 26.956016162040285], [88.42498721585984, 27.071495531014563]]]}}, {"type": "Feature", "properties": {"district": "Cooch Behar", "dt_code": "329", "st_nm": "West Bengal", "st_code": "19", "year": "2011_c"}, "geometry": {"type": "Polygon", "coordinates": [[[89.83489836061271, 26.414362931375234], [89.84254429957558, 26.38274358034656], [89.78137678787263, 26.35249898371044], [89.70032983486624, 26.217773053240453], [89.72938440292513, 26.17103140389372], [89.63457475978556, 26.22877108838086], [89.60857856731181, 26.153159596790562], [89.6498666377113, 26.063800561274753], [89.54129430443858, 26.006060876787615], [89.3486166425743, 26.01018513996527], [89.22933999475356, 26.124289754546993], [89.15440979291745, 26.13941205286505], [89.09630065679966, 26.390992106701866], [88.98314076014921, 26.447357036796454], [88.90973974610569, 26.37999407156146], [88.98619913573435, 26.34974947492534], [88.92656081182399, 26.283761264082898], [88.75987934243346, 26.329128159037076], [88.92656081182399, 26.452856054366656], [88.96173213105318, 26.538090826704813], [89.11923847368826, 26.524343282779302], [89.39143390076636, 26.462479335114512], [89.45107222467674, 26.48722491418043], [89.53670674106085, 26.44185801922625], [89.69727145928108, 26.42811047530074], [89.74926384422858, 26.465228843899617], [89.83489836061271, 26.414362931375234]]]}}, {"type": "Feature", "properties": {"district": "Uttar Dinajpur", "dt_code": "330", "st_nm": "West Bengal", "st_code": "19", "year": "2011_c"}, "geometry": {"type": "Polygon", "coordinates": [[[88.23995549295844, 26.45835507193686], [88.33323594830543, 26.496848194928287], [88.4846255397702, 26.461104580721962], [88.51520929562169, 26.3648717732434], [88.40204939897124, 26.330502913429626], [88.3515862018163, 26.221897316418104], [88.1787879812555, 26.149035333612908], [88.09315346487136, 25.930449385197317], [88.10079940383424, 25.8300923145411], [88.1436166620263, 25.794348700334776], [88.26748087322477, 25.78197591080182], [88.45404178391874, 25.66374703304244], [88.44639584495587, 25.595009313414895], [88.35923214077917, 25.56613947117133], [88.1665544789149, 25.425914523131137], [88.1787879812555, 25.344804013970634], [88.26901006101734, 25.303561382194108], [88.1497334131966, 25.271942031165437], [88.10844534279711, 25.326932206867472], [88.06715727239762, 25.483654207618272], [88.02128163862041, 25.59638406780745], [88.0503362066793, 25.700865401641316], [87.96776006588033, 25.72561098070723], [87.89282986404423, 25.865835928747423], [87.82707478896356, 25.89058150781334], [87.82248722558585, 25.93594840276752], [87.84695423026702, 25.992313332862107], [87.84083747909673, 25.99643759603976], [87.85307098143731, 26.02943170146098], [87.85001260585217, 26.039054982208835], [87.97540600484321, 26.143536316042706], [88.07327402356792, 26.175155667071376], [88.14667503761144, 26.250767158661674], [88.27971437556535, 26.330502913429626], [88.23995549295844, 26.45835507193686]]]}}], "metadata": {"source": "udit-001/india-maps-data (Census 2011)", "url": "https://github.com/udit-001/india-maps-data", "license": "ODbL (Open Database License)", "feature_count": 24}}